<?xml version="1.0" encoding="UTF-8"?>
<kml xmlns="http://www.opengis.net/kml/2.2">
  <Document id="root_doc">
    <Schema id="Distrito_ALTO_VERA.schema">
      <SimpleField name="Cédula" type="float"/>
      <SimpleField name="cedula" type="string"/>
      <SimpleField name="Cédula_1" type="float"/>
      <SimpleField name="N" type="float"/>
      <SimpleField name="Nombres_y_" type="string"/>
      <SimpleField name="Sexo" type="string"/>
      <SimpleField name="Cambio_de_" type="string"/>
      <SimpleField name="Titular_se" type="string"/>
      <SimpleField name="Cédula_Ti" type="string"/>
      <SimpleField name="Situación" type="string"/>
      <SimpleField name="Comunidad" type="string"/>
      <SimpleField name="Modelo_imp" type="string"/>
      <SimpleField name="Departamen" type="string"/>
      <SimpleField name="Distrito" type="string"/>
      <SimpleField name="Localidad" type="string"/>
      <SimpleField name="Teléfono" type="string"/>
      <SimpleField name="Vivienda_L" type="float"/>
      <SimpleField name="Vivienda_1" type="float"/>
      <SimpleField name="Superficie" type="float"/>
      <SimpleField name="Situaci_1" type="string"/>
      <SimpleField name="Plantado" type="string"/>
      <SimpleField name="Parcela_La" type="float"/>
      <SimpleField name="Parcela_Lo" type="float"/>
      <SimpleField name="Grupo_Impl" type="string"/>
      <SimpleField name="Grupo_de_P" type="string"/>
      <SimpleField name="Jornales" type="float"/>
      <SimpleField name="Monto" type="float"/>
      <SimpleField name="ETAPA_FAO" type="string"/>
      <SimpleField name="Asistencia" type="string"/>
      <SimpleField name="Estado_del" type="string"/>
      <SimpleField name="Empresa" type="string"/>
      <SimpleField name="Lote" type="string"/>
      <SimpleField name="Monitorear" type="string"/>
      <SimpleField name="Fecha_de_M" type="string"/>
      <SimpleField name="F__de_pren" type="string"/>
      <SimpleField name="Estado_FAO" type="string"/>
      <SimpleField name="Etapa_de_i" type="string"/>
      <SimpleField name="Cumple_sup" type="string"/>
      <SimpleField name="Estado_mon" type="string"/>
      <SimpleField name="Situaci_12" type="string"/>
      <SimpleField name="Observaci" type="string"/>
      <SimpleField name="Dias_trans" type="float"/>
      <SimpleField name="Prioridad" type="string"/>
      <SimpleField name="OBJECTID_1" type="int"/>
    </Schema>
    <Document id="Distrito_ALTO_VERA">
      <name>Distrito_ALTO VERA</name>
      <Placemark id="Distrito_ALTO_VERA.1">
        <ExtendedData>
          <SchemaData schemaUrl="#Distrito_ALTO_VERA.schema">
            <SimpleData name="Cédula">6607303.00000000000</SimpleData>
            <SimpleData name="cedula">6607303</SimpleData>
            <SimpleData name="Cédula_1">6607303.00000000000</SimpleData>
            <SimpleData name="N">366.00000000000</SimpleData>
            <SimpleData name="Nombres_y_">LIZ ROSMARI DIAZ BENITEZ</SimpleData>
            <SimpleData name="Sexo">Mujer</SimpleData>
            <SimpleData name="Cambio_de_">NO</SimpleData>
            <SimpleData name="Titular_se">NO</SimpleData>
            <SimpleData name="Cédula_Ti">-</SimpleData>
            <SimpleData name="Situación">NO</SimpleData>
            <SimpleData name="Comunidad">Campesina</SimpleData>
            <SimpleData name="Modelo_imp">Modelo 5</SimpleData>
            <SimpleData name="Departamen">ITAPUA</SimpleData>
            <SimpleData name="Distrito">ALTO VERA</SimpleData>
            <SimpleData name="Localidad">TARUMA</SimpleData>
            <SimpleData name="Teléfono">982767714</SimpleData>
            <SimpleData name="Vivienda_L">-26.73187670000</SimpleData>
            <SimpleData name="Vivienda_1">-55.81995830000</SimpleData>
            <SimpleData name="Superficie">0.70000000000</SimpleData>
            <SimpleData name="Situaci_1">Parametro</SimpleData>
            <SimpleData name="Plantado">Si</SimpleData>
            <SimpleData name="Parcela_La">-26.68692730000</SimpleData>
            <SimpleData name="Parcela_Lo">-55.83105111000</SimpleData>
            <SimpleData name="Grupo_Impl">G2</SimpleData>
            <SimpleData name="Grupo_de_P">A-P3-XX-XX-XX</SimpleData>
            <SimpleData name="Jornales">0.00000000000</SimpleData>
            <SimpleData name="Monto">0.00000000000</SimpleData>
            <SimpleData name="ETAPA_FAO">Mantenimiento A?o 1.1</SimpleData>
            <SimpleData name="Asistencia">-</SimpleData>
            <SimpleData name="Estado_del">Activo</SimpleData>
            <SimpleData name="Empresa">Red Forestal Paraguay SA</SimpleData>
            <SimpleData name="Lote">A</SimpleData>
            <SimpleData name="Monitorear">No</SimpleData>
            <SimpleData name="Fecha_de_M">-</SimpleData>
            <SimpleData name="F__de_pren">-</SimpleData>
            <SimpleData name="Estado_FAO">Monitorear</SimpleData>
            <SimpleData name="Etapa_de_i">Mantenimiento A?o 1.1</SimpleData>
            <SimpleData name="Fecha_visi">2026/09/04</SimpleData>
            <SimpleData name="Cumple_sup">Si</SimpleData>
            <SimpleData name="Estado_mon">-</SimpleData>
            <SimpleData name="Situaci_12">-</SimpleData>
            <SimpleData name="Observaci">-</SimpleData>
            <SimpleData name="Dias_trans">2.51413194444</SimpleData>
            <SimpleData name="Prioridad">ALTA</SimpleData>
            <SimpleData name="OBJECTID_1">366</SimpleData>
          </SchemaData>
        </ExtendedData>
        <MultiGeometry>
          <Polygon>
            <outerBoundaryIs>
              <LinearRing>
                <coordinates>
                  -55.8303850000068,-26.6869951999126,0
                  -55.8307596997499,-26.6874479997785,0
                  -55.83155729982,-26.6869523999233,0
                  -55.831210200087,-26.6865261996665,0
                  -55.8303850000068,-26.6869951999126,0
                </coordinates>
              </LinearRing>
            </outerBoundaryIs>
          </Polygon>
          <Polygon>
            <outerBoundaryIs>
              <LinearRing>
                <coordinates>
                  -55.8311857997546,-26.6864301996206,0
                  -55.8316030996388,-26.6869372000935,0
                  -55.8317516997432,-26.686865299691,0
                  -55.8312308997267,-26.6862889001185,0
                  -55.8311857997546,-26.6864301996206,0
                </coordinates>
              </LinearRing>
            </outerBoundaryIs>
          </Polygon>
        </MultiGeometry>
      </Placemark>
      <Placemark id="Distrito_ALTO_VERA.2">
        <ExtendedData>
          <SchemaData schemaUrl="#Distrito_ALTO_VERA.schema">
            <SimpleData name="Cédula">6600755.00000000000</SimpleData>
            <SimpleData name="cedula">6600755</SimpleData>
            <SimpleData name="Cédula_1">6600755.00000000000</SimpleData>
            <SimpleData name="N">160.00000000000</SimpleData>
            <SimpleData name="Nombres_y_">BACILIA DUARTE SANGER</SimpleData>
            <SimpleData name="Sexo">Mujer</SimpleData>
            <SimpleData name="Cambio_de_">NO</SimpleData>
            <SimpleData name="Titular_se">NO</SimpleData>
            <SimpleData name="Cédula_Ti">-</SimpleData>
            <SimpleData name="Situación">NO</SimpleData>
            <SimpleData name="Comunidad">Ind?gena</SimpleData>
            <SimpleData name="Modelo_imp">Modelo 2</SimpleData>
            <SimpleData name="Departamen">ITAPUA</SimpleData>
            <SimpleData name="Distrito">ALTO VERA</SimpleData>
            <SimpleData name="Localidad">COM INDIG KOEJU</SimpleData>
            <SimpleData name="Teléfono">0982784986</SimpleData>
            <SimpleData name="Vivienda_L">-26.72338610000</SimpleData>
            <SimpleData name="Vivienda_1">-55.83855350000</SimpleData>
            <SimpleData name="Superficie">0.80000000000</SimpleData>
            <SimpleData name="Situaci_1">Par?metro</SimpleData>
            <SimpleData name="Plantado">Si</SimpleData>
            <SimpleData name="Parcela_La">-26.72363442000</SimpleData>
            <SimpleData name="Parcela_Lo">-55.83978559000</SimpleData>
            <SimpleData name="Grupo_Impl">G2</SimpleData>
            <SimpleData name="Grupo_de_P">A-P3-XX-XX-XX</SimpleData>
            <SimpleData name="Jornales">0.00000000000</SimpleData>
            <SimpleData name="Monto">0.00000000000</SimpleData>
            <SimpleData name="ETAPA_FAO">Mantenimiento A?o 1.1</SimpleData>
            <SimpleData name="Asistencia">-</SimpleData>
            <SimpleData name="Estado_del">Activo</SimpleData>
            <SimpleData name="Empresa">Red Forestal Paraguay SA</SimpleData>
            <SimpleData name="Lote">A</SimpleData>
            <SimpleData name="Monitorear">No</SimpleData>
            <SimpleData name="Fecha_de_M">-</SimpleData>
            <SimpleData name="F__de_pren">-</SimpleData>
            <SimpleData name="Estado_FAO">Monitorear</SimpleData>
            <SimpleData name="Etapa_de_i">Mantenimiento A?o 1.1</SimpleData>
            <SimpleData name="Fecha_visi">2026/09/04</SimpleData>
            <SimpleData name="Cumple_sup">Si</SimpleData>
            <SimpleData name="Estado_mon">-</SimpleData>
            <SimpleData name="Situaci_12">-</SimpleData>
            <SimpleData name="Observaci">-</SimpleData>
            <SimpleData name="Dias_trans">2.51420138889</SimpleData>
            <SimpleData name="Prioridad">ALTA</SimpleData>
            <SimpleData name="OBJECTID_1">160</SimpleData>
          </SchemaData>
        </ExtendedData>
        <Polygon>
          <outerBoundaryIs>
            <LinearRing>
              <coordinates>
                -55.839389142198,-26.7231364078169,0
                -55.8392918608758,-26.723159297372,0
                -55.8392026001355,-26.7231802997644,0
                -55.8391941005779,-26.7231932239857,0
                -55.8389715001342,-26.7235317004298,0
                -55.8405298998332,-26.7242181003331,0
                -55.8406644998927,-26.7239649998815,0
                -55.8400955000842,-26.7236558001201,0
                -55.8401891004902,-26.7234877998468,0
                -55.8401393364732,-26.7234649669465,0
                -55.8394117004892,-26.7231310998251,0
                -55.839389142198,-26.7231364078169,0
              </coordinates>
            </LinearRing>
          </outerBoundaryIs>
        </Polygon>
      </Placemark>
      <Placemark id="Distrito_ALTO_VERA.3">
        <ExtendedData>
          <SchemaData schemaUrl="#Distrito_ALTO_VERA.schema">
            <SimpleData name="Cédula">8141631.00000000000</SimpleData>
            <SimpleData name="cedula">8141631</SimpleData>
            <SimpleData name="Cédula_1">8141631.00000000000</SimpleData>
            <SimpleData name="N">156.00000000000</SimpleData>
            <SimpleData name="Nombres_y_">LILIANA BENITEZ CABRERA</SimpleData>
            <SimpleData name="Sexo">Mujer</SimpleData>
            <SimpleData name="Cambio_de_">NO</SimpleData>
            <SimpleData name="Titular_se">NO</SimpleData>
            <SimpleData name="Cédula_Ti">-</SimpleData>
            <SimpleData name="Situación">NO</SimpleData>
            <SimpleData name="Comunidad">Ind?gena</SimpleData>
            <SimpleData name="Modelo_imp">Modelo 1</SimpleData>
            <SimpleData name="Departamen">ITAPUA</SimpleData>
            <SimpleData name="Distrito">ALTO VERA</SimpleData>
            <SimpleData name="Localidad">COM INDIG KOEJU</SimpleData>
            <SimpleData name="Teléfono">0986604402</SimpleData>
            <SimpleData name="Vivienda_L">-26.56099740000</SimpleData>
            <SimpleData name="Vivienda_1">-55.71769950000</SimpleData>
            <SimpleData name="Superficie">0.80000000000</SimpleData>
            <SimpleData name="Situaci_1">Par?metro</SimpleData>
            <SimpleData name="Plantado">Si</SimpleData>
            <SimpleData name="Parcela_La">-26.72274447000</SimpleData>
            <SimpleData name="Parcela_Lo">-55.83893037000</SimpleData>
            <SimpleData name="Grupo_Impl">G2</SimpleData>
            <SimpleData name="Grupo_de_P">A-P3-XX-XX-XX</SimpleData>
            <SimpleData name="Jornales">0.00000000000</SimpleData>
            <SimpleData name="Monto">0.00000000000</SimpleData>
            <SimpleData name="ETAPA_FAO">Mantenimiento A?o 1.1</SimpleData>
            <SimpleData name="Asistencia">-</SimpleData>
            <SimpleData name="Estado_del">Activo</SimpleData>
            <SimpleData name="Empresa">Red Forestal Paraguay SA</SimpleData>
            <SimpleData name="Lote">A</SimpleData>
            <SimpleData name="Monitorear">No</SimpleData>
            <SimpleData name="Fecha_de_M">-</SimpleData>
            <SimpleData name="F__de_pren">-</SimpleData>
            <SimpleData name="Estado_FAO">Monitorear</SimpleData>
            <SimpleData name="Etapa_de_i">Mantenimiento A?o 1.1</SimpleData>
            <SimpleData name="Fecha_visi">2026/09/04</SimpleData>
            <SimpleData name="Cumple_sup">Si</SimpleData>
            <SimpleData name="Estado_mon">-</SimpleData>
            <SimpleData name="Situaci_12">-</SimpleData>
            <SimpleData name="Observaci">-</SimpleData>
            <SimpleData name="Dias_trans">2.51422453704</SimpleData>
            <SimpleData name="Prioridad">ALTA</SimpleData>
            <SimpleData name="OBJECTID_1">156</SimpleData>
          </SchemaData>
        </ExtendedData>
        <Polygon>
          <outerBoundaryIs>
            <LinearRing>
              <coordinates>
                -55.8391941005779,-26.7231932239857,0
                -55.8392026001355,-26.7231802997644,0
                -55.8392918608758,-26.723159297372,0
                -55.8394695003728,-26.7229087999135,0
                -55.8393027997235,-26.7227805002403,0
                -55.8394050001352,-26.7226012995785,0
                -55.8395047003855,-26.7223617001914,0
                -55.8390066996387,-26.72219170037,0
                -55.8385275000654,-26.7227322000076,0
                -55.8383315001009,-26.7226267001941,0
                -55.8381431004511,-26.722926900192,0
                -55.8388314995206,-26.7231686999542,0
                -55.838923499793,-26.7230640998757,0
                -55.8391423004546,-26.7231976002349,0
                -55.8391941005779,-26.7231932239857,0
              </coordinates>
            </LinearRing>
          </outerBoundaryIs>
        </Polygon>
      </Placemark>
      <Placemark id="Distrito_ALTO_VERA.4">
        <ExtendedData>
          <SchemaData schemaUrl="#Distrito_ALTO_VERA.schema">
            <SimpleData name="Cédula">7112602.00000000000</SimpleData>
            <SimpleData name="cedula">7112602</SimpleData>
            <SimpleData name="Cédula_1">7112602.00000000000</SimpleData>
            <SimpleData name="N">163.00000000000</SimpleData>
            <SimpleData name="Nombres_y_">ELIZA KANIUKA VERA</SimpleData>
            <SimpleData name="Sexo">Mujer</SimpleData>
            <SimpleData name="Cambio_de_">NO</SimpleData>
            <SimpleData name="Titular_se">NO</SimpleData>
            <SimpleData name="Cédula_Ti">-</SimpleData>
            <SimpleData name="Situación">NO</SimpleData>
            <SimpleData name="Comunidad">Ind?gena</SimpleData>
            <SimpleData name="Modelo_imp">Modelo 5</SimpleData>
            <SimpleData name="Departamen">ITAPUA</SimpleData>
            <SimpleData name="Distrito">ALTO VERA</SimpleData>
            <SimpleData name="Localidad">COM INDIG KOEJU</SimpleData>
            <SimpleData name="Teléfono">ND</SimpleData>
            <SimpleData name="Vivienda_L">-26.73099190000</SimpleData>
            <SimpleData name="Vivienda_1">-55.85947380000</SimpleData>
            <SimpleData name="Superficie">0.70000000000</SimpleData>
            <SimpleData name="Situaci_1">Par?metro</SimpleData>
            <SimpleData name="Plantado">Si</SimpleData>
            <SimpleData name="Parcela_La">-26.72571758000</SimpleData>
            <SimpleData name="Parcela_Lo">-55.83935678000</SimpleData>
            <SimpleData name="Grupo_Impl">G2</SimpleData>
            <SimpleData name="Grupo_de_P">A-P3-XX-XX-XX</SimpleData>
            <SimpleData name="Jornales">0.00000000000</SimpleData>
            <SimpleData name="Monto">0.00000000000</SimpleData>
            <SimpleData name="ETAPA_FAO">Mantenimiento A?o 1.1</SimpleData>
            <SimpleData name="Asistencia">-</SimpleData>
            <SimpleData name="Estado_del">Activo</SimpleData>
            <SimpleData name="Empresa">Red Forestal Paraguay SA</SimpleData>
            <SimpleData name="Lote">A</SimpleData>
            <SimpleData name="Monitorear">No</SimpleData>
            <SimpleData name="Fecha_de_M">-</SimpleData>
            <SimpleData name="F__de_pren">-</SimpleData>
            <SimpleData name="Estado_FAO">Monitorear</SimpleData>
            <SimpleData name="Etapa_de_i">Mantenimiento A?o 1.1</SimpleData>
            <SimpleData name="Fecha_visi">2026/09/04</SimpleData>
            <SimpleData name="Cumple_sup">Si</SimpleData>
            <SimpleData name="Estado_mon">-</SimpleData>
            <SimpleData name="Situaci_12">-</SimpleData>
            <SimpleData name="Observaci">-</SimpleData>
            <SimpleData name="Dias_trans">2.51424768518</SimpleData>
            <SimpleData name="Prioridad">ALTA</SimpleData>
            <SimpleData name="OBJECTID_1">163</SimpleData>
          </SchemaData>
        </ExtendedData>
        <Polygon>
          <outerBoundaryIs>
            <LinearRing>
              <coordinates>
                -55.838774999011,-26.7259772998523,0
                -55.839358599588,-26.7261963000861,0
                -55.839397599067,-26.7261046995603,0
                -55.8396674998986,-26.7259448000656,0
                -55.8400101992746,-26.7255286994354,0
                -55.8391838994165,-26.7252412992879,0
                -55.838774999011,-26.7259772998523,0
              </coordinates>
            </LinearRing>
          </outerBoundaryIs>
        </Polygon>
      </Placemark>
      <Placemark id="Distrito_ALTO_VERA.5">
        <ExtendedData>
          <SchemaData schemaUrl="#Distrito_ALTO_VERA.schema">
            <SimpleData name="Cédula">6745283.00000000000</SimpleData>
            <SimpleData name="cedula">6745283</SimpleData>
            <SimpleData name="Cédula_1">6745283.00000000000</SimpleData>
            <SimpleData name="N">357.00000000000</SimpleData>
            <SimpleData name="Nombres_y_">ZULMA  VERA DUARTE</SimpleData>
            <SimpleData name="Sexo">Mujer</SimpleData>
            <SimpleData name="Cambio_de_">NO</SimpleData>
            <SimpleData name="Titular_se">NO</SimpleData>
            <SimpleData name="Cédula_Ti">-</SimpleData>
            <SimpleData name="Situación">NO</SimpleData>
            <SimpleData name="Comunidad">Ind?gena</SimpleData>
            <SimpleData name="Modelo_imp">Modelo 5</SimpleData>
            <SimpleData name="Departamen">ITAPUA</SimpleData>
            <SimpleData name="Distrito">ALTO VERA</SimpleData>
            <SimpleData name="Localidad"><![CDATA[COM INDIG KO'EJU]]></SimpleData>
            <SimpleData name="Teléfono">0</SimpleData>
            <SimpleData name="Vivienda_L">-26.72440930000</SimpleData>
            <SimpleData name="Vivienda_1">-55.83741480000</SimpleData>
            <SimpleData name="Superficie">0.70000000000</SimpleData>
            <SimpleData name="Situaci_1">Parametro</SimpleData>
            <SimpleData name="Plantado">Si</SimpleData>
            <SimpleData name="Parcela_La">-26.72455350000</SimpleData>
            <SimpleData name="Parcela_Lo">-55.83922527000</SimpleData>
            <SimpleData name="Grupo_Impl">G2</SimpleData>
            <SimpleData name="Grupo_de_P">A-P3-XX-XX-XX</SimpleData>
            <SimpleData name="Jornales">0.00000000000</SimpleData>
            <SimpleData name="Monto">0.00000000000</SimpleData>
            <SimpleData name="ETAPA_FAO">Mantenimiento A?o 1.1</SimpleData>
            <SimpleData name="Asistencia">-</SimpleData>
            <SimpleData name="Estado_del">Activo</SimpleData>
            <SimpleData name="Empresa">Red Forestal Paraguay SA</SimpleData>
            <SimpleData name="Lote">A</SimpleData>
            <SimpleData name="Monitorear">No</SimpleData>
            <SimpleData name="Fecha_de_M">-</SimpleData>
            <SimpleData name="F__de_pren">-</SimpleData>
            <SimpleData name="Estado_FAO">Monitorear</SimpleData>
            <SimpleData name="Etapa_de_i">Mantenimiento A?o 1.1</SimpleData>
            <SimpleData name="Fecha_visi">2026/09/04</SimpleData>
            <SimpleData name="Cumple_sup">Si</SimpleData>
            <SimpleData name="Estado_mon">-</SimpleData>
            <SimpleData name="Situaci_12">-</SimpleData>
            <SimpleData name="Observaci">-</SimpleData>
            <SimpleData name="Dias_trans">2.51453703704</SimpleData>
            <SimpleData name="Prioridad">ALTA</SimpleData>
            <SimpleData name="OBJECTID_1">357</SimpleData>
          </SchemaData>
        </ExtendedData>
        <Polygon>
          <outerBoundaryIs>
            <LinearRing>
              <coordinates>
                -55.8386632996747,-26.7241317000864,0
                -55.8384218992172,-26.724413399963,0
                -55.8396199996374,-26.7250451000732,0
                -55.8398933990459,-26.7246015993122,0
                -55.8397770996581,-26.7244728998021,0
                -55.8392615993044,-26.7242069000046,0
                -55.8391471991223,-26.724376999903,0
                -55.8386632996747,-26.7241317000864,0
              </coordinates>
            </LinearRing>
          </outerBoundaryIs>
        </Polygon>
      </Placemark>
      <Placemark id="Distrito_ALTO_VERA.6">
        <ExtendedData>
          <SchemaData schemaUrl="#Distrito_ALTO_VERA.schema">
            <SimpleData name="Cédula">1448656.00000000000</SimpleData>
            <SimpleData name="cedula">1448656</SimpleData>
            <SimpleData name="Cédula_1">1448656.00000000000</SimpleData>
            <SimpleData name="N">365.00000000000</SimpleData>
            <SimpleData name="Nombres_y_">ANASTASIO FERNANDEZ BOGADO</SimpleData>
            <SimpleData name="Sexo">Hombre</SimpleData>
            <SimpleData name="Cambio_de_">NO</SimpleData>
            <SimpleData name="Titular_se">NO</SimpleData>
            <SimpleData name="Cédula_Ti">-</SimpleData>
            <SimpleData name="Situación">NO</SimpleData>
            <SimpleData name="Comunidad">Campesina</SimpleData>
            <SimpleData name="Modelo_imp">Modelo 5</SimpleData>
            <SimpleData name="Departamen">ITAPUA</SimpleData>
            <SimpleData name="Distrito">ALTO VERA</SimpleData>
            <SimpleData name="Localidad">SAN ROQUE GONZALEZ</SimpleData>
            <SimpleData name="Teléfono">0982166484</SimpleData>
            <SimpleData name="Vivienda_L">-26.69484160000</SimpleData>
            <SimpleData name="Vivienda_1">-55.84156030000</SimpleData>
            <SimpleData name="Superficie">0.70000000000</SimpleData>
            <SimpleData name="Situaci_1">Parametro</SimpleData>
            <SimpleData name="Plantado">Si</SimpleData>
            <SimpleData name="Parcela_La">-26.69489779000</SimpleData>
            <SimpleData name="Parcela_Lo">-55.84350365000</SimpleData>
            <SimpleData name="Grupo_Impl">G2</SimpleData>
            <SimpleData name="Grupo_de_P">A-P3-XX-XX-XX</SimpleData>
            <SimpleData name="Jornales">0.00000000000</SimpleData>
            <SimpleData name="Monto">0.00000000000</SimpleData>
            <SimpleData name="ETAPA_FAO">Mantenimiento A?o 1.1</SimpleData>
            <SimpleData name="Asistencia">-</SimpleData>
            <SimpleData name="Estado_del">Activo</SimpleData>
            <SimpleData name="Empresa">Red Forestal Paraguay SA</SimpleData>
            <SimpleData name="Lote">A</SimpleData>
            <SimpleData name="Monitorear">No</SimpleData>
            <SimpleData name="Fecha_de_M">-</SimpleData>
            <SimpleData name="F__de_pren">-</SimpleData>
            <SimpleData name="Estado_FAO">Monitorear</SimpleData>
            <SimpleData name="Etapa_de_i">Mantenimiento A?o 1.1</SimpleData>
            <SimpleData name="Fecha_visi">2026/09/04</SimpleData>
            <SimpleData name="Cumple_sup">Si</SimpleData>
            <SimpleData name="Estado_mon">-</SimpleData>
            <SimpleData name="Situaci_12">-</SimpleData>
            <SimpleData name="Observaci">-</SimpleData>
            <SimpleData name="Dias_trans">2.09994212963</SimpleData>
            <SimpleData name="Prioridad">ALTA</SimpleData>
            <SimpleData name="OBJECTID_1">365</SimpleData>
          </SchemaData>
        </ExtendedData>
        <Polygon>
          <outerBoundaryIs>
            <LinearRing>
              <coordinates>
                -55.842975899491,-26.6940991998318,0
                -55.8431627994111,-26.694761399376,0
                -55.842927799757,-26.695081699274,0
                -55.8431311999297,-26.6953047998909,0
                -55.8436210999402,-26.6949683993518,0
                -55.8441480992118,-26.6955970997295,0
                -55.8443342998409,-26.695447499669,0
                -55.8436457996746,-26.6946143997548,0
                -55.8435412997793,-26.6946606993939,0
                -55.8430456994752,-26.6940567995483,0
                -55.842975899491,-26.6940991998318,0
              </coordinates>
            </LinearRing>
          </outerBoundaryIs>
        </Polygon>
      </Placemark>
      <Placemark id="Distrito_ALTO_VERA.7">
        <ExtendedData>
          <SchemaData schemaUrl="#Distrito_ALTO_VERA.schema">
            <SimpleData name="Cédula">6641375.00000000000</SimpleData>
            <SimpleData name="cedula">6641375</SimpleData>
            <SimpleData name="Cédula_1">6641375.00000000000</SimpleData>
            <SimpleData name="N">162.00000000000</SimpleData>
            <SimpleData name="Nombres_y_">IRMA VERA DUARTE</SimpleData>
            <SimpleData name="Sexo">Mujer</SimpleData>
            <SimpleData name="Cambio_de_">NO</SimpleData>
            <SimpleData name="Titular_se">NO</SimpleData>
            <SimpleData name="Cédula_Ti">-</SimpleData>
            <SimpleData name="Situación">NO</SimpleData>
            <SimpleData name="Comunidad">Ind?gena</SimpleData>
            <SimpleData name="Modelo_imp">Modelo 6</SimpleData>
            <SimpleData name="Departamen">ITAPUA</SimpleData>
            <SimpleData name="Distrito">ALTO VERA</SimpleData>
            <SimpleData name="Localidad">COM INDIG KOEJU</SimpleData>
            <SimpleData name="Teléfono">0983960276</SimpleData>
            <SimpleData name="Vivienda_L">-26.72902500000</SimpleData>
            <SimpleData name="Vivienda_1">-55.86199310000</SimpleData>
            <SimpleData name="Superficie">0.90000000000</SimpleData>
            <SimpleData name="Situaci_1">Par?metro</SimpleData>
            <SimpleData name="Plantado">Si</SimpleData>
            <SimpleData name="Parcela_La">-26.72541441000</SimpleData>
            <SimpleData name="Parcela_Lo">-55.84232153000</SimpleData>
            <SimpleData name="Grupo_Impl">G2</SimpleData>
            <SimpleData name="Grupo_de_P">A-P4-XX-XX-XX</SimpleData>
            <SimpleData name="Jornales">0.00000000000</SimpleData>
            <SimpleData name="Monto">0.00000000000</SimpleData>
            <SimpleData name="ETAPA_FAO">Mantenimiento A?o 1.1</SimpleData>
            <SimpleData name="Asistencia">-</SimpleData>
            <SimpleData name="Estado_del">Activo</SimpleData>
            <SimpleData name="Empresa">Red Forestal Paraguay SA</SimpleData>
            <SimpleData name="Lote">A</SimpleData>
            <SimpleData name="Monitorear">No</SimpleData>
            <SimpleData name="Fecha_de_M">-</SimpleData>
            <SimpleData name="F__de_pren">-</SimpleData>
            <SimpleData name="Estado_FAO">Monitorear</SimpleData>
            <SimpleData name="Etapa_de_i">Mantenimiento A?o 1.1</SimpleData>
            <SimpleData name="Fecha_visi">2026/09/04</SimpleData>
            <SimpleData name="Cumple_sup">Si</SimpleData>
            <SimpleData name="Estado_mon">-</SimpleData>
            <SimpleData name="Situaci_12">-</SimpleData>
            <SimpleData name="Observaci">-</SimpleData>
            <SimpleData name="Dias_trans">2.09997685185</SimpleData>
            <SimpleData name="Prioridad">ALTA</SimpleData>
            <SimpleData name="OBJECTID_1">162</SimpleData>
          </SchemaData>
        </ExtendedData>
        <Polygon>
          <outerBoundaryIs>
            <LinearRing>
              <coordinates>
                -55.8417799995176,-26.7257300002308,0
                -55.8423665993021,-26.7261547002891,0
                -55.8428849992921,-26.724993299969,0
                -55.8422190986493,-26.724757800494,0
                -55.8417799995176,-26.7257300002308,0
              </coordinates>
            </LinearRing>
          </outerBoundaryIs>
        </Polygon>
      </Placemark>
      <Placemark id="Distrito_ALTO_VERA.8">
        <ExtendedData>
          <SchemaData schemaUrl="#Distrito_ALTO_VERA.schema">
            <SimpleData name="Cédula">6655882.00000000000</SimpleData>
            <SimpleData name="cedula">6655882</SimpleData>
            <SimpleData name="Cédula_1">6655882.00000000000</SimpleData>
            <SimpleData name="N">377.00000000000</SimpleData>
            <SimpleData name="Nombres_y_">HILDA  VERA BUSTAMANTE</SimpleData>
            <SimpleData name="Sexo">Mujer</SimpleData>
            <SimpleData name="Cambio_de_">NO</SimpleData>
            <SimpleData name="Titular_se">NO</SimpleData>
            <SimpleData name="Cédula_Ti">-</SimpleData>
            <SimpleData name="Situación">NO</SimpleData>
            <SimpleData name="Comunidad">Campesina</SimpleData>
            <SimpleData name="Modelo_imp">Modelo 5</SimpleData>
            <SimpleData name="Departamen">ITAPUA</SimpleData>
            <SimpleData name="Distrito">ALTO VERA</SimpleData>
            <SimpleData name="Localidad">CERRITO</SimpleData>
            <SimpleData name="Teléfono">985701968</SimpleData>
            <SimpleData name="Vivienda_L">-26.72825850000</SimpleData>
            <SimpleData name="Vivienda_1">-55.86173460000</SimpleData>
            <SimpleData name="Superficie">0.70000000000</SimpleData>
            <SimpleData name="Situaci_1">Parametro</SimpleData>
            <SimpleData name="Plantado">Si</SimpleData>
            <SimpleData name="Parcela_La">-26.72997654000</SimpleData>
            <SimpleData name="Parcela_Lo">-55.86313587000</SimpleData>
            <SimpleData name="Grupo_Impl">G2</SimpleData>
            <SimpleData name="Grupo_de_P">A-P4-XX-XX-XX</SimpleData>
            <SimpleData name="Jornales">0.00000000000</SimpleData>
            <SimpleData name="Monto">0.00000000000</SimpleData>
            <SimpleData name="ETAPA_FAO">Mantenimiento A?o 1.1</SimpleData>
            <SimpleData name="Asistencia">-</SimpleData>
            <SimpleData name="Estado_del">Activo</SimpleData>
            <SimpleData name="Empresa">Red Forestal Paraguay SA</SimpleData>
            <SimpleData name="Lote">A</SimpleData>
            <SimpleData name="Monitorear">No</SimpleData>
            <SimpleData name="Fecha_de_M">-</SimpleData>
            <SimpleData name="F__de_pren">-</SimpleData>
            <SimpleData name="Estado_FAO">Monitorear</SimpleData>
            <SimpleData name="Etapa_de_i">Mantenimiento A?o 1.1</SimpleData>
            <SimpleData name="Fecha_visi">2026/09/04</SimpleData>
            <SimpleData name="Cumple_sup">Si</SimpleData>
            <SimpleData name="Estado_mon">-</SimpleData>
            <SimpleData name="Situaci_12">-</SimpleData>
            <SimpleData name="Observaci">-</SimpleData>
            <SimpleData name="Dias_trans">2.51429398148</SimpleData>
            <SimpleData name="Prioridad">ALTA</SimpleData>
            <SimpleData name="OBJECTID_1">377</SimpleData>
          </SchemaData>
        </ExtendedData>
        <Polygon>
          <outerBoundaryIs>
            <LinearRing>
              <coordinates>
                -55.8627019995087,-26.7301800001739,0
                -55.8631606000819,-26.730517699699,0
                -55.8637488999601,-26.7299152004827,0
                -55.8630788988045,-26.7294334001814,0
                -55.8625598999386,-26.7300133996942,0
                -55.8627019995087,-26.7301800001739,0
              </coordinates>
            </LinearRing>
          </outerBoundaryIs>
        </Polygon>
      </Placemark>
      <Placemark id="Distrito_ALTO_VERA.9">
        <ExtendedData>
          <SchemaData schemaUrl="#Distrito_ALTO_VERA.schema">
            <SimpleData name="Cédula">6873897.00000000000</SimpleData>
            <SimpleData name="cedula">6873897</SimpleData>
            <SimpleData name="Cédula_1">6873897.00000000000</SimpleData>
            <SimpleData name="N">376.00000000000</SimpleData>
            <SimpleData name="Nombres_y_">BALBINA  GOMEZ</SimpleData>
            <SimpleData name="Sexo">Mujer</SimpleData>
            <SimpleData name="Cambio_de_">NO</SimpleData>
            <SimpleData name="Titular_se">NO</SimpleData>
            <SimpleData name="Cédula_Ti">-</SimpleData>
            <SimpleData name="Situación">NO</SimpleData>
            <SimpleData name="Comunidad">Campesina</SimpleData>
            <SimpleData name="Modelo_imp">Modelo 5</SimpleData>
            <SimpleData name="Departamen">ITAPUA</SimpleData>
            <SimpleData name="Distrito">ALTO VERA</SimpleData>
            <SimpleData name="Localidad">CERRITO</SimpleData>
            <SimpleData name="Teléfono">987202914</SimpleData>
            <SimpleData name="Vivienda_L">-26.72847570000</SimpleData>
            <SimpleData name="Vivienda_1">-55.86154400000</SimpleData>
            <SimpleData name="Superficie">0.70000000000</SimpleData>
            <SimpleData name="Situaci_1">Parametro</SimpleData>
            <SimpleData name="Plantado">Si</SimpleData>
            <SimpleData name="Parcela_La">-26.73045735000</SimpleData>
            <SimpleData name="Parcela_Lo">-55.86378930000</SimpleData>
            <SimpleData name="Grupo_Impl">G2</SimpleData>
            <SimpleData name="Grupo_de_P">A-P4-XX-XX-XX</SimpleData>
            <SimpleData name="Jornales">0.00000000000</SimpleData>
            <SimpleData name="Monto">0.00000000000</SimpleData>
            <SimpleData name="ETAPA_FAO">Mantenimiento A?o 1.1</SimpleData>
            <SimpleData name="Asistencia">-</SimpleData>
            <SimpleData name="Estado_del">Activo</SimpleData>
            <SimpleData name="Empresa">Red Forestal Paraguay SA</SimpleData>
            <SimpleData name="Lote">A</SimpleData>
            <SimpleData name="Monitorear">No</SimpleData>
            <SimpleData name="Fecha_de_M">-</SimpleData>
            <SimpleData name="F__de_pren">-</SimpleData>
            <SimpleData name="Estado_FAO">Monitorear</SimpleData>
            <SimpleData name="Etapa_de_i">Mantenimiento A?o 1.1</SimpleData>
            <SimpleData name="Fecha_visi">2026/09/04</SimpleData>
            <SimpleData name="Cumple_sup">Si</SimpleData>
            <SimpleData name="Estado_mon">-</SimpleData>
            <SimpleData name="Situaci_12">-</SimpleData>
            <SimpleData name="Observaci">-</SimpleData>
            <SimpleData name="Dias_trans">2.51431712963</SimpleData>
            <SimpleData name="Prioridad">ALTA</SimpleData>
            <SimpleData name="OBJECTID_1">376</SimpleData>
          </SchemaData>
        </ExtendedData>
        <Polygon>
          <outerBoundaryIs>
            <LinearRing>
              <coordinates>
                -55.8631882995422,-26.7305399993681,0
                -55.8638082998071,-26.7309833001958,0
                -55.8643995996062,-26.7303939001051,0
                -55.8637532995533,-26.7299233003273,0
                -55.8631882995422,-26.7305399993681,0
              </coordinates>
            </LinearRing>
          </outerBoundaryIs>
        </Polygon>
      </Placemark>
      <Placemark id="Distrito_ALTO_VERA.10">
        <ExtendedData>
          <SchemaData schemaUrl="#Distrito_ALTO_VERA.schema">
            <SimpleData name="Cédula">7102615.00000000000</SimpleData>
            <SimpleData name="cedula">7102615</SimpleData>
            <SimpleData name="Cédula_1">7102615.00000000000</SimpleData>
            <SimpleData name="N">158.00000000000</SimpleData>
            <SimpleData name="Nombres_y_">ERNESTA VERA DUARTE</SimpleData>
            <SimpleData name="Sexo">Mujer</SimpleData>
            <SimpleData name="Cambio_de_">NO</SimpleData>
            <SimpleData name="Titular_se">NO</SimpleData>
            <SimpleData name="Cédula_Ti">-</SimpleData>
            <SimpleData name="Situación">NO</SimpleData>
            <SimpleData name="Comunidad">Ind?gena</SimpleData>
            <SimpleData name="Modelo_imp">Modelo 6</SimpleData>
            <SimpleData name="Departamen">ITAPUA</SimpleData>
            <SimpleData name="Distrito">ALTO VERA</SimpleData>
            <SimpleData name="Localidad">COM INDIG KOEJU</SimpleData>
            <SimpleData name="Teléfono">0982806357</SimpleData>
            <SimpleData name="Vivienda_L">-26.72285140000</SimpleData>
            <SimpleData name="Vivienda_1">-55.83792590000</SimpleData>
            <SimpleData name="Superficie">0.90000000000</SimpleData>
            <SimpleData name="Situaci_1">Par?metro</SimpleData>
            <SimpleData name="Plantado">Si</SimpleData>
            <SimpleData name="Parcela_La">-26.72510364000</SimpleData>
            <SimpleData name="Parcela_Lo">-55.84161742000</SimpleData>
            <SimpleData name="Grupo_Impl">G2</SimpleData>
            <SimpleData name="Grupo_de_P">A-P4-XX-XX-XX</SimpleData>
            <SimpleData name="Jornales">0.00000000000</SimpleData>
            <SimpleData name="Monto">0.00000000000</SimpleData>
            <SimpleData name="ETAPA_FAO">Mantenimiento A?o 1.1</SimpleData>
            <SimpleData name="Asistencia">-</SimpleData>
            <SimpleData name="Estado_del">Activo</SimpleData>
            <SimpleData name="Empresa">Red Forestal Paraguay SA</SimpleData>
            <SimpleData name="Lote">A</SimpleData>
            <SimpleData name="Monitorear">No</SimpleData>
            <SimpleData name="Fecha_de_M">-</SimpleData>
            <SimpleData name="F__de_pren">-</SimpleData>
            <SimpleData name="Estado_FAO">Monitorear</SimpleData>
            <SimpleData name="Etapa_de_i">Mantenimiento A?o 1.1</SimpleData>
            <SimpleData name="Fecha_visi">2026/09/04</SimpleData>
            <SimpleData name="Cumple_sup">Si</SimpleData>
            <SimpleData name="Estado_mon">-</SimpleData>
            <SimpleData name="Situaci_12">-</SimpleData>
            <SimpleData name="Observaci">-</SimpleData>
            <SimpleData name="Dias_trans">2.10000000000</SimpleData>
            <SimpleData name="Prioridad">ALTA</SimpleData>
            <SimpleData name="OBJECTID_1">158</SimpleData>
          </SchemaData>
        </ExtendedData>
        <Polygon>
          <outerBoundaryIs>
            <LinearRing>
              <coordinates>
                -55.8410256000042,-26.7254242997198,0
                -55.8417688996876,-26.725725200684,0
                -55.8422066991922,-26.7247499994522,0
                -55.8414595993025,-26.7245029001382,0
                -55.8410256000042,-26.7254242997198,0
              </coordinates>
            </LinearRing>
          </outerBoundaryIs>
        </Polygon>
      </Placemark>
      <Placemark id="Distrito_ALTO_VERA.11">
        <ExtendedData>
          <SchemaData schemaUrl="#Distrito_ALTO_VERA.schema">
            <SimpleData name="Cédula">7282926.00000000000</SimpleData>
            <SimpleData name="cedula">7282926</SimpleData>
            <SimpleData name="Cédula_1">7282926.00000000000</SimpleData>
            <SimpleData name="N">164.00000000000</SimpleData>
            <SimpleData name="Nombres_y_">LEONARDA DUARTE MARTINEZ</SimpleData>
            <SimpleData name="Sexo">Mujer</SimpleData>
            <SimpleData name="Cambio_de_">NO</SimpleData>
            <SimpleData name="Titular_se">NO</SimpleData>
            <SimpleData name="Cédula_Ti">-</SimpleData>
            <SimpleData name="Situación">NO</SimpleData>
            <SimpleData name="Comunidad">Ind?gena</SimpleData>
            <SimpleData name="Modelo_imp">Modelo 6</SimpleData>
            <SimpleData name="Departamen">ITAPUA</SimpleData>
            <SimpleData name="Distrito">ALTO VERA</SimpleData>
            <SimpleData name="Localidad">COM INDIG KOEJU</SimpleData>
            <SimpleData name="Teléfono">0986686364</SimpleData>
            <SimpleData name="Vivienda_L">-26.72463610000</SimpleData>
            <SimpleData name="Vivienda_1">-55.83684290000</SimpleData>
            <SimpleData name="Superficie">0.90000000000</SimpleData>
            <SimpleData name="Situaci_1">Par?metro</SimpleData>
            <SimpleData name="Plantado">Si</SimpleData>
            <SimpleData name="Parcela_La">-26.72488066000</SimpleData>
            <SimpleData name="Parcela_Lo">-55.84081997000</SimpleData>
            <SimpleData name="Grupo_Impl">G2</SimpleData>
            <SimpleData name="Grupo_de_P">A-P4-XX-XX-XX</SimpleData>
            <SimpleData name="Jornales">0.00000000000</SimpleData>
            <SimpleData name="Monto">0.00000000000</SimpleData>
            <SimpleData name="ETAPA_FAO">Mantenimiento A?o 1.1</SimpleData>
            <SimpleData name="Asistencia">-</SimpleData>
            <SimpleData name="Estado_del">Activo</SimpleData>
            <SimpleData name="Empresa">Red Forestal Paraguay SA</SimpleData>
            <SimpleData name="Lote">A</SimpleData>
            <SimpleData name="Monitorear">No</SimpleData>
            <SimpleData name="Fecha_de_M">-</SimpleData>
            <SimpleData name="F__de_pren">-</SimpleData>
            <SimpleData name="Estado_FAO">Monitorear</SimpleData>
            <SimpleData name="Etapa_de_i">Mantenimiento A?o 1.1</SimpleData>
            <SimpleData name="Fecha_visi">2026/09/04</SimpleData>
            <SimpleData name="Cumple_sup">Si</SimpleData>
            <SimpleData name="Estado_mon">-</SimpleData>
            <SimpleData name="Situaci_12">-</SimpleData>
            <SimpleData name="Observaci">-</SimpleData>
            <SimpleData name="Dias_trans">2.09996527778</SimpleData>
            <SimpleData name="Prioridad">ALTA</SimpleData>
            <SimpleData name="OBJECTID_1">164</SimpleData>
          </SchemaData>
        </ExtendedData>
        <Polygon>
          <outerBoundaryIs>
            <LinearRing>
              <coordinates>
                -55.8401948995262,-26.7252217004386,0
                -55.8410233993406,-26.7254234006237,0
                -55.8414482995105,-26.724512000907,0
                -55.8408965993519,-26.7244256000523,0
                -55.8406236988395,-26.7243261998085,0
                -55.8401948995262,-26.7252217004386,0
              </coordinates>
            </LinearRing>
          </outerBoundaryIs>
        </Polygon>
      </Placemark>
      <Placemark id="Distrito_ALTO_VERA.12">
        <ExtendedData>
          <SchemaData schemaUrl="#Distrito_ALTO_VERA.schema">
            <SimpleData name="Cédula">7687650.00000000000</SimpleData>
            <SimpleData name="cedula">7687650</SimpleData>
            <SimpleData name="Cédula_1">7687650.00000000000</SimpleData>
            <SimpleData name="N">356.00000000000</SimpleData>
            <SimpleData name="Nombres_y_">GLORIA MABEL  RIVAS OLMEDO</SimpleData>
            <SimpleData name="Sexo">Mujer</SimpleData>
            <SimpleData name="Cambio_de_">NO</SimpleData>
            <SimpleData name="Titular_se">NO</SimpleData>
            <SimpleData name="Cédula_Ti">-</SimpleData>
            <SimpleData name="Situación">NO</SimpleData>
            <SimpleData name="Comunidad">Ind?gena</SimpleData>
            <SimpleData name="Modelo_imp">Modelo 5</SimpleData>
            <SimpleData name="Departamen">ITAPUA</SimpleData>
            <SimpleData name="Distrito">ALTO VERA</SimpleData>
            <SimpleData name="Localidad"><![CDATA[COM INDIG KO'EJU]]></SimpleData>
            <SimpleData name="Teléfono">984070942</SimpleData>
            <SimpleData name="Vivienda_L">-26.72479170000</SimpleData>
            <SimpleData name="Vivienda_1">-55.83679170000</SimpleData>
            <SimpleData name="Superficie">0.70000000000</SimpleData>
            <SimpleData name="Situaci_1">Parametro</SimpleData>
            <SimpleData name="Plantado">Si</SimpleData>
            <SimpleData name="Parcela_La">-26.72633509000</SimpleData>
            <SimpleData name="Parcela_Lo">-55.83891698000</SimpleData>
            <SimpleData name="Grupo_Impl">G2</SimpleData>
            <SimpleData name="Grupo_de_P">A-P5-XX-XX-XX</SimpleData>
            <SimpleData name="Jornales">0.00000000000</SimpleData>
            <SimpleData name="Monto">0.00000000000</SimpleData>
            <SimpleData name="ETAPA_FAO">Mantenimiento A?o 1.1</SimpleData>
            <SimpleData name="Asistencia">-</SimpleData>
            <SimpleData name="Estado_del">Activo</SimpleData>
            <SimpleData name="Empresa">Red Forestal Paraguay SA</SimpleData>
            <SimpleData name="Lote">A</SimpleData>
            <SimpleData name="Monitorear">No</SimpleData>
            <SimpleData name="Fecha_de_M">-</SimpleData>
            <SimpleData name="F__de_pren">-</SimpleData>
            <SimpleData name="Estado_FAO">Monitorear</SimpleData>
            <SimpleData name="Etapa_de_i">Mantenimiento A?o 1.1</SimpleData>
            <SimpleData name="Fecha_visi">2026/09/04</SimpleData>
            <SimpleData name="Cumple_sup">Si</SimpleData>
            <SimpleData name="Estado_mon">-</SimpleData>
            <SimpleData name="Situaci_12">-</SimpleData>
            <SimpleData name="Observaci">-</SimpleData>
            <SimpleData name="Dias_trans">2.51425925926</SimpleData>
            <SimpleData name="Prioridad">ALTA</SimpleData>
            <SimpleData name="OBJECTID_1">356</SimpleData>
          </SchemaData>
        </ExtendedData>
        <Polygon>
          <outerBoundaryIs>
            <LinearRing>
              <coordinates>
                -55.8386978522374,-26.7260464625011,0
                -55.8386584995444,-26.7260815998627,0
                -55.8384801439127,-26.7259768955135,0
                -55.8376166995649,-26.7254699999161,0
                -55.8373081003694,-26.7257891000775,0
                -55.8377190004369,-26.7260524002005,0
                -55.8379642002033,-26.725792099904,0
                -55.8386533003593,-26.7261673000453,0
                -55.8385220998576,-26.726414800031,0
                -55.8391433001212,-26.7267362995901,0
                -55.8394562001644,-26.7262294001868,0
                -55.8387527996754,-26.7259974000615,0
                -55.8386978522374,-26.7260464625011,0
              </coordinates>
            </LinearRing>
          </outerBoundaryIs>
        </Polygon>
      </Placemark>
      <Placemark id="Distrito_ALTO_VERA.13">
        <ExtendedData>
          <SchemaData schemaUrl="#Distrito_ALTO_VERA.schema">
            <SimpleData name="Cédula">2668268.00000000000</SimpleData>
            <SimpleData name="cedula">2668268</SimpleData>
            <SimpleData name="Cédula_1">2668268.00000000000</SimpleData>
            <SimpleData name="N">364.00000000000</SimpleData>
            <SimpleData name="Nombres_y_">CARMEN SANCHEZ DE DIAZ</SimpleData>
            <SimpleData name="Sexo">Mujer</SimpleData>
            <SimpleData name="Cambio_de_">NO</SimpleData>
            <SimpleData name="Titular_se">NO</SimpleData>
            <SimpleData name="Cédula_Ti">-</SimpleData>
            <SimpleData name="Situación">NO</SimpleData>
            <SimpleData name="Comunidad">Campesina</SimpleData>
            <SimpleData name="Modelo_imp">Modelo 5</SimpleData>
            <SimpleData name="Departamen">ITAPUA</SimpleData>
            <SimpleData name="Distrito">ALTO VERA</SimpleData>
            <SimpleData name="Localidad">SAN ROQUE GONZALEZ</SimpleData>
            <SimpleData name="Teléfono">0985430027</SimpleData>
            <SimpleData name="Vivienda_L">-26.69594050000</SimpleData>
            <SimpleData name="Vivienda_1">-55.84108450000</SimpleData>
            <SimpleData name="Superficie">0.70000000000</SimpleData>
            <SimpleData name="Situaci_1">Parametro</SimpleData>
            <SimpleData name="Plantado">Si</SimpleData>
            <SimpleData name="Parcela_La">-26.68734801000</SimpleData>
            <SimpleData name="Parcela_Lo">-55.83007891000</SimpleData>
            <SimpleData name="Grupo_Impl">G2</SimpleData>
            <SimpleData name="Grupo_de_P">A-P5-XX-XX-XX</SimpleData>
            <SimpleData name="Jornales">0.00000000000</SimpleData>
            <SimpleData name="Monto">0.00000000000</SimpleData>
            <SimpleData name="ETAPA_FAO">Mantenimiento A?o 1.1</SimpleData>
            <SimpleData name="Asistencia">-</SimpleData>
            <SimpleData name="Estado_del">Activo</SimpleData>
            <SimpleData name="Empresa">Red Forestal Paraguay SA</SimpleData>
            <SimpleData name="Lote">A</SimpleData>
            <SimpleData name="Monitorear">No</SimpleData>
            <SimpleData name="Fecha_de_M">-</SimpleData>
            <SimpleData name="F__de_pren">-</SimpleData>
            <SimpleData name="Estado_FAO">Monitorear</SimpleData>
            <SimpleData name="Etapa_de_i">Mantenimiento A?o 1.1</SimpleData>
            <SimpleData name="Fecha_visi">2026/09/04</SimpleData>
            <SimpleData name="Cumple_sup">Si</SimpleData>
            <SimpleData name="Estado_mon">-</SimpleData>
            <SimpleData name="Situaci_12">-</SimpleData>
            <SimpleData name="Observaci">-</SimpleData>
            <SimpleData name="Dias_trans">2.51416666667</SimpleData>
            <SimpleData name="Prioridad">ALTA</SimpleData>
            <SimpleData name="OBJECTID_1">364</SimpleData>
          </SchemaData>
        </ExtendedData>
        <Polygon>
          <outerBoundaryIs>
            <LinearRing>
              <coordinates>
                -55.8300387389534,-26.6878746107676,0
                -55.8300649994694,-26.6878550001405,0
                -55.8300673454842,-26.6878579246359,0
                -55.8305736890716,-26.6875625690662,0
                -55.8307232997111,-26.6874753000395,0
                -55.8307221772873,-26.6874739032142,0
                -55.8303551003456,-26.6870169996813,0
                -55.8302084997989,-26.6870850998904,0
                -55.8299830003006,-26.6868341000954,0
                -55.8294504999072,-26.6871755996994,0
                -55.8300330993413,-26.6878779000964,0
                -55.8300387389534,-26.6878746107676,0
              </coordinates>
            </LinearRing>
          </outerBoundaryIs>
        </Polygon>
      </Placemark>
      <Placemark id="Distrito_ALTO_VERA.14">
        <ExtendedData>
          <SchemaData schemaUrl="#Distrito_ALTO_VERA.schema">
            <SimpleData name="Cédula">4162216.00000000000</SimpleData>
            <SimpleData name="cedula">4162216</SimpleData>
            <SimpleData name="Cédula_1">4162216.00000000000</SimpleData>
            <SimpleData name="N">363.00000000000</SimpleData>
            <SimpleData name="Nombres_y_">ESTELVINA RAQUEL BENITEZ MOREL</SimpleData>
            <SimpleData name="Sexo">Mujer</SimpleData>
            <SimpleData name="Cambio_de_">NO</SimpleData>
            <SimpleData name="Titular_se">NO</SimpleData>
            <SimpleData name="Cédula_Ti">-</SimpleData>
            <SimpleData name="Situación">NO</SimpleData>
            <SimpleData name="Comunidad">Campesina</SimpleData>
            <SimpleData name="Modelo_imp">Modelo 5</SimpleData>
            <SimpleData name="Departamen">ITAPUA</SimpleData>
            <SimpleData name="Distrito">ALTO VERA</SimpleData>
            <SimpleData name="Localidad">SAN ROQUE GONZALEZ</SimpleData>
            <SimpleData name="Teléfono">0983562247</SimpleData>
            <SimpleData name="Vivienda_L">-26.70023730000</SimpleData>
            <SimpleData name="Vivienda_1">-55.83946800000</SimpleData>
            <SimpleData name="Superficie">0.70000000000</SimpleData>
            <SimpleData name="Situaci_1">Parametro</SimpleData>
            <SimpleData name="Plantado">Si</SimpleData>
            <SimpleData name="Parcela_La">-26.68847456000</SimpleData>
            <SimpleData name="Parcela_Lo">-55.83020552000</SimpleData>
            <SimpleData name="Grupo_Impl">G2</SimpleData>
            <SimpleData name="Grupo_de_P">A-P5-XX-XX-XX</SimpleData>
            <SimpleData name="Jornales">0.00000000000</SimpleData>
            <SimpleData name="Monto">0.00000000000</SimpleData>
            <SimpleData name="ETAPA_FAO">Mantenimiento A?o 1.1</SimpleData>
            <SimpleData name="Asistencia">-</SimpleData>
            <SimpleData name="Estado_del">Activo</SimpleData>
            <SimpleData name="Empresa">Red Forestal Paraguay SA</SimpleData>
            <SimpleData name="Lote">A</SimpleData>
            <SimpleData name="Monitorear">No</SimpleData>
            <SimpleData name="Fecha_de_M">-</SimpleData>
            <SimpleData name="F__de_pren">-</SimpleData>
            <SimpleData name="Estado_FAO">Monitorear</SimpleData>
            <SimpleData name="Etapa_de_i">Mantenimiento A?o 1.1</SimpleData>
            <SimpleData name="Fecha_visi">2026/09/04</SimpleData>
            <SimpleData name="Cumple_sup">Si</SimpleData>
            <SimpleData name="Estado_mon">-</SimpleData>
            <SimpleData name="Situaci_12">-</SimpleData>
            <SimpleData name="Observaci">-</SimpleData>
            <SimpleData name="Dias_trans">2.51417824074</SimpleData>
            <SimpleData name="Prioridad">ALTA</SimpleData>
            <SimpleData name="OBJECTID_1">363</SimpleData>
          </SchemaData>
        </ExtendedData>
        <Polygon>
          <outerBoundaryIs>
            <LinearRing>
              <coordinates>
                -55.8300387389534,-26.6878746107676,0
                -55.8296076995822,-26.6881965004365,0
                -55.8303882992261,-26.6891100005057,0
                -55.8307840008055,-26.6887515995779,0
                -55.8300673454842,-26.6878579246359,0
                -55.8300649994694,-26.6878550001405,0
                -55.8300387389534,-26.6878746107676,0
              </coordinates>
            </LinearRing>
          </outerBoundaryIs>
        </Polygon>
      </Placemark>
      <Placemark id="Distrito_ALTO_VERA.15">
        <ExtendedData>
          <SchemaData schemaUrl="#Distrito_ALTO_VERA.schema">
            <SimpleData name="Cédula">6106928.00000000000</SimpleData>
            <SimpleData name="cedula">6106928</SimpleData>
            <SimpleData name="Cédula_1">6106928.00000000000</SimpleData>
            <SimpleData name="N">148.00000000000</SimpleData>
            <SimpleData name="Nombres_y_">MONICA ANTONIA AVALOS ARGUELLO</SimpleData>
            <SimpleData name="Sexo">Mujer</SimpleData>
            <SimpleData name="Cambio_de_">NO</SimpleData>
            <SimpleData name="Titular_se">NO</SimpleData>
            <SimpleData name="Cédula_Ti">-</SimpleData>
            <SimpleData name="Situación">NO</SimpleData>
            <SimpleData name="Comunidad">Campesina</SimpleData>
            <SimpleData name="Modelo_imp">Modelo 5</SimpleData>
            <SimpleData name="Departamen">ITAPUA</SimpleData>
            <SimpleData name="Distrito">ALTO VERA</SimpleData>
            <SimpleData name="Localidad">TARUMA</SimpleData>
            <SimpleData name="Teléfono">0983994759</SimpleData>
            <SimpleData name="Vivienda_L">-26.70805680000</SimpleData>
            <SimpleData name="Vivienda_1">-55.83776440000</SimpleData>
            <SimpleData name="Superficie">0.90000000000</SimpleData>
            <SimpleData name="Situaci_1">Par?metro</SimpleData>
            <SimpleData name="Plantado">Si</SimpleData>
            <SimpleData name="Parcela_La">-26.68750698000</SimpleData>
            <SimpleData name="Parcela_Lo">-55.83127236000</SimpleData>
            <SimpleData name="Grupo_Impl">G2</SimpleData>
            <SimpleData name="Grupo_de_P">A-P5-XX-XX-XX</SimpleData>
            <SimpleData name="Jornales">0.00000000000</SimpleData>
            <SimpleData name="Monto">0.00000000000</SimpleData>
            <SimpleData name="ETAPA_FAO">Mantenimiento A?o 1.1</SimpleData>
            <SimpleData name="Asistencia">-</SimpleData>
            <SimpleData name="Estado_del">Activo</SimpleData>
            <SimpleData name="Empresa">Red Forestal Paraguay SA</SimpleData>
            <SimpleData name="Lote">A</SimpleData>
            <SimpleData name="Monitorear">No</SimpleData>
            <SimpleData name="Fecha_de_M">-</SimpleData>
            <SimpleData name="F__de_pren">-</SimpleData>
            <SimpleData name="Estado_FAO">Monitorear</SimpleData>
            <SimpleData name="Etapa_de_i">Mantenimiento A?o 1.1</SimpleData>
            <SimpleData name="Fecha_visi">2026/09/04</SimpleData>
            <SimpleData name="Cumple_sup">Si</SimpleData>
            <SimpleData name="Estado_mon">-</SimpleData>
            <SimpleData name="Situaci_12">-</SimpleData>
            <SimpleData name="Observaci">-</SimpleData>
            <SimpleData name="Dias_trans">2.05800925926</SimpleData>
            <SimpleData name="Prioridad">ALTA</SimpleData>
            <SimpleData name="OBJECTID_1">148</SimpleData>
          </SchemaData>
        </ExtendedData>
        <Polygon>
          <outerBoundaryIs>
            <LinearRing>
              <coordinates>
                -55.8307221772873,-26.6874739032142,0
                -55.8307232997111,-26.6874753000395,0
                -55.8305736890716,-26.6875625690662,0
                -55.83094689971,-26.6880210004243,0
                -55.8319776998771,-26.687478899771,0
                -55.8315600000079,-26.6869816995145,0
                -55.8307221772873,-26.6874739032142,0
              </coordinates>
            </LinearRing>
          </outerBoundaryIs>
        </Polygon>
      </Placemark>
      <Placemark id="Distrito_ALTO_VERA.16">
        <ExtendedData>
          <SchemaData schemaUrl="#Distrito_ALTO_VERA.schema">
            <SimpleData name="Cédula">6663795.00000000000</SimpleData>
            <SimpleData name="cedula">6663795</SimpleData>
            <SimpleData name="Cédula_1">6663795.00000000000</SimpleData>
            <SimpleData name="N">159.00000000000</SimpleData>
            <SimpleData name="Nombres_y_">MARTA FATIMA VERA DUARTE</SimpleData>
            <SimpleData name="Sexo">Mujer</SimpleData>
            <SimpleData name="Cambio_de_">NO</SimpleData>
            <SimpleData name="Titular_se">NO</SimpleData>
            <SimpleData name="Cédula_Ti">-</SimpleData>
            <SimpleData name="Situación">NO</SimpleData>
            <SimpleData name="Comunidad">Ind?gena</SimpleData>
            <SimpleData name="Modelo_imp">Modelo 6</SimpleData>
            <SimpleData name="Departamen">ITAPUA</SimpleData>
            <SimpleData name="Distrito">ALTO VERA</SimpleData>
            <SimpleData name="Localidad">COM INDIG KOEJU</SimpleData>
            <SimpleData name="Teléfono">ND</SimpleData>
            <SimpleData name="Vivienda_L">-26.72433230000</SimpleData>
            <SimpleData name="Vivienda_1">-55.83709810000</SimpleData>
            <SimpleData name="Superficie">0.90000000000</SimpleData>
            <SimpleData name="Situaci_1">Par?metro</SimpleData>
            <SimpleData name="Plantado">Si</SimpleData>
            <SimpleData name="Parcela_La">-26.72546688000</SimpleData>
            <SimpleData name="Parcela_Lo">-55.83844233000</SimpleData>
            <SimpleData name="Grupo_Impl">G2</SimpleData>
            <SimpleData name="Grupo_de_P">A-P5-XX-XX-XX</SimpleData>
            <SimpleData name="Jornales">0.00000000000</SimpleData>
            <SimpleData name="Monto">0.00000000000</SimpleData>
            <SimpleData name="ETAPA_FAO">Mantenimiento A?o 1.1</SimpleData>
            <SimpleData name="Asistencia">-</SimpleData>
            <SimpleData name="Estado_del">Activo</SimpleData>
            <SimpleData name="Empresa">Red Forestal Paraguay SA</SimpleData>
            <SimpleData name="Lote">A</SimpleData>
            <SimpleData name="Monitorear">No</SimpleData>
            <SimpleData name="Fecha_de_M">-</SimpleData>
            <SimpleData name="F__de_pren">-</SimpleData>
            <SimpleData name="Estado_FAO">Monitorear</SimpleData>
            <SimpleData name="Etapa_de_i">Mantenimiento A?o 1.1</SimpleData>
            <SimpleData name="Fecha_visi">2026/09/04</SimpleData>
            <SimpleData name="Cumple_sup">Si</SimpleData>
            <SimpleData name="Estado_mon">-</SimpleData>
            <SimpleData name="Situaci_12">-</SimpleData>
            <SimpleData name="Observaci">-</SimpleData>
            <SimpleData name="Dias_trans">2.10004629630</SimpleData>
            <SimpleData name="Prioridad">ALTA</SimpleData>
            <SimpleData name="OBJECTID_1">159</SimpleData>
          </SchemaData>
        </ExtendedData>
        <Polygon>
          <outerBoundaryIs>
            <LinearRing>
              <coordinates>
                -55.8384801439127,-26.7259768955135,0
                -55.8386584995444,-26.7260815998627,0
                -55.8386978522374,-26.7260464625011,0
                -55.8391018999954,-26.7253228005375,0
                -55.8382975999896,-26.7248692997935,0
                -55.8379425006481,-26.7253324000691,0
                -55.8376381000884,-26.7254652000295,0
                -55.8384801439127,-26.7259768955135,0
              </coordinates>
            </LinearRing>
          </outerBoundaryIs>
        </Polygon>
      </Placemark>
      <Placemark id="Distrito_ALTO_VERA.17">
        <ExtendedData>
          <SchemaData schemaUrl="#Distrito_ALTO_VERA.schema">
            <SimpleData name="Cédula">6852736.00000000000</SimpleData>
            <SimpleData name="cedula">6852736</SimpleData>
            <SimpleData name="Cédula_1">6852736.00000000000</SimpleData>
            <SimpleData name="N">161.00000000000</SimpleData>
            <SimpleData name="Nombres_y_">ALCIDES CESAR DUARTE SANGER</SimpleData>
            <SimpleData name="Sexo">Hombre</SimpleData>
            <SimpleData name="Cambio_de_">NO</SimpleData>
            <SimpleData name="Titular_se">NO</SimpleData>
            <SimpleData name="Cédula_Ti">-</SimpleData>
            <SimpleData name="Situación">NO</SimpleData>
            <SimpleData name="Comunidad">Ind?gena</SimpleData>
            <SimpleData name="Modelo_imp">Modelo 6</SimpleData>
            <SimpleData name="Departamen">ITAPUA</SimpleData>
            <SimpleData name="Distrito">ALTO VERA</SimpleData>
            <SimpleData name="Localidad">COM INDIG KOEJU</SimpleData>
            <SimpleData name="Teléfono">0982509551</SimpleData>
            <SimpleData name="Vivienda_L">-26.72345960000</SimpleData>
            <SimpleData name="Vivienda_1">-55.83762970000</SimpleData>
            <SimpleData name="Superficie">0.90000000000</SimpleData>
            <SimpleData name="Situaci_1">Par?metro</SimpleData>
            <SimpleData name="Plantado">Si</SimpleData>
            <SimpleData name="Parcela_La">-26.72339985000</SimpleData>
            <SimpleData name="Parcela_Lo">-55.84034483000</SimpleData>
            <SimpleData name="Grupo_Impl">G2</SimpleData>
            <SimpleData name="Grupo_de_P">A-P5-XX-XX-XX</SimpleData>
            <SimpleData name="Jornales">0.00000000000</SimpleData>
            <SimpleData name="Monto">0.00000000000</SimpleData>
            <SimpleData name="ETAPA_FAO">Mantenimiento A?o 1.1</SimpleData>
            <SimpleData name="Asistencia">-</SimpleData>
            <SimpleData name="Estado_del">Activo</SimpleData>
            <SimpleData name="Empresa">Red Forestal Paraguay SA</SimpleData>
            <SimpleData name="Lote">A</SimpleData>
            <SimpleData name="Monitorear">No</SimpleData>
            <SimpleData name="Fecha_de_M">-</SimpleData>
            <SimpleData name="F__de_pren">-</SimpleData>
            <SimpleData name="Estado_FAO">Monitorear</SimpleData>
            <SimpleData name="Etapa_de_i">Mantenimiento A?o 1.1</SimpleData>
            <SimpleData name="Fecha_visi">2026/09/04</SimpleData>
            <SimpleData name="Cumple_sup">Si</SimpleData>
            <SimpleData name="Estado_mon">-</SimpleData>
            <SimpleData name="Situaci_12">-</SimpleData>
            <SimpleData name="Observaci">-</SimpleData>
            <SimpleData name="Dias_trans">2.10002314814</SimpleData>
            <SimpleData name="Prioridad">ALTA</SimpleData>
            <SimpleData name="OBJECTID_1">161</SimpleData>
          </SchemaData>
        </ExtendedData>
        <MultiGeometry>
          <Polygon>
            <outerBoundaryIs>
              <LinearRing>
                <coordinates>
                  -55.8431595997878,-26.725358400114,0
                  -55.8424016993828,-26.7261117000318,0
                  -55.8432557998196,-26.7259653003638,0
                  -55.8434267000831,-26.725581800779,0
                  -55.8431595997878,-26.725358400114,0
                </coordinates>
              </LinearRing>
            </outerBoundaryIs>
          </Polygon>
          <Polygon>
            <outerBoundaryIs>
              <LinearRing>
                <coordinates>
                  -55.8395933000626,-26.7229550005177,0
                  -55.839389142198,-26.7231364078169,0
                  -55.8394117004892,-26.7231310998251,0
                  -55.8401393364732,-26.7234649669465,0
                  -55.8410466007349,-26.7238615997235,0
                  -55.8411868998125,-26.7235778000676,0
                  -55.8395933000626,-26.7229550005177,0
                </coordinates>
              </LinearRing>
            </outerBoundaryIs>
          </Polygon>
        </MultiGeometry>
      </Placemark>
    </Document>
  </Document>
</kml>
