<?xml version="1.0" encoding="UTF-8"?>
<kml xmlns="http://www.opengis.net/kml/2.2">
  <Document id="root_doc">
    <Schema id="Distrito_YBY_PYTA.schema">
      <SimpleField name="Cédula" type="float"/>
      <SimpleField name="cedula" type="string"/>
      <SimpleField name="Cédula_1" type="float"/>
      <SimpleField name="N" type="float"/>
      <SimpleField name="Nombres_y_" type="string"/>
      <SimpleField name="Sexo" type="string"/>
      <SimpleField name="Cambio_de_" type="string"/>
      <SimpleField name="Titular_se" type="string"/>
      <SimpleField name="Cédula_Ti" type="string"/>
      <SimpleField name="Situación" type="string"/>
      <SimpleField name="Comunidad" type="string"/>
      <SimpleField name="Modelo_imp" type="string"/>
      <SimpleField name="Departamen" type="string"/>
      <SimpleField name="Distrito" type="string"/>
      <SimpleField name="Localidad" type="string"/>
      <SimpleField name="Teléfono" type="string"/>
      <SimpleField name="Vivienda_L" type="float"/>
      <SimpleField name="Vivienda_1" type="float"/>
      <SimpleField name="Superficie" type="float"/>
      <SimpleField name="Situaci_1" type="string"/>
      <SimpleField name="Plantado" type="string"/>
      <SimpleField name="Parcela_La" type="float"/>
      <SimpleField name="Parcela_Lo" type="float"/>
      <SimpleField name="Grupo_Impl" type="string"/>
      <SimpleField name="Grupo_de_P" type="string"/>
      <SimpleField name="Jornales" type="float"/>
      <SimpleField name="Monto" type="float"/>
      <SimpleField name="ETAPA_FAO" type="string"/>
      <SimpleField name="Asistencia" type="string"/>
      <SimpleField name="Estado_del" type="string"/>
      <SimpleField name="Empresa" type="string"/>
      <SimpleField name="Lote" type="string"/>
      <SimpleField name="Monitorear" type="string"/>
      <SimpleField name="Fecha_de_M" type="string"/>
      <SimpleField name="F__de_pren" type="string"/>
      <SimpleField name="Estado_FAO" type="string"/>
      <SimpleField name="Etapa_de_i" type="string"/>
      <SimpleField name="Cumple_sup" type="string"/>
      <SimpleField name="Estado_mon" type="string"/>
      <SimpleField name="Situaci_12" type="string"/>
      <SimpleField name="Observaci" type="string"/>
      <SimpleField name="Dias_trans" type="float"/>
      <SimpleField name="Prioridad" type="string"/>
      <SimpleField name="OBJECTID_1" type="int"/>
    </Schema>
    <Document id="Distrito_YBY_PYTA">
      <name>Distrito_YBY PYTA</name>
      <Placemark id="Distrito_YBY_PYTA.1">
        <ExtendedData>
          <SchemaData schemaUrl="#Distrito_YBY_PYTA.schema">
            <SimpleData name="Cédula">5465035.00000000000</SimpleData>
            <SimpleData name="cedula">5465035</SimpleData>
            <SimpleData name="Cédula_1">5465035.00000000000</SimpleData>
            <SimpleData name="N">171.00000000000</SimpleData>
            <SimpleData name="Nombres_y_">GABRIEL BARRIOS ROMERO</SimpleData>
            <SimpleData name="Sexo">Hombre</SimpleData>
            <SimpleData name="Cambio_de_">SI</SimpleData>
            <SimpleData name="Titular_se">PAULINO GARCETE MARTINEZ</SimpleData>
            <SimpleData name="Cédula_Ti">5957479</SimpleData>
            <SimpleData name="Situación">Cambio de residencia</SimpleData>
            <SimpleData name="Comunidad">Ind?gena</SimpleData>
            <SimpleData name="Modelo_imp">Modelo 1</SimpleData>
            <SimpleData name="Departamen">CANINDEYU</SimpleData>
            <SimpleData name="Distrito">YBY PYTA</SimpleData>
            <SimpleData name="Localidad">COM INDIG TEKOHA POTY PYAHU</SimpleData>
            <SimpleData name="Teléfono">0975985507</SimpleData>
            <SimpleData name="Vivienda_L">-24.26299820000</SimpleData>
            <SimpleData name="Vivienda_1">-55.22924540000</SimpleData>
            <SimpleData name="Superficie">0.80000000000</SimpleData>
            <SimpleData name="Situaci_1">Pol?gono</SimpleData>
            <SimpleData name="Plantado">Si</SimpleData>
            <SimpleData name="Parcela_La">-24.25235322000</SimpleData>
            <SimpleData name="Parcela_Lo">-55.20731942000</SimpleData>
            <SimpleData name="Grupo_Impl">G2</SimpleData>
            <SimpleData name="Grupo_de_P">G-P1-XX-XX-XX</SimpleData>
            <SimpleData name="Jornales">0.00000000000</SimpleData>
            <SimpleData name="Monto">0.00000000000</SimpleData>
            <SimpleData name="ETAPA_FAO">Mantenimiento A?o 1.1</SimpleData>
            <SimpleData name="Asistencia">-</SimpleData>
            <SimpleData name="Estado_del">Activo</SimpleData>
            <SimpleData name="Empresa">Red Forestal Paraguay SA</SimpleData>
            <SimpleData name="Lote">G</SimpleData>
            <SimpleData name="Monitorear">No</SimpleData>
            <SimpleData name="Fecha_de_M">-</SimpleData>
            <SimpleData name="F__de_pren">-</SimpleData>
            <SimpleData name="Estado_FAO">Monitorear</SimpleData>
            <SimpleData name="Etapa_de_i">Mantenimiento A?o 1.1</SimpleData>
            <SimpleData name="Fecha_visi">2026/08/29</SimpleData>
            <SimpleData name="Cumple_sup">Si</SimpleData>
            <SimpleData name="Estado_mon">-</SimpleData>
            <SimpleData name="Situaci_12">-</SimpleData>
            <SimpleData name="Observaci">-</SimpleData>
            <SimpleData name="Dias_trans">8.54031250000</SimpleData>
            <SimpleData name="Prioridad">ALTA</SimpleData>
            <SimpleData name="OBJECTID_1">171</SimpleData>
          </SchemaData>
        </ExtendedData>
        <Polygon>
          <outerBoundaryIs>
            <LinearRing>
              <coordinates>
                -55.2064305683529,-24.2524482331085,0
                -55.2064373002267,-24.2524441004513,0
                -55.2065136491918,-24.252660634102,0
                -55.2065850994955,-24.2528432998202,0
                -55.2072432996677,-24.2527049999108,0
                -55.207826700008,-24.2523432994337,0
                -55.2084250006047,-24.2522149995155,0
                -55.2082966999716,-24.2518882998509,0
                -55.206381700109,-24.2523232998613,0
                -55.2064305683529,-24.2524482331085,0
              </coordinates>
            </LinearRing>
          </outerBoundaryIs>
        </Polygon>
      </Placemark>
      <Placemark id="Distrito_YBY_PYTA.2">
        <ExtendedData>
          <SchemaData schemaUrl="#Distrito_YBY_PYTA.schema">
            <SimpleData name="Cédula">5841941.00000000000</SimpleData>
            <SimpleData name="cedula">5841941</SimpleData>
            <SimpleData name="Cédula_1">5841941.00000000000</SimpleData>
            <SimpleData name="N">175.00000000000</SimpleData>
            <SimpleData name="Nombres_y_">IRMA CABALLERO GONZALEZ</SimpleData>
            <SimpleData name="Sexo">Mujer</SimpleData>
            <SimpleData name="Cambio_de_">NO</SimpleData>
            <SimpleData name="Titular_se">NO</SimpleData>
            <SimpleData name="Cédula_Ti">-</SimpleData>
            <SimpleData name="Situación">NO</SimpleData>
            <SimpleData name="Comunidad">Ind?gena</SimpleData>
            <SimpleData name="Modelo_imp">Modelo 5</SimpleData>
            <SimpleData name="Departamen">CANINDEYU</SimpleData>
            <SimpleData name="Distrito">YBY PYTA</SimpleData>
            <SimpleData name="Localidad">COM INDIG YRYAPU</SimpleData>
            <SimpleData name="Teléfono">0986186083</SimpleData>
            <SimpleData name="Vivienda_L">-24.32111810000</SimpleData>
            <SimpleData name="Vivienda_1">-55.32063870000</SimpleData>
            <SimpleData name="Superficie">0.70000000000</SimpleData>
            <SimpleData name="Situaci_1">Pol?gono</SimpleData>
            <SimpleData name="Plantado">Si</SimpleData>
            <SimpleData name="Parcela_La">-24.32049419000</SimpleData>
            <SimpleData name="Parcela_Lo">-55.32181016000</SimpleData>
            <SimpleData name="Grupo_Impl">G2</SimpleData>
            <SimpleData name="Grupo_de_P">G-P1-XX-XX-XX</SimpleData>
            <SimpleData name="Jornales">0.00000000000</SimpleData>
            <SimpleData name="Monto">0.00000000000</SimpleData>
            <SimpleData name="ETAPA_FAO">Mantenimiento A?o 1.1</SimpleData>
            <SimpleData name="Asistencia">-</SimpleData>
            <SimpleData name="Estado_del">Activo</SimpleData>
            <SimpleData name="Empresa">Red Forestal Paraguay SA</SimpleData>
            <SimpleData name="Lote">G</SimpleData>
            <SimpleData name="Monitorear">No</SimpleData>
            <SimpleData name="Fecha_de_M">-</SimpleData>
            <SimpleData name="F__de_pren">-</SimpleData>
            <SimpleData name="Estado_FAO">Monitorear</SimpleData>
            <SimpleData name="Etapa_de_i">Mantenimiento A?o 1.1</SimpleData>
            <SimpleData name="Fecha_visi">2026/08/29</SimpleData>
            <SimpleData name="Cumple_sup">Si</SimpleData>
            <SimpleData name="Estado_mon">-</SimpleData>
            <SimpleData name="Situaci_12">-</SimpleData>
            <SimpleData name="Observaci">-</SimpleData>
            <SimpleData name="Dias_trans">8.38033564815</SimpleData>
            <SimpleData name="Prioridad">ALTA</SimpleData>
            <SimpleData name="OBJECTID_1">175</SimpleData>
          </SchemaData>
        </ExtendedData>
        <Polygon>
          <outerBoundaryIs>
            <LinearRing>
              <coordinates>
                -55.3212869995893,-24.3204077995999,0
                -55.3216468007147,-24.321029799387,0
                -55.3221632994762,-24.3208382995436,0
                -55.3222109997411,-24.3206570004786,0
                -55.3221782999963,-24.3202567000631,0
                -55.322080900552,-24.31992689964,0
                -55.321434199244,-24.3202464996723,0
                -55.3212869995893,-24.3204077995999,0
              </coordinates>
            </LinearRing>
          </outerBoundaryIs>
        </Polygon>
      </Placemark>
      <Placemark id="Distrito_YBY_PYTA.3">
        <ExtendedData>
          <SchemaData schemaUrl="#Distrito_YBY_PYTA.schema">
            <SimpleData name="Cédula">5470985.00000000000</SimpleData>
            <SimpleData name="cedula">5470985</SimpleData>
            <SimpleData name="Cédula_1">5470985.00000000000</SimpleData>
            <SimpleData name="N">173.00000000000</SimpleData>
            <SimpleData name="Nombres_y_">BLACIDO BENITEZ NOCEDA</SimpleData>
            <SimpleData name="Sexo">Hombre</SimpleData>
            <SimpleData name="Cambio_de_">NO</SimpleData>
            <SimpleData name="Titular_se">NO</SimpleData>
            <SimpleData name="Cédula_Ti">-</SimpleData>
            <SimpleData name="Situación">NO</SimpleData>
            <SimpleData name="Comunidad">Ind?gena</SimpleData>
            <SimpleData name="Modelo_imp">Modelo 1</SimpleData>
            <SimpleData name="Departamen">CANINDEYU</SimpleData>
            <SimpleData name="Distrito">YBY PYTA</SimpleData>
            <SimpleData name="Localidad">COM INDIG TEKOHA POTY PYAHU</SimpleData>
            <SimpleData name="Teléfono">0972700357</SimpleData>
            <SimpleData name="Vivienda_L">-24.27397150000</SimpleData>
            <SimpleData name="Vivienda_1">-55.22891860000</SimpleData>
            <SimpleData name="Superficie">0.80000000000</SimpleData>
            <SimpleData name="Situaci_1">Pol?gono</SimpleData>
            <SimpleData name="Plantado">Si</SimpleData>
            <SimpleData name="Parcela_La">-24.25182920000</SimpleData>
            <SimpleData name="Parcela_Lo">-55.20739826000</SimpleData>
            <SimpleData name="Grupo_Impl">G2</SimpleData>
            <SimpleData name="Grupo_de_P">G-P1-XX-XX-XX</SimpleData>
            <SimpleData name="Jornales">0.00000000000</SimpleData>
            <SimpleData name="Monto">0.00000000000</SimpleData>
            <SimpleData name="ETAPA_FAO">Mantenimiento A?o 1.1</SimpleData>
            <SimpleData name="Asistencia">-</SimpleData>
            <SimpleData name="Estado_del">Activo</SimpleData>
            <SimpleData name="Empresa">Red Forestal Paraguay SA</SimpleData>
            <SimpleData name="Lote">G</SimpleData>
            <SimpleData name="Monitorear">No</SimpleData>
            <SimpleData name="Fecha_de_M">-</SimpleData>
            <SimpleData name="F__de_pren">-</SimpleData>
            <SimpleData name="Estado_FAO">Monitorear</SimpleData>
            <SimpleData name="Etapa_de_i">Mantenimiento A?o 1.1</SimpleData>
            <SimpleData name="Fecha_visi">2026/08/29</SimpleData>
            <SimpleData name="Cumple_sup">Si</SimpleData>
            <SimpleData name="Estado_mon">-</SimpleData>
            <SimpleData name="Situaci_12">-</SimpleData>
            <SimpleData name="Observaci">-</SimpleData>
            <SimpleData name="Dias_trans">8.54027777778</SimpleData>
            <SimpleData name="Prioridad">ALTA</SimpleData>
            <SimpleData name="OBJECTID_1">173</SimpleData>
          </SchemaData>
        </ExtendedData>
        <Polygon>
          <outerBoundaryIs>
            <LinearRing>
              <coordinates>
                -55.2065617000537,-24.2517632998833,0
                -55.2067033004093,-24.2522300002829,0
                -55.2083016993298,-24.2518682998207,0
                -55.2080299996095,-24.2514399996994,0
                -55.2065617000537,-24.2517632998833,0
              </coordinates>
            </LinearRing>
          </outerBoundaryIs>
        </Polygon>
      </Placemark>
      <Placemark id="Distrito_YBY_PYTA.4">
        <ExtendedData>
          <SchemaData schemaUrl="#Distrito_YBY_PYTA.schema">
            <SimpleData name="Cédula">6160443.00000000000</SimpleData>
            <SimpleData name="cedula">6160443</SimpleData>
            <SimpleData name="Cédula_1">6160443.00000000000</SimpleData>
            <SimpleData name="N">178.00000000000</SimpleData>
            <SimpleData name="Nombres_y_">MARIA LIBORIA RUIZ DIAZ MARTINEZ</SimpleData>
            <SimpleData name="Sexo">Mujer</SimpleData>
            <SimpleData name="Cambio_de_">NO</SimpleData>
            <SimpleData name="Titular_se">NO</SimpleData>
            <SimpleData name="Cédula_Ti">-</SimpleData>
            <SimpleData name="Situación">NO</SimpleData>
            <SimpleData name="Comunidad">Ind?gena</SimpleData>
            <SimpleData name="Modelo_imp">Modelo 1</SimpleData>
            <SimpleData name="Departamen">CANINDEYU</SimpleData>
            <SimpleData name="Distrito">YBY PYTA</SimpleData>
            <SimpleData name="Localidad">COM INDIG YRYAPU</SimpleData>
            <SimpleData name="Teléfono">0971842192</SimpleData>
            <SimpleData name="Vivienda_L">-24.32366130000</SimpleData>
            <SimpleData name="Vivienda_1">-55.32086660000</SimpleData>
            <SimpleData name="Superficie">0.80000000000</SimpleData>
            <SimpleData name="Situaci_1">Pol?gono</SimpleData>
            <SimpleData name="Plantado">Si</SimpleData>
            <SimpleData name="Parcela_La">-24.32403136000</SimpleData>
            <SimpleData name="Parcela_Lo">-55.32004063000</SimpleData>
            <SimpleData name="Grupo_Impl">G2</SimpleData>
            <SimpleData name="Grupo_de_P">G-P1-XX-XX-XX</SimpleData>
            <SimpleData name="Jornales">0.00000000000</SimpleData>
            <SimpleData name="Monto">0.00000000000</SimpleData>
            <SimpleData name="ETAPA_FAO">Mantenimiento A?o 1.1</SimpleData>
            <SimpleData name="Asistencia">-</SimpleData>
            <SimpleData name="Estado_del">Activo</SimpleData>
            <SimpleData name="Empresa">Red Forestal Paraguay SA</SimpleData>
            <SimpleData name="Lote">G</SimpleData>
            <SimpleData name="Monitorear">No</SimpleData>
            <SimpleData name="Fecha_de_M">-</SimpleData>
            <SimpleData name="F__de_pren">-</SimpleData>
            <SimpleData name="Estado_FAO">Monitorear</SimpleData>
            <SimpleData name="Etapa_de_i">Mantenimiento A?o 1.1</SimpleData>
            <SimpleData name="Fecha_visi">2026/08/29</SimpleData>
            <SimpleData name="Cumple_sup">Si</SimpleData>
            <SimpleData name="Estado_mon">-</SimpleData>
            <SimpleData name="Situaci_12">-</SimpleData>
            <SimpleData name="Observaci">-</SimpleData>
            <SimpleData name="Dias_trans">8.52956018518</SimpleData>
            <SimpleData name="Prioridad">ALTA</SimpleData>
            <SimpleData name="OBJECTID_1">178</SimpleData>
          </SchemaData>
        </ExtendedData>
        <Polygon>
          <outerBoundaryIs>
            <LinearRing>
              <coordinates>
                -55.3193937996668,-24.324004800051,0
                -55.3192868000001,-24.3241082992131,0
                -55.3199230001566,-24.3245579998709,0
                -55.3200211998815,-24.3243984002816,0
                -55.3201715005408,-24.3243310998969,0
                -55.3203153997866,-24.324344699858,0
                -55.3204926007992,-24.3240973993516,0
                -55.3205217002494,-24.3241082992423,0
                -55.3207107005085,-24.323890900508,0
                -55.3202130004941,-24.323472399333,0
                -55.3198933008582,-24.3238217001087,0
                -55.3193937996668,-24.324004800051,0
              </coordinates>
            </LinearRing>
          </outerBoundaryIs>
        </Polygon>
      </Placemark>
      <Placemark id="Distrito_YBY_PYTA.5">
        <ExtendedData>
          <SchemaData schemaUrl="#Distrito_YBY_PYTA.schema">
            <SimpleData name="Cédula">5957471.00000000000</SimpleData>
            <SimpleData name="cedula">5957471</SimpleData>
            <SimpleData name="Cédula_1">5957471.00000000000</SimpleData>
            <SimpleData name="N">170.00000000000</SimpleData>
            <SimpleData name="Nombres_y_">URSULINO GARCETE LOPEZ</SimpleData>
            <SimpleData name="Sexo">Hombre</SimpleData>
            <SimpleData name="Cambio_de_">NO</SimpleData>
            <SimpleData name="Titular_se">NO</SimpleData>
            <SimpleData name="Cédula_Ti">-</SimpleData>
            <SimpleData name="Situación">NO</SimpleData>
            <SimpleData name="Comunidad">Ind?gena</SimpleData>
            <SimpleData name="Modelo_imp">Modelo 1</SimpleData>
            <SimpleData name="Departamen">CANINDEYU</SimpleData>
            <SimpleData name="Distrito">YBY PYTA</SimpleData>
            <SimpleData name="Localidad">COM INDIG TEKOHA POTY PYAHU</SimpleData>
            <SimpleData name="Teléfono">0985445333</SimpleData>
            <SimpleData name="Vivienda_L">-24.25110160000</SimpleData>
            <SimpleData name="Vivienda_1">-55.20815600000</SimpleData>
            <SimpleData name="Superficie">0.80000000000</SimpleData>
            <SimpleData name="Situaci_1">Pol?gono</SimpleData>
            <SimpleData name="Plantado">Si</SimpleData>
            <SimpleData name="Parcela_La">-24.25131720000</SimpleData>
            <SimpleData name="Parcela_Lo">-55.20730344000</SimpleData>
            <SimpleData name="Grupo_Impl">G2</SimpleData>
            <SimpleData name="Grupo_de_P">G-P1-XX-XX-XX</SimpleData>
            <SimpleData name="Jornales">0.00000000000</SimpleData>
            <SimpleData name="Monto">0.00000000000</SimpleData>
            <SimpleData name="ETAPA_FAO">Mantenimiento A?o 1.1</SimpleData>
            <SimpleData name="Asistencia">-</SimpleData>
            <SimpleData name="Estado_del">Activo</SimpleData>
            <SimpleData name="Empresa">Red Forestal Paraguay SA</SimpleData>
            <SimpleData name="Lote">G</SimpleData>
            <SimpleData name="Monitorear">No</SimpleData>
            <SimpleData name="Fecha_de_M">-</SimpleData>
            <SimpleData name="F__de_pren">-</SimpleData>
            <SimpleData name="Estado_FAO">Monitorear</SimpleData>
            <SimpleData name="Etapa_de_i">Mantenimiento A?o 1.1</SimpleData>
            <SimpleData name="Fecha_visi">2026/08/29</SimpleData>
            <SimpleData name="Cumple_sup">Si</SimpleData>
            <SimpleData name="Estado_mon">-</SimpleData>
            <SimpleData name="Situaci_12">-</SimpleData>
            <SimpleData name="Observaci">-</SimpleData>
            <SimpleData name="Dias_trans">8.54025462963</SimpleData>
            <SimpleData name="Prioridad">ALTA</SimpleData>
            <SimpleData name="OBJECTID_1">170</SimpleData>
          </SchemaData>
        </ExtendedData>
        <Polygon>
          <outerBoundaryIs>
            <LinearRing>
              <coordinates>
                -55.206505019176,-24.2512911088978,0
                -55.2065281353133,-24.2514805552046,0
                -55.2065299999669,-24.2514866997841,0
                -55.2065289557802,-24.2514872842905,0
                -55.206560000008,-24.2517416995306,0
                -55.2080567002116,-24.2513999996045,0
                -55.2080485095192,-24.2508912410474,0
                -55.208048199154,-24.250872000108,0
                -55.2065026998033,-24.2512720997984,0
                -55.206505019176,-24.2512911088978,0
              </coordinates>
            </LinearRing>
          </outerBoundaryIs>
        </Polygon>
      </Placemark>
      <Placemark id="Distrito_YBY_PYTA.6">
        <ExtendedData>
          <SchemaData schemaUrl="#Distrito_YBY_PYTA.schema">
            <SimpleData name="Cédula">5957450.00000000000</SimpleData>
            <SimpleData name="cedula">5957450</SimpleData>
            <SimpleData name="Cédula_1">5957450.00000000000</SimpleData>
            <SimpleData name="N">166.00000000000</SimpleData>
            <SimpleData name="Nombres_y_">SUSANA LOPEZ RAMIREZ</SimpleData>
            <SimpleData name="Sexo">Mujer</SimpleData>
            <SimpleData name="Cambio_de_">NO</SimpleData>
            <SimpleData name="Titular_se">NO</SimpleData>
            <SimpleData name="Cédula_Ti">-</SimpleData>
            <SimpleData name="Situación">NO</SimpleData>
            <SimpleData name="Comunidad">Ind?gena</SimpleData>
            <SimpleData name="Modelo_imp">Modelo 1</SimpleData>
            <SimpleData name="Departamen">CANINDEYU</SimpleData>
            <SimpleData name="Distrito">YBY PYTA</SimpleData>
            <SimpleData name="Localidad">COM INDIG TEKOHA POTY PYAHU</SimpleData>
            <SimpleData name="Teléfono">0986314137</SimpleData>
            <SimpleData name="Vivienda_L">-24.25412610000</SimpleData>
            <SimpleData name="Vivienda_1">-55.21159990000</SimpleData>
            <SimpleData name="Superficie">0.80000000000</SimpleData>
            <SimpleData name="Situaci_1">Pol?gono</SimpleData>
            <SimpleData name="Plantado">Si</SimpleData>
            <SimpleData name="Parcela_La">-24.25030923000</SimpleData>
            <SimpleData name="Parcela_Lo">-55.20712997000</SimpleData>
            <SimpleData name="Grupo_Impl">G2</SimpleData>
            <SimpleData name="Grupo_de_P">G-P1-XX-XX-XX</SimpleData>
            <SimpleData name="Jornales">0.00000000000</SimpleData>
            <SimpleData name="Monto">0.00000000000</SimpleData>
            <SimpleData name="ETAPA_FAO">Mantenimiento A?o 1.1</SimpleData>
            <SimpleData name="Asistencia">-</SimpleData>
            <SimpleData name="Estado_del">Activo</SimpleData>
            <SimpleData name="Empresa">Red Forestal Paraguay SA</SimpleData>
            <SimpleData name="Lote">G</SimpleData>
            <SimpleData name="Monitorear">No</SimpleData>
            <SimpleData name="Fecha_de_M">-</SimpleData>
            <SimpleData name="F__de_pren">-</SimpleData>
            <SimpleData name="Estado_FAO">Monitorear</SimpleData>
            <SimpleData name="Etapa_de_i">Mantenimiento A?o 1.1</SimpleData>
            <SimpleData name="Fecha_visi">2026/08/29</SimpleData>
            <SimpleData name="Cumple_sup">Si</SimpleData>
            <SimpleData name="Estado_mon">-</SimpleData>
            <SimpleData name="Situaci_12">-</SimpleData>
            <SimpleData name="Observaci">-</SimpleData>
            <SimpleData name="Dias_trans">8.54021990741</SimpleData>
            <SimpleData name="Prioridad">ALTA</SimpleData>
            <SimpleData name="OBJECTID_1">166</SimpleData>
          </SchemaData>
        </ExtendedData>
        <Polygon>
          <outerBoundaryIs>
            <LinearRing>
              <coordinates>
                -55.2064000002835,-24.2501800001685,0
                -55.2065249995242,-24.250759999974,0
                -55.2079513007121,-24.2504229997653,0
                -55.2075966998999,-24.2498516998684,0
                -55.2064000002835,-24.2501800001685,0
              </coordinates>
            </LinearRing>
          </outerBoundaryIs>
        </Polygon>
      </Placemark>
      <Placemark id="Distrito_YBY_PYTA.7">
        <ExtendedData>
          <SchemaData schemaUrl="#Distrito_YBY_PYTA.schema">
            <SimpleData name="Cédula">5973571.00000000000</SimpleData>
            <SimpleData name="cedula">5973571</SimpleData>
            <SimpleData name="Cédula_1">5973571.00000000000</SimpleData>
            <SimpleData name="N">169.00000000000</SimpleData>
            <SimpleData name="Nombres_y_">ELIZABETH VERA MARTINEZ</SimpleData>
            <SimpleData name="Sexo">Mujer</SimpleData>
            <SimpleData name="Cambio_de_">SI</SimpleData>
            <SimpleData name="Titular_se">CLAUDELINA GARCETE LOPEZ</SimpleData>
            <SimpleData name="Cédula_Ti">7268587</SimpleData>
            <SimpleData name="Situación">Cambio de residencia</SimpleData>
            <SimpleData name="Comunidad">Ind?gena</SimpleData>
            <SimpleData name="Modelo_imp">Modelo 1</SimpleData>
            <SimpleData name="Departamen">CANINDEYU</SimpleData>
            <SimpleData name="Distrito">YBY PYTA</SimpleData>
            <SimpleData name="Localidad">COM INDIG TEKOHA POTY PYAHU</SimpleData>
            <SimpleData name="Teléfono">0975985507</SimpleData>
            <SimpleData name="Vivienda_L">-24.26299570000</SimpleData>
            <SimpleData name="Vivienda_1">-55.22921800000</SimpleData>
            <SimpleData name="Superficie">0.80000000000</SimpleData>
            <SimpleData name="Situaci_1">Pol?gono</SimpleData>
            <SimpleData name="Plantado">Si</SimpleData>
            <SimpleData name="Parcela_La">-24.25085482000</SimpleData>
            <SimpleData name="Parcela_Lo">-55.20723011000</SimpleData>
            <SimpleData name="Grupo_Impl">G2</SimpleData>
            <SimpleData name="Grupo_de_P">G-P1-XX-XX-XX</SimpleData>
            <SimpleData name="Jornales">0.00000000000</SimpleData>
            <SimpleData name="Monto">0.00000000000</SimpleData>
            <SimpleData name="ETAPA_FAO">Mantenimiento A?o 1.1</SimpleData>
            <SimpleData name="Asistencia">-</SimpleData>
            <SimpleData name="Estado_del">Activo</SimpleData>
            <SimpleData name="Empresa">Red Forestal Paraguay SA</SimpleData>
            <SimpleData name="Lote">G</SimpleData>
            <SimpleData name="Monitorear">No</SimpleData>
            <SimpleData name="Fecha_de_M">-</SimpleData>
            <SimpleData name="F__de_pren">-</SimpleData>
            <SimpleData name="Estado_FAO">Monitorear</SimpleData>
            <SimpleData name="Etapa_de_i">Mantenimiento A?o 1.1</SimpleData>
            <SimpleData name="Fecha_visi">2026/08/29</SimpleData>
            <SimpleData name="Cumple_sup">Si</SimpleData>
            <SimpleData name="Estado_mon">-</SimpleData>
            <SimpleData name="Situaci_12">-</SimpleData>
            <SimpleData name="Observaci">-</SimpleData>
            <SimpleData name="Dias_trans">8.54019675926</SimpleData>
            <SimpleData name="Prioridad">ALTA</SimpleData>
            <SimpleData name="OBJECTID_1">169</SimpleData>
          </SchemaData>
        </ExtendedData>
        <Polygon>
          <outerBoundaryIs>
            <LinearRing>
              <coordinates>
                -55.206505019176,-24.2512911088978,0
                -55.2065026998033,-24.2512720997984,0
                -55.208048199154,-24.250872000108,0
                -55.2080485095192,-24.2508912410474,0
                -55.208053299132,-24.2508900000038,0
                -55.2080609993775,-24.250432199863,0
                -55.2065433000225,-24.2507950001445,0
                -55.2065350004262,-24.2508037001746,0
                -55.2063579006143,-24.2508619004596,0
                -55.2064899999106,-24.2512950002735,0
                -55.206505019176,-24.2512911088978,0
              </coordinates>
            </LinearRing>
          </outerBoundaryIs>
        </Polygon>
      </Placemark>
      <Placemark id="Distrito_YBY_PYTA.8">
        <ExtendedData>
          <SchemaData schemaUrl="#Distrito_YBY_PYTA.schema">
            <SimpleData name="Cédula">4465086.00000000000</SimpleData>
            <SimpleData name="cedula">4465086</SimpleData>
            <SimpleData name="Cédula_1">4465086.00000000000</SimpleData>
            <SimpleData name="N">322.00000000000</SimpleData>
            <SimpleData name="Nombres_y_">FELIX EDIBERTO MACIEL</SimpleData>
            <SimpleData name="Sexo">Hombre</SimpleData>
            <SimpleData name="Cambio_de_">NO</SimpleData>
            <SimpleData name="Titular_se">NO</SimpleData>
            <SimpleData name="Cédula_Ti">-</SimpleData>
            <SimpleData name="Situación">NO</SimpleData>
            <SimpleData name="Comunidad">Campesina</SimpleData>
            <SimpleData name="Modelo_imp">Modelo 5</SimpleData>
            <SimpleData name="Departamen">CANINDEYU</SimpleData>
            <SimpleData name="Distrito">YBY PYTA</SimpleData>
            <SimpleData name="Localidad">BRITEZ KUE - MODULO 5</SimpleData>
            <SimpleData name="Teléfono">984038584</SimpleData>
            <SimpleData name="Vivienda_L">-24.34055080000</SimpleData>
            <SimpleData name="Vivienda_1">-55.25807570000</SimpleData>
            <SimpleData name="Superficie">0.70000000000</SimpleData>
            <SimpleData name="Situaci_1">Parametro</SimpleData>
            <SimpleData name="Plantado">Si</SimpleData>
            <SimpleData name="Parcela_La">-24.34118861000</SimpleData>
            <SimpleData name="Parcela_Lo">-55.25767609000</SimpleData>
            <SimpleData name="Grupo_Impl">G2</SimpleData>
            <SimpleData name="Grupo_de_P">G-P5-XX-XX-XX</SimpleData>
            <SimpleData name="Jornales">0.00000000000</SimpleData>
            <SimpleData name="Monto">0.00000000000</SimpleData>
            <SimpleData name="ETAPA_FAO">Mantenimiento A?o 1.1</SimpleData>
            <SimpleData name="Asistencia">-</SimpleData>
            <SimpleData name="Estado_del">Activo</SimpleData>
            <SimpleData name="Empresa">Red Forestal Paraguay SA</SimpleData>
            <SimpleData name="Lote">G</SimpleData>
            <SimpleData name="Monitorear">No</SimpleData>
            <SimpleData name="Fecha_de_M">-</SimpleData>
            <SimpleData name="F__de_pren">-</SimpleData>
            <SimpleData name="Estado_FAO">Monitorear</SimpleData>
            <SimpleData name="Etapa_de_i">Mantenimiento A?o 1.1</SimpleData>
            <SimpleData name="Fecha_visi">2026/09/01</SimpleData>
            <SimpleData name="Cumple_sup">Si</SimpleData>
            <SimpleData name="Estado_mon">-</SimpleData>
            <SimpleData name="Situaci_12">-</SimpleData>
            <SimpleData name="Observaci">-</SimpleData>
            <SimpleData name="Dias_trans">5.06488425926</SimpleData>
            <SimpleData name="Prioridad">ALTA</SimpleData>
            <SimpleData name="OBJECTID_1">322</SimpleData>
          </SchemaData>
        </ExtendedData>
        <Polygon>
          <outerBoundaryIs>
            <LinearRing>
              <coordinates>
                -55.2572516991744,-24.3407967001562,0
                -55.2573200007005,-24.3416483003829,0
                -55.2580398995411,-24.3415980000043,0
                -55.2580984999037,-24.3407568006294,0
                -55.2572516991744,-24.3407967001562,0
              </coordinates>
            </LinearRing>
          </outerBoundaryIs>
        </Polygon>
      </Placemark>
      <Placemark id="Distrito_YBY_PYTA.9">
        <ExtendedData>
          <SchemaData schemaUrl="#Distrito_YBY_PYTA.schema">
            <SimpleData name="Cédula">5090936.00000000000</SimpleData>
            <SimpleData name="cedula">5090936</SimpleData>
            <SimpleData name="Cédula_1">5090936.00000000000</SimpleData>
            <SimpleData name="N">182.00000000000</SimpleData>
            <SimpleData name="Nombres_y_">MARIA VIVIANA SILVERO</SimpleData>
            <SimpleData name="Sexo">Mujer</SimpleData>
            <SimpleData name="Cambio_de_">NO</SimpleData>
            <SimpleData name="Titular_se">NO</SimpleData>
            <SimpleData name="Cédula_Ti">-</SimpleData>
            <SimpleData name="Situación">NO</SimpleData>
            <SimpleData name="Comunidad">Campesina</SimpleData>
            <SimpleData name="Modelo_imp">Modelo 5</SimpleData>
            <SimpleData name="Departamen">CANINDEYU</SimpleData>
            <SimpleData name="Distrito">YBY PYTA</SimpleData>
            <SimpleData name="Localidad">BRITEZ KUE</SimpleData>
            <SimpleData name="Teléfono">0982458337</SimpleData>
            <SimpleData name="Vivienda_L">-24.34347130000</SimpleData>
            <SimpleData name="Vivienda_1">-55.25958020000</SimpleData>
            <SimpleData name="Superficie">0.70000000000</SimpleData>
            <SimpleData name="Situaci_1">Par?metro</SimpleData>
            <SimpleData name="Plantado">Si</SimpleData>
            <SimpleData name="Parcela_La">-24.34564156000</SimpleData>
            <SimpleData name="Parcela_Lo">-55.25495612000</SimpleData>
            <SimpleData name="Grupo_Impl">G2</SimpleData>
            <SimpleData name="Grupo_de_P">G-P5-XX-XX-XX</SimpleData>
            <SimpleData name="Jornales">0.00000000000</SimpleData>
            <SimpleData name="Monto">0.00000000000</SimpleData>
            <SimpleData name="ETAPA_FAO">Mantenimiento A?o 1.1</SimpleData>
            <SimpleData name="Asistencia">-</SimpleData>
            <SimpleData name="Estado_del">Activo</SimpleData>
            <SimpleData name="Empresa">Red Forestal Paraguay SA</SimpleData>
            <SimpleData name="Lote">G</SimpleData>
            <SimpleData name="Monitorear">No</SimpleData>
            <SimpleData name="Fecha_de_M">-</SimpleData>
            <SimpleData name="F__de_pren">-</SimpleData>
            <SimpleData name="Estado_FAO">Monitorear</SimpleData>
            <SimpleData name="Etapa_de_i">Mantenimiento A?o 1.1</SimpleData>
            <SimpleData name="Fecha_visi">2026/09/01</SimpleData>
            <SimpleData name="Cumple_sup">Si</SimpleData>
            <SimpleData name="Estado_mon">-</SimpleData>
            <SimpleData name="Situaci_12">-</SimpleData>
            <SimpleData name="Observaci">-</SimpleData>
            <SimpleData name="Dias_trans">5.06506944444</SimpleData>
            <SimpleData name="Prioridad">ALTA</SimpleData>
            <SimpleData name="OBJECTID_1">182</SimpleData>
          </SchemaData>
        </ExtendedData>
        <Polygon>
          <outerBoundaryIs>
            <LinearRing>
              <coordinates>
                -55.2544880006593,-24.3452951000005,0
                -55.2544613998392,-24.3459639002078,0
                -55.2549359997415,-24.3459247999099,0
                -55.2549414990693,-24.3459905001917,0
                -55.2553050004522,-24.3460189996633,0
                -55.2554204002793,-24.3458022998421,0
                -55.2554887003169,-24.3453523999723,0
                -55.2544880006593,-24.3452951000005,0
              </coordinates>
            </LinearRing>
          </outerBoundaryIs>
        </Polygon>
      </Placemark>
      <Placemark id="Distrito_YBY_PYTA.10">
        <ExtendedData>
          <SchemaData schemaUrl="#Distrito_YBY_PYTA.schema">
            <SimpleData name="Cédula">5948144.00000000000</SimpleData>
            <SimpleData name="cedula">5948144</SimpleData>
            <SimpleData name="Cédula_1">5948144.00000000000</SimpleData>
            <SimpleData name="N">172.00000000000</SimpleData>
            <SimpleData name="Nombres_y_">CRISPULO SANABRIA AYALA</SimpleData>
            <SimpleData name="Sexo">Hombre</SimpleData>
            <SimpleData name="Cambio_de_">NO</SimpleData>
            <SimpleData name="Titular_se">NO</SimpleData>
            <SimpleData name="Cédula_Ti">-</SimpleData>
            <SimpleData name="Situación">NO</SimpleData>
            <SimpleData name="Comunidad">Ind?gena</SimpleData>
            <SimpleData name="Modelo_imp">Modelo 5</SimpleData>
            <SimpleData name="Departamen">CANINDEYU</SimpleData>
            <SimpleData name="Distrito">YBY PYTA</SimpleData>
            <SimpleData name="Localidad">COM INDIG TEKOHA POTY PYAHU</SimpleData>
            <SimpleData name="Teléfono">0983669553</SimpleData>
            <SimpleData name="Vivienda_L">-24.27675550000</SimpleData>
            <SimpleData name="Vivienda_1">-55.22860800000</SimpleData>
            <SimpleData name="Superficie">0.70000000000</SimpleData>
            <SimpleData name="Situaci_1">Par?metro</SimpleData>
            <SimpleData name="Plantado">Si</SimpleData>
            <SimpleData name="Parcela_La">-24.27675396000</SimpleData>
            <SimpleData name="Parcela_Lo">-55.22776061000</SimpleData>
            <SimpleData name="Grupo_Impl">G2</SimpleData>
            <SimpleData name="Grupo_de_P">G-P5-XX-XX-XX</SimpleData>
            <SimpleData name="Jornales">0.00000000000</SimpleData>
            <SimpleData name="Monto">0.00000000000</SimpleData>
            <SimpleData name="ETAPA_FAO">Mantenimiento A?o 1.1</SimpleData>
            <SimpleData name="Asistencia">-</SimpleData>
            <SimpleData name="Estado_del">Activo</SimpleData>
            <SimpleData name="Empresa">Red Forestal Paraguay SA</SimpleData>
            <SimpleData name="Lote">G</SimpleData>
            <SimpleData name="Monitorear">No</SimpleData>
            <SimpleData name="Fecha_de_M">-</SimpleData>
            <SimpleData name="F__de_pren">-</SimpleData>
            <SimpleData name="Estado_FAO">Monitorear</SimpleData>
            <SimpleData name="Etapa_de_i">Mantenimiento A?o 1.1</SimpleData>
            <SimpleData name="Fecha_visi">2026/09/01</SimpleData>
            <SimpleData name="Cumple_sup">Si</SimpleData>
            <SimpleData name="Estado_mon">-</SimpleData>
            <SimpleData name="Situaci_12">-</SimpleData>
            <SimpleData name="Observaci">-</SimpleData>
            <SimpleData name="Dias_trans">5.06525462963</SimpleData>
            <SimpleData name="Prioridad">ALTA</SimpleData>
            <SimpleData name="OBJECTID_1">172</SimpleData>
          </SchemaData>
        </ExtendedData>
        <Polygon>
          <outerBoundaryIs>
            <LinearRing>
              <coordinates>
                -55.2268017000512,-24.2770998998851,0
                -55.2269209999329,-24.2771808000662,0
                -55.2277900006608,-24.2770582999743,0
                -55.2284036009203,-24.2766865007755,0
                -55.2283573000995,-24.2761465996874,0
                -55.2268017000512,-24.2770998998851,0
              </coordinates>
            </LinearRing>
          </outerBoundaryIs>
        </Polygon>
      </Placemark>
      <Placemark id="Distrito_YBY_PYTA.11">
        <ExtendedData>
          <SchemaData schemaUrl="#Distrito_YBY_PYTA.schema">
            <SimpleData name="Cédula">5957497.00000000000</SimpleData>
            <SimpleData name="cedula">5957497</SimpleData>
            <SimpleData name="Cédula_1">5957497.00000000000</SimpleData>
            <SimpleData name="N">174.00000000000</SimpleData>
            <SimpleData name="Nombres_y_">ALFREDO BENITEZ SOSA</SimpleData>
            <SimpleData name="Sexo">Hombre</SimpleData>
            <SimpleData name="Cambio_de_">NO</SimpleData>
            <SimpleData name="Titular_se">NO</SimpleData>
            <SimpleData name="Cédula_Ti">-</SimpleData>
            <SimpleData name="Situación">NO</SimpleData>
            <SimpleData name="Comunidad">Ind?gena</SimpleData>
            <SimpleData name="Modelo_imp">Modelo 5</SimpleData>
            <SimpleData name="Departamen">CANINDEYU</SimpleData>
            <SimpleData name="Distrito">YBY PYTA</SimpleData>
            <SimpleData name="Localidad">COM INDIG TEKOHA POTY PYAHU</SimpleData>
            <SimpleData name="Teléfono">0987351160</SimpleData>
            <SimpleData name="Vivienda_L">-24.27769850000</SimpleData>
            <SimpleData name="Vivienda_1">-55.22587480000</SimpleData>
            <SimpleData name="Superficie">0.70000000000</SimpleData>
            <SimpleData name="Situaci_1">Par?metro</SimpleData>
            <SimpleData name="Plantado">Si</SimpleData>
            <SimpleData name="Parcela_La">-24.27630767000</SimpleData>
            <SimpleData name="Parcela_Lo">-55.22767428000</SimpleData>
            <SimpleData name="Grupo_Impl">G2</SimpleData>
            <SimpleData name="Grupo_de_P">G-P5-XX-XX-XX</SimpleData>
            <SimpleData name="Jornales">0.00000000000</SimpleData>
            <SimpleData name="Monto">0.00000000000</SimpleData>
            <SimpleData name="ETAPA_FAO">Mantenimiento A?o 1.1</SimpleData>
            <SimpleData name="Asistencia">-</SimpleData>
            <SimpleData name="Estado_del">Activo</SimpleData>
            <SimpleData name="Empresa">Red Forestal Paraguay SA</SimpleData>
            <SimpleData name="Lote">G</SimpleData>
            <SimpleData name="Monitorear">No</SimpleData>
            <SimpleData name="Fecha_de_M">-</SimpleData>
            <SimpleData name="F__de_pren">-</SimpleData>
            <SimpleData name="Estado_FAO">Monitorear</SimpleData>
            <SimpleData name="Etapa_de_i">Mantenimiento A?o 1.1</SimpleData>
            <SimpleData name="Fecha_visi">2026/09/01</SimpleData>
            <SimpleData name="Cumple_sup">Si</SimpleData>
            <SimpleData name="Estado_mon">-</SimpleData>
            <SimpleData name="Situaci_12">-</SimpleData>
            <SimpleData name="Observaci">-</SimpleData>
            <SimpleData name="Dias_trans">5.06516203703</SimpleData>
            <SimpleData name="Prioridad">ALTA</SimpleData>
            <SimpleData name="OBJECTID_1">174</SimpleData>
          </SchemaData>
        </ExtendedData>
        <Polygon>
          <outerBoundaryIs>
            <LinearRing>
              <coordinates>
                -55.2272517002676,-24.2763283003555,0
                -55.2268113002693,-24.2770445995438,0
                -55.2283611001677,-24.2761367995753,0
                -55.2283270997073,-24.2758292996919,0
                -55.2279583995785,-24.2758078992005,0
                -55.2272517002676,-24.2763283003555,0
              </coordinates>
            </LinearRing>
          </outerBoundaryIs>
        </Polygon>
      </Placemark>
      <Placemark id="Distrito_YBY_PYTA.12">
        <ExtendedData>
          <SchemaData schemaUrl="#Distrito_YBY_PYTA.schema">
            <SimpleData name="Cédula">6818627.00000000000</SimpleData>
            <SimpleData name="cedula">6818627</SimpleData>
            <SimpleData name="Cédula_1">6818627.00000000000</SimpleData>
            <SimpleData name="N">179.00000000000</SimpleData>
            <SimpleData name="Nombres_y_">DAMIAN MOUDELLE MASCARE?O</SimpleData>
            <SimpleData name="Sexo">Hombre</SimpleData>
            <SimpleData name="Cambio_de_">NO</SimpleData>
            <SimpleData name="Titular_se">NO</SimpleData>
            <SimpleData name="Cédula_Ti">-</SimpleData>
            <SimpleData name="Situación">NO</SimpleData>
            <SimpleData name="Comunidad">Campesina</SimpleData>
            <SimpleData name="Modelo_imp">Modelo 1</SimpleData>
            <SimpleData name="Departamen">CANINDEYU</SimpleData>
            <SimpleData name="Distrito">YBY PYTA</SimpleData>
            <SimpleData name="Localidad">BRITEZ KUE 4 DE OCTUBRE</SimpleData>
            <SimpleData name="Teléfono">0983630686</SimpleData>
            <SimpleData name="Vivienda_L">-24.29117500000</SimpleData>
            <SimpleData name="Vivienda_1">-55.27727330000</SimpleData>
            <SimpleData name="Superficie">0.80000000000</SimpleData>
            <SimpleData name="Situaci_1">Par?metro</SimpleData>
            <SimpleData name="Plantado">Si</SimpleData>
            <SimpleData name="Parcela_La">-24.30484262000</SimpleData>
            <SimpleData name="Parcela_Lo">-55.27640956000</SimpleData>
            <SimpleData name="Grupo_Impl">G2</SimpleData>
            <SimpleData name="Grupo_de_P">G-P5-XX-XX-XX</SimpleData>
            <SimpleData name="Jornales">0.00000000000</SimpleData>
            <SimpleData name="Monto">0.00000000000</SimpleData>
            <SimpleData name="ETAPA_FAO">Mantenimiento A?o 1.1</SimpleData>
            <SimpleData name="Asistencia">-</SimpleData>
            <SimpleData name="Estado_del">Activo</SimpleData>
            <SimpleData name="Empresa">Red Forestal Paraguay SA</SimpleData>
            <SimpleData name="Lote">G</SimpleData>
            <SimpleData name="Monitorear">No</SimpleData>
            <SimpleData name="Fecha_de_M">-</SimpleData>
            <SimpleData name="F__de_pren">-</SimpleData>
            <SimpleData name="Estado_FAO">Monitorear</SimpleData>
            <SimpleData name="Etapa_de_i">Mantenimiento A?o 1.1</SimpleData>
            <SimpleData name="Fecha_visi">2026/08/31</SimpleData>
            <SimpleData name="Cumple_sup">Si</SimpleData>
            <SimpleData name="Estado_mon">-</SimpleData>
            <SimpleData name="Situaci_12">-</SimpleData>
            <SimpleData name="Observaci">-</SimpleData>
            <SimpleData name="Dias_trans">6.40849537037</SimpleData>
            <SimpleData name="Prioridad">ALTA</SimpleData>
            <SimpleData name="OBJECTID_1">179</SimpleData>
          </SchemaData>
        </ExtendedData>
        <Polygon>
          <outerBoundaryIs>
            <LinearRing>
              <coordinates>
                -55.2756349995966,-24.3050467000781,0
                -55.2771932999173,-24.3051200000032,0
                -55.2771282997197,-24.3046300003625,0
                -55.2756816994453,-24.304561700262,0
                -55.2756349995966,-24.3050467000781,0
              </coordinates>
            </LinearRing>
          </outerBoundaryIs>
        </Polygon>
      </Placemark>
      <Placemark id="Distrito_YBY_PYTA.13">
        <ExtendedData>
          <SchemaData schemaUrl="#Distrito_YBY_PYTA.schema">
            <SimpleData name="Cédula">3849710.00000000000</SimpleData>
            <SimpleData name="cedula">3849710</SimpleData>
            <SimpleData name="Cédula_1">3849710.00000000000</SimpleData>
            <SimpleData name="N">177.00000000000</SimpleData>
            <SimpleData name="Nombres_y_">SEBASTIANA CABALLERO GONZALEZ</SimpleData>
            <SimpleData name="Sexo">Mujer</SimpleData>
            <SimpleData name="Cambio_de_">NO</SimpleData>
            <SimpleData name="Titular_se">NO</SimpleData>
            <SimpleData name="Cédula_Ti">-</SimpleData>
            <SimpleData name="Situación">NO</SimpleData>
            <SimpleData name="Comunidad">Ind?gena</SimpleData>
            <SimpleData name="Modelo_imp">Modelo 5</SimpleData>
            <SimpleData name="Departamen">CANINDEYU</SimpleData>
            <SimpleData name="Distrito">YBY PYTA</SimpleData>
            <SimpleData name="Localidad">COM INDIG YRYAPU</SimpleData>
            <SimpleData name="Teléfono">0983448024</SimpleData>
            <SimpleData name="Vivienda_L">-24.32178290000</SimpleData>
            <SimpleData name="Vivienda_1">-55.32007840000</SimpleData>
            <SimpleData name="Superficie">0.70000000000</SimpleData>
            <SimpleData name="Situaci_1">Par?metro</SimpleData>
            <SimpleData name="Plantado">Si</SimpleData>
            <SimpleData name="Parcela_La">-24.32133006000</SimpleData>
            <SimpleData name="Parcela_Lo">-55.32235366000</SimpleData>
            <SimpleData name="Grupo_Impl">G2</SimpleData>
            <SimpleData name="Grupo_de_P">G-P5-XX-XX-XX</SimpleData>
            <SimpleData name="Jornales">0.00000000000</SimpleData>
            <SimpleData name="Monto">0.00000000000</SimpleData>
            <SimpleData name="ETAPA_FAO">Mantenimiento A?o 1.1</SimpleData>
            <SimpleData name="Asistencia">-</SimpleData>
            <SimpleData name="Estado_del">Activo</SimpleData>
            <SimpleData name="Empresa">Red Forestal Paraguay SA</SimpleData>
            <SimpleData name="Lote">G</SimpleData>
            <SimpleData name="Monitorear">No</SimpleData>
            <SimpleData name="Fecha_de_M">-</SimpleData>
            <SimpleData name="F__de_pren">-</SimpleData>
            <SimpleData name="Estado_FAO">Monitorear</SimpleData>
            <SimpleData name="Etapa_de_i">Mantenimiento A?o 1.1</SimpleData>
            <SimpleData name="Fecha_visi">2026/08/31</SimpleData>
            <SimpleData name="Cumple_sup">Si</SimpleData>
            <SimpleData name="Estado_mon">-</SimpleData>
            <SimpleData name="Situaci_12">-</SimpleData>
            <SimpleData name="Observaci">-</SimpleData>
            <SimpleData name="Dias_trans">6.40547453704</SimpleData>
            <SimpleData name="Prioridad">ALTA</SimpleData>
            <SimpleData name="OBJECTID_1">177</SimpleData>
          </SchemaData>
        </ExtendedData>
        <Polygon>
          <outerBoundaryIs>
            <LinearRing>
              <coordinates>
                -55.3222464692588,-24.3216864881082,0
                -55.3223659480236,-24.3216520012217,0
                -55.3224976008107,-24.3216140000429,0
                -55.3224572003192,-24.3213662003568,0
                -55.3232273003259,-24.3211558004393,0
                -55.3232419000704,-24.3208912992793,0
                -55.321656500558,-24.3212717003745,0
                -55.3218300008188,-24.3218066997154,0
                -55.3222464692588,-24.3216864881082,0
              </coordinates>
            </LinearRing>
          </outerBoundaryIs>
        </Polygon>
      </Placemark>
      <Placemark id="Distrito_YBY_PYTA.14">
        <ExtendedData>
          <SchemaData schemaUrl="#Distrito_YBY_PYTA.schema">
            <SimpleData name="Cédula">4144533.00000000000</SimpleData>
            <SimpleData name="cedula">4144533</SimpleData>
            <SimpleData name="Cédula_1">4144533.00000000000</SimpleData>
            <SimpleData name="N">167.00000000000</SimpleData>
            <SimpleData name="Nombres_y_">BRIGIDAS VASQUEZ DOMINGUEZ</SimpleData>
            <SimpleData name="Sexo">Mujer</SimpleData>
            <SimpleData name="Cambio_de_">NO</SimpleData>
            <SimpleData name="Titular_se">NO</SimpleData>
            <SimpleData name="Cédula_Ti">-</SimpleData>
            <SimpleData name="Situación">NO</SimpleData>
            <SimpleData name="Comunidad">Ind?gena</SimpleData>
            <SimpleData name="Modelo_imp">Modelo 5</SimpleData>
            <SimpleData name="Departamen">CANINDEYU</SimpleData>
            <SimpleData name="Distrito">YBY PYTA</SimpleData>
            <SimpleData name="Localidad">COM INDIG 12 DE JUNIO</SimpleData>
            <SimpleData name="Teléfono">0975523380</SimpleData>
            <SimpleData name="Vivienda_L">-24.33591080000</SimpleData>
            <SimpleData name="Vivienda_1">-55.33546970000</SimpleData>
            <SimpleData name="Superficie">0.70000000000</SimpleData>
            <SimpleData name="Situaci_1">Par?metro</SimpleData>
            <SimpleData name="Plantado">Si</SimpleData>
            <SimpleData name="Parcela_La">-24.33688582000</SimpleData>
            <SimpleData name="Parcela_Lo">-55.33376866000</SimpleData>
            <SimpleData name="Grupo_Impl">G2</SimpleData>
            <SimpleData name="Grupo_de_P">G-P5-XX-XX-XX</SimpleData>
            <SimpleData name="Jornales">0.00000000000</SimpleData>
            <SimpleData name="Monto">0.00000000000</SimpleData>
            <SimpleData name="ETAPA_FAO">Mantenimiento A?o 1.1</SimpleData>
            <SimpleData name="Asistencia">-</SimpleData>
            <SimpleData name="Estado_del">Activo</SimpleData>
            <SimpleData name="Empresa">Red Forestal Paraguay SA</SimpleData>
            <SimpleData name="Lote">G</SimpleData>
            <SimpleData name="Monitorear">No</SimpleData>
            <SimpleData name="Fecha_de_M">-</SimpleData>
            <SimpleData name="F__de_pren">-</SimpleData>
            <SimpleData name="Estado_FAO">Monitorear</SimpleData>
            <SimpleData name="Etapa_de_i">Mantenimiento A?o 1.1</SimpleData>
            <SimpleData name="Fecha_visi">2026/08/31</SimpleData>
            <SimpleData name="Cumple_sup">Si</SimpleData>
            <SimpleData name="Estado_mon">-</SimpleData>
            <SimpleData name="Situaci_12">-</SimpleData>
            <SimpleData name="Observaci">-</SimpleData>
            <SimpleData name="Dias_trans">6.40961805556</SimpleData>
            <SimpleData name="Prioridad">ALTA</SimpleData>
            <SimpleData name="OBJECTID_1">167</SimpleData>
          </SchemaData>
        </ExtendedData>
        <Polygon>
          <outerBoundaryIs>
            <LinearRing>
              <coordinates>
                -55.3333450996804,-24.3364545001023,0
                -55.3332373991247,-24.3368064004854,0
                -55.3334470995982,-24.3368681003144,0
                -55.3337093994903,-24.3374399995372,0
                -55.3342716998928,-24.3372200005351,0
                -55.3340501995818,-24.3365278007224,0
                -55.3338228993579,-24.3366291997289,0
                -55.3336898994591,-24.3363567997012,0
                -55.3333450996804,-24.3364545001023,0
              </coordinates>
            </LinearRing>
          </outerBoundaryIs>
        </Polygon>
      </Placemark>
      <Placemark id="Distrito_YBY_PYTA.15">
        <ExtendedData>
          <SchemaData schemaUrl="#Distrito_YBY_PYTA.schema">
            <SimpleData name="Cédula">5470984.00000000000</SimpleData>
            <SimpleData name="cedula">5470984</SimpleData>
            <SimpleData name="Cédula_1">5470984.00000000000</SimpleData>
            <SimpleData name="N">168.00000000000</SimpleData>
            <SimpleData name="Nombres_y_">ISMAEL GARCETE RAMIREZ</SimpleData>
            <SimpleData name="Sexo">Hombre</SimpleData>
            <SimpleData name="Cambio_de_">NO</SimpleData>
            <SimpleData name="Titular_se">NO</SimpleData>
            <SimpleData name="Cédula_Ti">-</SimpleData>
            <SimpleData name="Situación">NO</SimpleData>
            <SimpleData name="Comunidad">Ind?gena</SimpleData>
            <SimpleData name="Modelo_imp">Modelo 4</SimpleData>
            <SimpleData name="Departamen">CANINDEYU</SimpleData>
            <SimpleData name="Distrito">YBY PYTA</SimpleData>
            <SimpleData name="Localidad">COM INDIG TEKOHA POTY PYAHU</SimpleData>
            <SimpleData name="Teléfono">0981857258</SimpleData>
            <SimpleData name="Vivienda_L">-24.25170880000</SimpleData>
            <SimpleData name="Vivienda_1">-55.20870460000</SimpleData>
            <SimpleData name="Superficie">0.70000000000</SimpleData>
            <SimpleData name="Situaci_1">Par?metro</SimpleData>
            <SimpleData name="Plantado">Si</SimpleData>
            <SimpleData name="Parcela_La">-24.25537717000</SimpleData>
            <SimpleData name="Parcela_Lo">-55.20684869000</SimpleData>
            <SimpleData name="Grupo_Impl">G2</SimpleData>
            <SimpleData name="Grupo_de_P">G-P5-XX-XX-XX</SimpleData>
            <SimpleData name="Jornales">0.00000000000</SimpleData>
            <SimpleData name="Monto">0.00000000000</SimpleData>
            <SimpleData name="ETAPA_FAO">Mantenimiento A?o 1.1</SimpleData>
            <SimpleData name="Asistencia">-</SimpleData>
            <SimpleData name="Estado_del">Activo</SimpleData>
            <SimpleData name="Empresa">Red Forestal Paraguay SA</SimpleData>
            <SimpleData name="Lote">G</SimpleData>
            <SimpleData name="Monitorear">No</SimpleData>
            <SimpleData name="Fecha_de_M">-</SimpleData>
            <SimpleData name="F__de_pren">-</SimpleData>
            <SimpleData name="Estado_FAO">Monitorear</SimpleData>
            <SimpleData name="Etapa_de_i">Mantenimiento A?o 1.1</SimpleData>
            <SimpleData name="Fecha_visi">2026/05/20</SimpleData>
            <SimpleData name="Cumple_sup">Si</SimpleData>
            <SimpleData name="Estado_mon">-</SimpleData>
            <SimpleData name="Situaci_12">-</SimpleData>
            <SimpleData name="Observaci">-</SimpleData>
            <SimpleData name="Dias_trans">109.99984953700</SimpleData>
            <SimpleData name="Prioridad">ALTA</SimpleData>
            <SimpleData name="OBJECTID_1">168</SimpleData>
          </SchemaData>
        </ExtendedData>
        <Polygon>
          <outerBoundaryIs>
            <LinearRing>
              <coordinates>
                -55.2062689000591,-24.2554050999102,0
                -55.2066473004274,-24.2559623003866,0
                -55.2074535998204,-24.2554244999719,0
                -55.2069700000242,-24.2547533001444,0
                -55.2062689000591,-24.2554050999102,0
              </coordinates>
            </LinearRing>
          </outerBoundaryIs>
        </Polygon>
      </Placemark>
      <Placemark id="Distrito_YBY_PYTA.16">
        <ExtendedData>
          <SchemaData schemaUrl="#Distrito_YBY_PYTA.schema">
            <SimpleData name="Cédula">7822322.00000000000</SimpleData>
            <SimpleData name="cedula">7822322</SimpleData>
            <SimpleData name="Cédula_1">7822322.00000000000</SimpleData>
            <SimpleData name="N">318.00000000000</SimpleData>
            <SimpleData name="Nombres_y_">VENANCIA  FABIO GOMEZ</SimpleData>
            <SimpleData name="Sexo">Mujer</SimpleData>
            <SimpleData name="Cambio_de_">NO</SimpleData>
            <SimpleData name="Titular_se">NO</SimpleData>
            <SimpleData name="Cédula_Ti">-</SimpleData>
            <SimpleData name="Situación">NO</SimpleData>
            <SimpleData name="Comunidad">Campesina</SimpleData>
            <SimpleData name="Modelo_imp">Modelo 1</SimpleData>
            <SimpleData name="Departamen">CANINDEYU</SimpleData>
            <SimpleData name="Distrito">YBY PYTA</SimpleData>
            <SimpleData name="Localidad">GUYRA KEHA - SAN JOSE</SimpleData>
            <SimpleData name="Teléfono">982196109</SimpleData>
            <SimpleData name="Vivienda_L">-24.35323670000</SimpleData>
            <SimpleData name="Vivienda_1">-55.25757650000</SimpleData>
            <SimpleData name="Superficie">0.80000000000</SimpleData>
            <SimpleData name="Situaci_1">Parametro</SimpleData>
            <SimpleData name="Plantado">Si</SimpleData>
            <SimpleData name="Parcela_La">-24.35409811000</SimpleData>
            <SimpleData name="Parcela_Lo">-55.25790760000</SimpleData>
            <SimpleData name="Grupo_Impl">G2</SimpleData>
            <SimpleData name="Grupo_de_P">G-P5-XX-XX-XX</SimpleData>
            <SimpleData name="Jornales">0.00000000000</SimpleData>
            <SimpleData name="Monto">0.00000000000</SimpleData>
            <SimpleData name="ETAPA_FAO">Mantenimiento A?o 1.1</SimpleData>
            <SimpleData name="Asistencia">-</SimpleData>
            <SimpleData name="Estado_del">Activo</SimpleData>
            <SimpleData name="Empresa">Red Forestal Paraguay SA</SimpleData>
            <SimpleData name="Lote">G</SimpleData>
            <SimpleData name="Monitorear">No</SimpleData>
            <SimpleData name="Fecha_de_M">-</SimpleData>
            <SimpleData name="F__de_pren">-</SimpleData>
            <SimpleData name="Estado_FAO">Monitorear</SimpleData>
            <SimpleData name="Etapa_de_i">Mantenimiento A?o 1.1</SimpleData>
            <SimpleData name="Fecha_visi">2026/09/04</SimpleData>
            <SimpleData name="Cumple_sup">Si</SimpleData>
            <SimpleData name="Estado_mon">-</SimpleData>
            <SimpleData name="Situaci_12">-</SimpleData>
            <SimpleData name="Observaci">-</SimpleData>
            <SimpleData name="Dias_trans">2.17229166667</SimpleData>
            <SimpleData name="Prioridad">ALTA</SimpleData>
            <SimpleData name="OBJECTID_1">318</SimpleData>
          </SchemaData>
        </ExtendedData>
        <Polygon>
          <outerBoundaryIs>
            <LinearRing>
              <coordinates>
                -55.2573782999633,-24.3544950002334,0
                -55.2583631002655,-24.3545281998902,0
                -55.2584500005212,-24.3537750003655,0
                -55.2574968000254,-24.3535966996727,0
                -55.2573782999633,-24.3544950002334,0
              </coordinates>
            </LinearRing>
          </outerBoundaryIs>
        </Polygon>
      </Placemark>
      <Placemark id="Distrito_YBY_PYTA.17">
        <ExtendedData>
          <SchemaData schemaUrl="#Distrito_YBY_PYTA.schema">
            <SimpleData name="Cédula">7877891.00000000000</SimpleData>
            <SimpleData name="cedula">7877891</SimpleData>
            <SimpleData name="Cédula_1">7877891.00000000000</SimpleData>
            <SimpleData name="N">375.00000000000</SimpleData>
            <SimpleData name="Nombres_y_">MARY  CABRERA VILLAR</SimpleData>
            <SimpleData name="Sexo">Mujer</SimpleData>
            <SimpleData name="Cambio_de_">NO</SimpleData>
            <SimpleData name="Titular_se">NO</SimpleData>
            <SimpleData name="Cédula_Ti">-</SimpleData>
            <SimpleData name="Situación">-</SimpleData>
            <SimpleData name="Comunidad">Ind?gena</SimpleData>
            <SimpleData name="Modelo_imp">Modelo 1</SimpleData>
            <SimpleData name="Departamen">CANINDEYU</SimpleData>
            <SimpleData name="Distrito">YBY PYTA</SimpleData>
            <SimpleData name="Localidad">COMUNIDAD INDIGENA YRYAPU</SimpleData>
            <SimpleData name="Teléfono">0984053439</SimpleData>
            <SimpleData name="Vivienda_L">-24.32267670000</SimpleData>
            <SimpleData name="Vivienda_1">-55.32075830000</SimpleData>
            <SimpleData name="Superficie">1.00000000000</SimpleData>
            <SimpleData name="Situaci_1">Parametro</SimpleData>
            <SimpleData name="Plantado">Si</SimpleData>
            <SimpleData name="Parcela_La">-24.32741718000</SimpleData>
            <SimpleData name="Parcela_Lo">-55.32032029000</SimpleData>
            <SimpleData name="Grupo_Impl">G2</SimpleData>
            <SimpleData name="Grupo_de_P">G-P5-XX-XX-XX</SimpleData>
            <SimpleData name="Jornales">0.00000000000</SimpleData>
            <SimpleData name="Monto">0.00000000000</SimpleData>
            <SimpleData name="ETAPA_FAO">Mantenimiento A?o 1.1</SimpleData>
            <SimpleData name="Asistencia">-</SimpleData>
            <SimpleData name="Estado_del">Activo</SimpleData>
            <SimpleData name="Empresa">Red Forestal Paraguay SA</SimpleData>
            <SimpleData name="Lote">G</SimpleData>
            <SimpleData name="Monitorear">No</SimpleData>
            <SimpleData name="Fecha_de_M">-</SimpleData>
            <SimpleData name="F__de_pren">-</SimpleData>
            <SimpleData name="Estado_FAO">Monitorear</SimpleData>
            <SimpleData name="Etapa_de_i">Mantenimiento A?o 1.1</SimpleData>
            <SimpleData name="Fecha_visi">2026/08/31</SimpleData>
            <SimpleData name="Cumple_sup">Si</SimpleData>
            <SimpleData name="Estado_mon">-</SimpleData>
            <SimpleData name="Situaci_12">-</SimpleData>
            <SimpleData name="Observaci">-</SimpleData>
            <SimpleData name="Dias_trans">6.40271990740</SimpleData>
            <SimpleData name="Prioridad">ALTA</SimpleData>
            <SimpleData name="OBJECTID_1">375</SimpleData>
          </SchemaData>
        </ExtendedData>
        <Polygon>
          <outerBoundaryIs>
            <LinearRing>
              <coordinates>
                -55.3198085999455,-24.3269610000244,0
                -55.3200040993049,-24.3280355008217,0
                -55.3206364005761,-24.3279486998226,0
                -55.3206761000823,-24.3274746998812,0
                -55.3210534001234,-24.3273161006449,0
                -55.3209859996331,-24.3270536995982,0
                -55.320406899229,-24.3271880995762,0
                -55.3202800992562,-24.3267986998506,0
                -55.3200197997112,-24.3268220999514,0
                -55.3198085999455,-24.3269610000244,0
              </coordinates>
            </LinearRing>
          </outerBoundaryIs>
        </Polygon>
      </Placemark>
      <Placemark id="Distrito_YBY_PYTA.18">
        <ExtendedData>
          <SchemaData schemaUrl="#Distrito_YBY_PYTA.schema">
            <SimpleData name="Cédula">3201162.00000000000</SimpleData>
            <SimpleData name="cedula">3201162</SimpleData>
            <SimpleData name="Cédula_1">3201162.00000000000</SimpleData>
            <SimpleData name="N">180.00000000000</SimpleData>
            <SimpleData name="Nombres_y_">MARIA VERONICA BAEZ PEREZ</SimpleData>
            <SimpleData name="Sexo">Mujer</SimpleData>
            <SimpleData name="Cambio_de_">NO</SimpleData>
            <SimpleData name="Titular_se">NO</SimpleData>
            <SimpleData name="Cédula_Ti">-</SimpleData>
            <SimpleData name="Situación">NO</SimpleData>
            <SimpleData name="Comunidad">Campesina</SimpleData>
            <SimpleData name="Modelo_imp">Modelo 5</SimpleData>
            <SimpleData name="Departamen">CANINDEYU</SimpleData>
            <SimpleData name="Distrito">YBY PYTA</SimpleData>
            <SimpleData name="Localidad">BRITEZ KUE</SimpleData>
            <SimpleData name="Teléfono">0981232590</SimpleData>
            <SimpleData name="Vivienda_L">-24.32084450000</SimpleData>
            <SimpleData name="Vivienda_1">-55.25934210000</SimpleData>
            <SimpleData name="Superficie">0.70000000000</SimpleData>
            <SimpleData name="Situaci_1">Par?metro</SimpleData>
            <SimpleData name="Plantado">Si</SimpleData>
            <SimpleData name="Parcela_La">-24.32023454000</SimpleData>
            <SimpleData name="Parcela_Lo">-55.25828113000</SimpleData>
            <SimpleData name="Grupo_Impl">G2</SimpleData>
            <SimpleData name="Grupo_de_P">G-P5-XX-XX-XX</SimpleData>
            <SimpleData name="Jornales">0.00000000000</SimpleData>
            <SimpleData name="Monto">0.00000000000</SimpleData>
            <SimpleData name="ETAPA_FAO">Mantenimiento A?o 1.1</SimpleData>
            <SimpleData name="Asistencia">-</SimpleData>
            <SimpleData name="Estado_del">Activo</SimpleData>
            <SimpleData name="Empresa">Red Forestal Paraguay SA</SimpleData>
            <SimpleData name="Lote">G</SimpleData>
            <SimpleData name="Monitorear">No</SimpleData>
            <SimpleData name="Fecha_de_M">-</SimpleData>
            <SimpleData name="F__de_pren">-</SimpleData>
            <SimpleData name="Estado_FAO">Monitorear</SimpleData>
            <SimpleData name="Etapa_de_i">Mantenimiento A?o 1.1</SimpleData>
            <SimpleData name="Fecha_visi">2026/08/29</SimpleData>
            <SimpleData name="Cumple_sup">Si</SimpleData>
            <SimpleData name="Estado_mon">-</SimpleData>
            <SimpleData name="Situaci_12">-</SimpleData>
            <SimpleData name="Observaci">-</SimpleData>
            <SimpleData name="Dias_trans">8.38027777777</SimpleData>
            <SimpleData name="Prioridad">ALTA</SimpleData>
            <SimpleData name="OBJECTID_1">180</SimpleData>
          </SchemaData>
        </ExtendedData>
        <Polygon>
          <outerBoundaryIs>
            <LinearRing>
              <coordinates>
                -55.2576993996922,-24.3204600004678,0
                -55.2588681998033,-24.3205450008793,0
                -55.2588950998873,-24.320011600027,0
                -55.2576544996165,-24.3199315995946,0
                -55.2576993996922,-24.3204600004678,0
              </coordinates>
            </LinearRing>
          </outerBoundaryIs>
        </Polygon>
      </Placemark>
      <Placemark id="Distrito_YBY_PYTA.19">
        <ExtendedData>
          <SchemaData schemaUrl="#Distrito_YBY_PYTA.schema">
            <SimpleData name="Cédula">5947591.00000000000</SimpleData>
            <SimpleData name="cedula">5947591</SimpleData>
            <SimpleData name="Cédula_1">5947591.00000000000</SimpleData>
            <SimpleData name="N">181.00000000000</SimpleData>
            <SimpleData name="Nombres_y_">ARSENIA NU?EZ MOREL</SimpleData>
            <SimpleData name="Sexo">Mujer</SimpleData>
            <SimpleData name="Cambio_de_">NO</SimpleData>
            <SimpleData name="Titular_se">NO</SimpleData>
            <SimpleData name="Cédula_Ti">-</SimpleData>
            <SimpleData name="Situación">NO</SimpleData>
            <SimpleData name="Comunidad">Campesina</SimpleData>
            <SimpleData name="Modelo_imp">Modelo 5</SimpleData>
            <SimpleData name="Departamen">CANINDEYU</SimpleData>
            <SimpleData name="Distrito">YBY PYTA</SimpleData>
            <SimpleData name="Localidad">BRITEZ KUE SAN MIGUEL</SimpleData>
            <SimpleData name="Teléfono">0982776429</SimpleData>
            <SimpleData name="Vivienda_L">-24.31979630000</SimpleData>
            <SimpleData name="Vivienda_1">-55.28583160000</SimpleData>
            <SimpleData name="Superficie">0.70000000000</SimpleData>
            <SimpleData name="Situaci_1">Par?metro</SimpleData>
            <SimpleData name="Plantado">Si</SimpleData>
            <SimpleData name="Parcela_La">-24.32192105000</SimpleData>
            <SimpleData name="Parcela_Lo">-55.28575152000</SimpleData>
            <SimpleData name="Grupo_Impl">G2</SimpleData>
            <SimpleData name="Grupo_de_P">G-P5-XX-XX-XX</SimpleData>
            <SimpleData name="Jornales">0.00000000000</SimpleData>
            <SimpleData name="Monto">0.00000000000</SimpleData>
            <SimpleData name="ETAPA_FAO">Mantenimiento A?o 1.1</SimpleData>
            <SimpleData name="Asistencia">-</SimpleData>
            <SimpleData name="Estado_del">Activo</SimpleData>
            <SimpleData name="Empresa">Red Forestal Paraguay SA</SimpleData>
            <SimpleData name="Lote">G</SimpleData>
            <SimpleData name="Monitorear">No</SimpleData>
            <SimpleData name="Fecha_de_M">-</SimpleData>
            <SimpleData name="F__de_pren">-</SimpleData>
            <SimpleData name="Estado_FAO">Monitorear</SimpleData>
            <SimpleData name="Etapa_de_i">Mantenimiento A?o 1.1</SimpleData>
            <SimpleData name="Fecha_visi">2026/08/31</SimpleData>
            <SimpleData name="Cumple_sup">Si</SimpleData>
            <SimpleData name="Estado_mon">-</SimpleData>
            <SimpleData name="Situaci_12">-</SimpleData>
            <SimpleData name="Observaci">-</SimpleData>
            <SimpleData name="Dias_trans">6.42328703704</SimpleData>
            <SimpleData name="Prioridad">ALTA</SimpleData>
            <SimpleData name="OBJECTID_1">181</SimpleData>
          </SchemaData>
        </ExtendedData>
        <Polygon>
          <outerBoundaryIs>
            <LinearRing>
              <coordinates>
                -55.2854600997458,-24.3226220003122,0
                -55.2859584991211,-24.3226466004876,0
                -55.2860373998133,-24.3212114999736,0
                -55.2855500997388,-24.3211929994132,0
                -55.2854600997458,-24.3226220003122,0
              </coordinates>
            </LinearRing>
          </outerBoundaryIs>
        </Polygon>
      </Placemark>
    </Document>
  </Document>
</kml>
