<?xml version="1.0" encoding="UTF-8"?>
<kml xmlns="http://www.opengis.net/kml/2.2">
  <Document id="root_doc">
    <Schema id="Distrito_HORQUETA.schema">
      <SimpleField name="Cédula" type="float"/>
      <SimpleField name="cedula" type="string"/>
      <SimpleField name="Cédula_1" type="float"/>
      <SimpleField name="N" type="float"/>
      <SimpleField name="Nombres_y_" type="string"/>
      <SimpleField name="Sexo" type="string"/>
      <SimpleField name="Cambio_de_" type="string"/>
      <SimpleField name="Titular_se" type="string"/>
      <SimpleField name="Cédula_Ti" type="string"/>
      <SimpleField name="Situación" type="string"/>
      <SimpleField name="Comunidad" type="string"/>
      <SimpleField name="Modelo_imp" type="string"/>
      <SimpleField name="Departamen" type="string"/>
      <SimpleField name="Distrito" type="string"/>
      <SimpleField name="Localidad" type="string"/>
      <SimpleField name="Teléfono" type="string"/>
      <SimpleField name="Vivienda_L" type="float"/>
      <SimpleField name="Vivienda_1" type="float"/>
      <SimpleField name="Superficie" type="float"/>
      <SimpleField name="Situaci_1" type="string"/>
      <SimpleField name="Plantado" type="string"/>
      <SimpleField name="Parcela_La" type="float"/>
      <SimpleField name="Parcela_Lo" type="float"/>
      <SimpleField name="Grupo_Impl" type="string"/>
      <SimpleField name="Grupo_de_P" type="string"/>
      <SimpleField name="Jornales" type="float"/>
      <SimpleField name="Monto" type="float"/>
      <SimpleField name="ETAPA_FAO" type="string"/>
      <SimpleField name="Asistencia" type="string"/>
      <SimpleField name="Estado_del" type="string"/>
      <SimpleField name="Empresa" type="string"/>
      <SimpleField name="Lote" type="string"/>
      <SimpleField name="Monitorear" type="string"/>
      <SimpleField name="Fecha_de_M" type="string"/>
      <SimpleField name="F__de_pren" type="string"/>
      <SimpleField name="Estado_FAO" type="string"/>
      <SimpleField name="Etapa_de_i" type="string"/>
      <SimpleField name="Cumple_sup" type="string"/>
      <SimpleField name="Estado_mon" type="string"/>
      <SimpleField name="Situaci_12" type="string"/>
      <SimpleField name="Observaci" type="string"/>
      <SimpleField name="Dias_trans" type="float"/>
      <SimpleField name="Prioridad" type="string"/>
      <SimpleField name="OBJECTID_1" type="int"/>
    </Schema>
    <Document id="Distrito_HORQUETA">
      <name>Distrito_HORQUETA</name>
      <Placemark id="Distrito_HORQUETA.1">
        <ExtendedData>
          <SchemaData schemaUrl="#Distrito_HORQUETA.schema">
            <SimpleData name="Cédula">7900312.00000000000</SimpleData>
            <SimpleData name="cedula">7900312</SimpleData>
            <SimpleData name="Cédula_1">7900312.00000000000</SimpleData>
            <SimpleData name="N">358.00000000000</SimpleData>
            <SimpleData name="Nombres_y_">RODRIGO GALEANO</SimpleData>
            <SimpleData name="Sexo">Hombre</SimpleData>
            <SimpleData name="Cambio_de_">NO</SimpleData>
            <SimpleData name="Titular_se">NO</SimpleData>
            <SimpleData name="Cédula_Ti">-</SimpleData>
            <SimpleData name="Situación">NO</SimpleData>
            <SimpleData name="Comunidad">Ind?gena</SimpleData>
            <SimpleData name="Modelo_imp">Modelo 5</SimpleData>
            <SimpleData name="Departamen">CONCEPCION</SimpleData>
            <SimpleData name="Distrito">HORQUETA</SimpleData>
            <SimpleData name="Localidad">COM INDIG PASO ITA</SimpleData>
            <SimpleData name="Teléfono">976841633</SimpleData>
            <SimpleData name="Vivienda_L">-23.39943620000</SimpleData>
            <SimpleData name="Vivienda_1">-56.85115970000</SimpleData>
            <SimpleData name="Superficie">0.70000000000</SimpleData>
            <SimpleData name="Situaci_1">Pol?gono</SimpleData>
            <SimpleData name="Plantado">Si</SimpleData>
            <SimpleData name="Parcela_La">-23.40011749000</SimpleData>
            <SimpleData name="Parcela_Lo">-56.85142566000</SimpleData>
            <SimpleData name="Grupo_Impl">G3</SimpleData>
            <SimpleData name="Grupo_de_P">J-P1-XX-XX-XX</SimpleData>
            <SimpleData name="Jornales">0.00000000000</SimpleData>
            <SimpleData name="Monto">0.00000000000</SimpleData>
            <SimpleData name="ETAPA_FAO">Mantenimiento A?o 1.1</SimpleData>
            <SimpleData name="Asistencia">-</SimpleData>
            <SimpleData name="Estado_del">Activo</SimpleData>
            <SimpleData name="Empresa">Emilio Sol?s Grance</SimpleData>
            <SimpleData name="Lote">J</SimpleData>
            <SimpleData name="Monitorear">No</SimpleData>
            <SimpleData name="Fecha_de_M">-</SimpleData>
            <SimpleData name="F__de_pren">-</SimpleData>
            <SimpleData name="Estado_FAO">Monitorear</SimpleData>
            <SimpleData name="Etapa_de_i">Mantenimiento A?o 1.1</SimpleData>
            <SimpleData name="Fecha_visi">2026/09/03</SimpleData>
            <SimpleData name="Cumple_sup">Si</SimpleData>
            <SimpleData name="Estado_mon">-</SimpleData>
            <SimpleData name="Situaci_12">-</SimpleData>
            <SimpleData name="Observaci">-</SimpleData>
            <SimpleData name="Dias_trans">3.46603009259</SimpleData>
            <SimpleData name="Prioridad">ALTA</SimpleData>
            <SimpleData name="OBJECTID_1">358</SimpleData>
          </SchemaData>
        </ExtendedData>
        <Polygon>
          <outerBoundaryIs>
            <LinearRing>
              <coordinates>
                -56.8508093001294,-23.3993991003182,0
                -56.8513035003562,-23.4005578993186,0
                -56.8514127000603,-23.4006202999208,0
                -56.8516212999823,-23.4005633997953,0
                -56.8517302001142,-23.4006269001071,0
                -56.8518185000206,-23.4007834004971,0
                -56.8520303997821,-23.4006889998848,0
                -56.8516445000978,-23.3997972997478,0
                -56.8514240007065,-23.3998820995705,0
                -56.8512917998617,-23.3996134002461,0
                -56.8511199997752,-23.3995846997567,0
                -56.8509963000491,-23.3993367000921,0
                -56.8508093001294,-23.3993991003182,0
              </coordinates>
            </LinearRing>
          </outerBoundaryIs>
        </Polygon>
      </Placemark>
      <Placemark id="Distrito_HORQUETA.2">
        <ExtendedData>
          <SchemaData schemaUrl="#Distrito_HORQUETA.schema">
            <SimpleData name="Cédula">6616006.00000000000</SimpleData>
            <SimpleData name="cedula">6616006</SimpleData>
            <SimpleData name="Cédula_1">6616006.00000000000</SimpleData>
            <SimpleData name="N">359.00000000000</SimpleData>
            <SimpleData name="Nombres_y_">MARIA CRISTINA  ARCE GARCETE</SimpleData>
            <SimpleData name="Sexo">Mujer</SimpleData>
            <SimpleData name="Cambio_de_">NO</SimpleData>
            <SimpleData name="Titular_se">NO</SimpleData>
            <SimpleData name="Cédula_Ti">-</SimpleData>
            <SimpleData name="Situación">NO</SimpleData>
            <SimpleData name="Comunidad">Ind?gena</SimpleData>
            <SimpleData name="Modelo_imp">Modelo 1</SimpleData>
            <SimpleData name="Departamen">CONCEPCION</SimpleData>
            <SimpleData name="Distrito">HORQUETA</SimpleData>
            <SimpleData name="Localidad">COM INDIG PASO ITA</SimpleData>
            <SimpleData name="Teléfono">976811620</SimpleData>
            <SimpleData name="Vivienda_L">-23.40863160000</SimpleData>
            <SimpleData name="Vivienda_1">-56.85536440000</SimpleData>
            <SimpleData name="Superficie">0.80000000000</SimpleData>
            <SimpleData name="Situaci_1">Parametro</SimpleData>
            <SimpleData name="Plantado">Si</SimpleData>
            <SimpleData name="Parcela_La">-23.40899964000</SimpleData>
            <SimpleData name="Parcela_Lo">-56.86132882000</SimpleData>
            <SimpleData name="Grupo_Impl">G3</SimpleData>
            <SimpleData name="Grupo_de_P">J-P1-XX-XX-XX</SimpleData>
            <SimpleData name="Jornales">0.00000000000</SimpleData>
            <SimpleData name="Monto">0.00000000000</SimpleData>
            <SimpleData name="ETAPA_FAO">Mantenimiento A?o 1.1</SimpleData>
            <SimpleData name="Asistencia">-</SimpleData>
            <SimpleData name="Estado_del">Activo</SimpleData>
            <SimpleData name="Empresa">Emilio Sol?s Grance</SimpleData>
            <SimpleData name="Lote">J</SimpleData>
            <SimpleData name="Monitorear">No</SimpleData>
            <SimpleData name="Fecha_de_M">-</SimpleData>
            <SimpleData name="F__de_pren">-</SimpleData>
            <SimpleData name="Estado_FAO">Monitorear</SimpleData>
            <SimpleData name="Etapa_de_i">Mantenimiento A?o 1.1</SimpleData>
            <SimpleData name="Fecha_visi">2026/09/03</SimpleData>
            <SimpleData name="Cumple_sup">Si</SimpleData>
            <SimpleData name="Estado_mon">-</SimpleData>
            <SimpleData name="Situaci_12">-</SimpleData>
            <SimpleData name="Observaci">-</SimpleData>
            <SimpleData name="Dias_trans">3.46504629630</SimpleData>
            <SimpleData name="Prioridad">ALTA</SimpleData>
            <SimpleData name="OBJECTID_1">359</SimpleData>
          </SchemaData>
        </ExtendedData>
        <MultiGeometry>
          <Polygon>
            <outerBoundaryIs>
              <LinearRing>
                <coordinates>
                  -56.8547913998627,-23.4092894997856,0
                  -56.8549785999696,-23.4096024000335,0
                  -56.8549830656218,-23.4096001061936,0
                  -56.8553804218982,-23.4093959818491,0
                  -56.8554018001618,-23.4093850003943,0
                  -56.8550604004615,-23.4089053998857,0
                  -56.8547442997959,-23.4090905999665,0
                  -56.8547913998627,-23.4092894997856,0
                </coordinates>
              </LinearRing>
            </outerBoundaryIs>
          </Polygon>
          <Polygon>
            <outerBoundaryIs>
              <LinearRing>
                <coordinates>
                  -56.8609282995753,-23.4086449998656,0
                  -56.8611657997384,-23.4094899996126,0
                  -56.8618399995735,-23.4091167004017,0
                  -56.8613533001927,-23.408585000319,0
                  -56.8609282995753,-23.4086449998656,0
                </coordinates>
              </LinearRing>
            </outerBoundaryIs>
          </Polygon>
        </MultiGeometry>
      </Placemark>
      <Placemark id="Distrito_HORQUETA.3">
        <ExtendedData>
          <SchemaData schemaUrl="#Distrito_HORQUETA.schema">
            <SimpleData name="Cédula">6027481.00000000000</SimpleData>
            <SimpleData name="cedula">6027481</SimpleData>
            <SimpleData name="Cédula_1">6027481.00000000000</SimpleData>
            <SimpleData name="N">258.00000000000</SimpleData>
            <SimpleData name="Nombres_y_">CESAR SEBASTIAN ARISTE</SimpleData>
            <SimpleData name="Sexo">Hombre</SimpleData>
            <SimpleData name="Cambio_de_">NO</SimpleData>
            <SimpleData name="Titular_se">NO</SimpleData>
            <SimpleData name="Cédula_Ti">-</SimpleData>
            <SimpleData name="Situación">NO</SimpleData>
            <SimpleData name="Comunidad">Ind?gena</SimpleData>
            <SimpleData name="Modelo_imp">Modelo 5</SimpleData>
            <SimpleData name="Departamen">CONCEPCION</SimpleData>
            <SimpleData name="Distrito">HORQUETA</SimpleData>
            <SimpleData name="Localidad">COM INDIG PASO ITA</SimpleData>
            <SimpleData name="Teléfono">0976431195</SimpleData>
            <SimpleData name="Vivienda_L">-23.39727840000</SimpleData>
            <SimpleData name="Vivienda_1">-56.84949530000</SimpleData>
            <SimpleData name="Superficie">0.70000000000</SimpleData>
            <SimpleData name="Situaci_1">Pol?gono</SimpleData>
            <SimpleData name="Plantado">Si</SimpleData>
            <SimpleData name="Parcela_La">-23.39777048000</SimpleData>
            <SimpleData name="Parcela_Lo">-56.84977728000</SimpleData>
            <SimpleData name="Grupo_Impl">G3</SimpleData>
            <SimpleData name="Grupo_de_P">J-P1-XX-XX-XX</SimpleData>
            <SimpleData name="Jornales">0.00000000000</SimpleData>
            <SimpleData name="Monto">0.00000000000</SimpleData>
            <SimpleData name="ETAPA_FAO">Mantenimiento A?o 1.1</SimpleData>
            <SimpleData name="Asistencia">-</SimpleData>
            <SimpleData name="Estado_del">Activo</SimpleData>
            <SimpleData name="Empresa">Emilio Sol?s Grance</SimpleData>
            <SimpleData name="Lote">J</SimpleData>
            <SimpleData name="Monitorear">No</SimpleData>
            <SimpleData name="Fecha_de_M">-</SimpleData>
            <SimpleData name="F__de_pren">-</SimpleData>
            <SimpleData name="Estado_FAO">Verificar posible desercion</SimpleData>
            <SimpleData name="Etapa_de_i">Mantenimiento A?o 1.1</SimpleData>
            <SimpleData name="Fecha_visi">2026/08/27</SimpleData>
            <SimpleData name="Cumple_sup">-</SimpleData>
            <SimpleData name="Estado_mon">-</SimpleData>
            <SimpleData name="Situaci_12">-</SimpleData>
            <SimpleData name="Observaci">Participante alambro la parcela y metio animales. Utiliza como piquete para ganado vacuno su parcela;Alambro y utiliza como piquete para ganado su parcela</SimpleData>
            <SimpleData name="Dias_trans">10.34934457180</SimpleData>
            <SimpleData name="Prioridad">ALTA</SimpleData>
            <SimpleData name="OBJECTID_1">258</SimpleData>
          </SchemaData>
        </ExtendedData>
        <Polygon>
          <outerBoundaryIs>
            <LinearRing>
              <coordinates>
                -56.8492333007841,-23.3974999999886,0
                -56.8497348005511,-23.3984249006594,0
                -56.8499966997607,-23.3982782996138,0
                -56.8499380002073,-23.3980484996464,0
                -56.8502817003943,-23.3978633001523,0
                -56.8499982995385,-23.3972472997012,0
                -56.8492333007841,-23.3974999999886,0
              </coordinates>
            </LinearRing>
          </outerBoundaryIs>
        </Polygon>
      </Placemark>
    </Document>
  </Document>
</kml>
