<?xml version="1.0" encoding="UTF-8"?>
<kml xmlns="http://www.opengis.net/kml/2.2">
  <Document id="root_doc">
    <Schema id="Distrito_RA__L_ARSENIO_OVIEDO.schema">
      <SimpleField name="Cédula" type="double"/>
      <SimpleField name="cedula" type="string"/>
      <SimpleField name="N" type="double"/>
      <SimpleField name="Nombres_y_" type="string"/>
      <SimpleField name="Sexo" type="string"/>
      <SimpleField name="Cambio_de_" type="string"/>
      <SimpleField name="Titular_se" type="string"/>
      <SimpleField name="Cédula_Ti" type="string"/>
      <SimpleField name="Situación" type="string"/>
      <SimpleField name="Comunidad" type="string"/>
      <SimpleField name="Modelo_imp" type="string"/>
      <SimpleField name="Departamen" type="string"/>
      <SimpleField name="Distrito" type="string"/>
      <SimpleField name="Localidad" type="string"/>
      <SimpleField name="Teléfono" type="string"/>
      <SimpleField name="Vivienda_L" type="double"/>
      <SimpleField name="Vivienda_1" type="double"/>
      <SimpleField name="Superficie" type="double"/>
      <SimpleField name="Situaci_1" type="string"/>
      <SimpleField name="Plantado" type="string"/>
      <SimpleField name="Parcela_La" type="double"/>
      <SimpleField name="Parcela_Lo" type="double"/>
      <SimpleField name="Grupo_Impl" type="string"/>
      <SimpleField name="Grupo_de_P" type="string"/>
      <SimpleField name="Jornales" type="double"/>
      <SimpleField name="Monto" type="double"/>
      <SimpleField name="ETAPA_FAO" type="string"/>
      <SimpleField name="Asistencia" type="string"/>
      <SimpleField name="Estado_del" type="string"/>
      <SimpleField name="Empresa" type="string"/>
      <SimpleField name="Lote" type="string"/>
      <SimpleField name="Fecha_de_M" type="string"/>
      <SimpleField name="F__de_pren" type="string"/>
      <SimpleField name="Estado_FAO" type="string"/>
      <SimpleField name="Etapa_de_i" type="string"/>
      <SimpleField name="Fecha_visi" type="string"/>
      <SimpleField name="Cumple_sup" type="string"/>
      <SimpleField name="Estado_mon" type="string"/>
      <SimpleField name="Situaci_12" type="string"/>
      <SimpleField name="Observaci" type="string"/>
      <SimpleField name="Dias_trans" type="double"/>
      <SimpleField name="Prioridad" type="string"/>
    </Schema>
    <Document id="Distrito_RA__L_ARSENIO_OVIEDO">
      <name>Distrito_RAÃšL ARSENIO OVIEDO</name>
      <Placemark id="Distrito_RA__L_ARSENIO_OVIEDO.1">
        <ExtendedData>
          <SchemaData schemaUrl="#Distrito_RA__L_ARSENIO_OVIEDO.schema">
            <SimpleData name="Cédula">6598286.00000000000</SimpleData>
            <SimpleData name="cedula">6598286</SimpleData>
            <SimpleData name="N">202.00000000000</SimpleData>
            <SimpleData name="Nombres_y_">LORENA VERA ESQUIVEL</SimpleData>
            <SimpleData name="Sexo">Mujer</SimpleData>
            <SimpleData name="Cambio_de_">NO</SimpleData>
            <SimpleData name="Titular_se">NO</SimpleData>
            <SimpleData name="Cédula_Ti">-</SimpleData>
            <SimpleData name="Situación">NO</SimpleData>
            <SimpleData name="Comunidad">Ind?gena</SimpleData>
            <SimpleData name="Modelo_imp">Modelo 5</SimpleData>
            <SimpleData name="Departamen">CAAGUAZU</SimpleData>
            <SimpleData name="Distrito">RA?L ARSENIO OVIEDO</SimpleData>
            <SimpleData name="Localidad">COM INDIG YVYRYVATE</SimpleData>
            <SimpleData name="Teléfono">0972432792</SimpleData>
            <SimpleData name="Vivienda_L">-25.07123100000</SimpleData>
            <SimpleData name="Vivienda_1">-55.60284970000</SimpleData>
            <SimpleData name="Superficie">0.70000000000</SimpleData>
            <SimpleData name="Situaci_1">Pol?gono</SimpleData>
            <SimpleData name="Plantado">Si</SimpleData>
            <SimpleData name="Parcela_La">-25.07094160000</SimpleData>
            <SimpleData name="Parcela_Lo">-55.60257417000</SimpleData>
            <SimpleData name="Grupo_Impl">G2</SimpleData>
            <SimpleData name="Grupo_de_P">E-P1-XX-XX-XX</SimpleData>
            <SimpleData name="Jornales">0.00000000000</SimpleData>
            <SimpleData name="Monto">0.00000000000</SimpleData>
            <SimpleData name="ETAPA_FAO">Mantenimiento A?o 1.1</SimpleData>
            <SimpleData name="Asistencia">-</SimpleData>
            <SimpleData name="Estado_del">Activo</SimpleData>
            <SimpleData name="Empresa">Unique Wood Paraguay SA</SimpleData>
            <SimpleData name="Lote">E</SimpleData>
            <SimpleData name="Fecha_de_M">-</SimpleData>
            <SimpleData name="F__de_pren">-</SimpleData>
            <SimpleData name="Estado_FAO">Monitorear</SimpleData>
            <SimpleData name="Etapa_de_i">Mantenimiento A?o 1.1</SimpleData>
            <SimpleData name="Fecha_visi">2026/08/28</SimpleData>
            <SimpleData name="Cumple_sup">Si</SimpleData>
            <SimpleData name="Estado_mon">-</SimpleData>
            <SimpleData name="Situaci_12">-</SimpleData>
            <SimpleData name="Observaci">-</SimpleData>
            <SimpleData name="Dias_trans">9.44217592593</SimpleData>
            <SimpleData name="Prioridad">ALTA</SimpleData>
          </SchemaData>
        </ExtendedData>
        <MultiGeometry>
          <Polygon>
            <outerBoundaryIs>
              <LinearRing>
                <coordinates>
                  -55.6023317000419,-25.071576700562,0
                  -55.6030432998578,-25.0717750009045,0
                  -55.6030532997658,-25.0714317009308,0
                  -55.6023732983825,-25.071363299889,0
                  -55.6023317000419,-25.071576700562,0
                </coordinates>
              </LinearRing>
            </outerBoundaryIs>
          </Polygon>
          <Polygon>
            <outerBoundaryIs>
              <LinearRing>
                <coordinates>
                  -55.6023118996942,-25.0705203005804,0
                  -55.6020305006717,-25.0710546005347,0
                  -55.602142699575,-25.071080000156,0
                  -55.6022057995552,-25.0709866005888,0
                  -55.6027360983002,-25.0710545005802,0
                  -55.6028382991707,-25.0702266999208,0
                  -55.6023799998928,-25.070259800812,0
                  -55.6023118996942,-25.0705203005804,0
                </coordinates>
              </LinearRing>
            </outerBoundaryIs>
          </Polygon>
        </MultiGeometry>
      </Placemark>
      <Placemark id="Distrito_RA__L_ARSENIO_OVIEDO.2">
        <ExtendedData>
          <SchemaData schemaUrl="#Distrito_RA__L_ARSENIO_OVIEDO.schema">
            <SimpleData name="Cédula">7202165.00000000000</SimpleData>
            <SimpleData name="cedula">7202165</SimpleData>
            <SimpleData name="N">201.00000000000</SimpleData>
            <SimpleData name="Nombres_y_">ALCIDES MONTANIA BAEZ</SimpleData>
            <SimpleData name="Sexo">Hombre</SimpleData>
            <SimpleData name="Cambio_de_">NO</SimpleData>
            <SimpleData name="Titular_se">NO</SimpleData>
            <SimpleData name="Cédula_Ti">-</SimpleData>
            <SimpleData name="Situación">NO</SimpleData>
            <SimpleData name="Comunidad">Ind?gena</SimpleData>
            <SimpleData name="Modelo_imp">Modelo 5</SimpleData>
            <SimpleData name="Departamen">CAAGUAZU</SimpleData>
            <SimpleData name="Distrito">RA?L ARSENIO OVIEDO</SimpleData>
            <SimpleData name="Localidad">COM INDIG YVYRYVATE</SimpleData>
            <SimpleData name="Teléfono">0972432792</SimpleData>
            <SimpleData name="Vivienda_L">-25.06639010000</SimpleData>
            <SimpleData name="Vivienda_1">-55.59678820000</SimpleData>
            <SimpleData name="Superficie">0.70000000000</SimpleData>
            <SimpleData name="Situaci_1">Pol?gono</SimpleData>
            <SimpleData name="Plantado">Si</SimpleData>
            <SimpleData name="Parcela_La">-25.06555236000</SimpleData>
            <SimpleData name="Parcela_Lo">-55.59683723000</SimpleData>
            <SimpleData name="Grupo_Impl">G2</SimpleData>
            <SimpleData name="Grupo_de_P">E-P1-XX-XX-XX</SimpleData>
            <SimpleData name="Jornales">0.00000000000</SimpleData>
            <SimpleData name="Monto">0.00000000000</SimpleData>
            <SimpleData name="ETAPA_FAO">Mantenimiento A?o 1.1</SimpleData>
            <SimpleData name="Asistencia">-</SimpleData>
            <SimpleData name="Estado_del">Activo</SimpleData>
            <SimpleData name="Empresa">Unique Wood Paraguay SA</SimpleData>
            <SimpleData name="Lote">E</SimpleData>
            <SimpleData name="Fecha_de_M">-</SimpleData>
            <SimpleData name="F__de_pren">-</SimpleData>
            <SimpleData name="Estado_FAO">Monitorear</SimpleData>
            <SimpleData name="Etapa_de_i">Mantenimiento A?o 1.1</SimpleData>
            <SimpleData name="Fecha_visi">2026/08/28</SimpleData>
            <SimpleData name="Cumple_sup">Si</SimpleData>
            <SimpleData name="Estado_mon">-</SimpleData>
            <SimpleData name="Situaci_12">-</SimpleData>
            <SimpleData name="Observaci">-</SimpleData>
            <SimpleData name="Dias_trans">9.30114583333</SimpleData>
            <SimpleData name="Prioridad">ALTA</SimpleData>
          </SchemaData>
        </ExtendedData>
        <Polygon>
          <outerBoundaryIs>
            <LinearRing>
              <coordinates>
                -55.596779308926,-25.0649366593859,0
                -55.596303204727,-25.0663799880754,0
                -55.5964433006344,-25.0663299994339,0
                -55.5965500004545,-25.0662167004684,0
                -55.5966296002602,-25.066172300357,0
                -55.5967602996669,-25.0660644000692,0
                -55.5968323999651,-25.0658780006579,0
                -55.5969709995805,-25.0658465994359,0
                -55.5970778992567,-25.065825499766,0
                -55.5971487993763,-25.0656491998032,0
                -55.5972029999473,-25.0654867003354,0
                -55.5972793005755,-25.065283400544,0
                -55.5973333002131,-25.0651432998179,0
                -55.5972928995079,-25.0650799001264,0
                -55.5971403004063,-25.0650201002162,0
                -55.5970432001773,-25.0649817996384,0
                -55.5968574005139,-25.0648949996869,0
                -55.5967914000254,-25.0649068994465,0
                -55.596779308926,-25.0649366593859,0
              </coordinates>
            </LinearRing>
          </outerBoundaryIs>
        </Polygon>
      </Placemark>
      <Placemark id="Distrito_RA__L_ARSENIO_OVIEDO.3">
        <ExtendedData>
          <SchemaData schemaUrl="#Distrito_RA__L_ARSENIO_OVIEDO.schema">
            <SimpleData name="Cédula">6078449.00000000000</SimpleData>
            <SimpleData name="cedula">6078449</SimpleData>
            <SimpleData name="N">203.00000000000</SimpleData>
            <SimpleData name="Nombres_y_">RUFINA ORTIZ</SimpleData>
            <SimpleData name="Sexo">Mujer</SimpleData>
            <SimpleData name="Cambio_de_">NO</SimpleData>
            <SimpleData name="Titular_se">NO</SimpleData>
            <SimpleData name="Cédula_Ti">-</SimpleData>
            <SimpleData name="Situación">NO</SimpleData>
            <SimpleData name="Comunidad">Ind?gena</SimpleData>
            <SimpleData name="Modelo_imp">Modelo 5</SimpleData>
            <SimpleData name="Departamen">CAAGUAZU</SimpleData>
            <SimpleData name="Distrito">RA?L ARSENIO OVIEDO</SimpleData>
            <SimpleData name="Localidad">COM INDIG YVYRYVATE</SimpleData>
            <SimpleData name="Teléfono">No tiene</SimpleData>
            <SimpleData name="Vivienda_L">-25.06496280000</SimpleData>
            <SimpleData name="Vivienda_1">-55.59967180000</SimpleData>
            <SimpleData name="Superficie">0.70000000000</SimpleData>
            <SimpleData name="Situaci_1">Pol?gono</SimpleData>
            <SimpleData name="Plantado">Si</SimpleData>
            <SimpleData name="Parcela_La">-25.06497628000</SimpleData>
            <SimpleData name="Parcela_Lo">-55.59925480000</SimpleData>
            <SimpleData name="Grupo_Impl">G2</SimpleData>
            <SimpleData name="Grupo_de_P">E-P1-XX-XX-XX</SimpleData>
            <SimpleData name="Jornales">0.00000000000</SimpleData>
            <SimpleData name="Monto">0.00000000000</SimpleData>
            <SimpleData name="ETAPA_FAO">Mantenimiento A?o 1.1</SimpleData>
            <SimpleData name="Asistencia">-</SimpleData>
            <SimpleData name="Estado_del">Activo</SimpleData>
            <SimpleData name="Empresa">Unique Wood Paraguay SA</SimpleData>
            <SimpleData name="Lote">E</SimpleData>
            <SimpleData name="Fecha_de_M">-</SimpleData>
            <SimpleData name="F__de_pren">-</SimpleData>
            <SimpleData name="Estado_FAO">Monitorear</SimpleData>
            <SimpleData name="Etapa_de_i">Mantenimiento A?o 1.1</SimpleData>
            <SimpleData name="Fecha_visi">2026/08/28</SimpleData>
            <SimpleData name="Cumple_sup">Si</SimpleData>
            <SimpleData name="Estado_mon">-</SimpleData>
            <SimpleData name="Situaci_12">-</SimpleData>
            <SimpleData name="Observaci">-</SimpleData>
            <SimpleData name="Dias_trans">9.30112268519</SimpleData>
            <SimpleData name="Prioridad">ALTA</SimpleData>
          </SchemaData>
        </ExtendedData>
        <Polygon>
          <outerBoundaryIs>
            <LinearRing>
              <coordinates>
                -55.5988204994046,-25.0649875000743,0
                -55.5989266005483,-25.0652107000752,0
                -55.5990389996577,-25.065445599977,0
                -55.5992620004632,-25.065424200206,0
                -55.5995482002028,-25.0653182006189,0
                -55.5997460004658,-25.0651933000051,0
                -55.5997553003397,-25.0651250000158,0
                -55.5997498995877,-25.0651264000786,0
                -55.599654199867,-25.064878699382,0
                -55.5995545007595,-25.0646907003727,0
                -55.5994366996505,-25.0644850001932,0
                -55.5993541000705,-25.0644968998129,0
                -55.5991341998117,-25.0645718997073,0
                -55.5988789005338,-25.0646732999417,0
                -55.5987409993987,-25.0648233000404,0
                -55.5988204994046,-25.0649875000743,0
              </coordinates>
            </LinearRing>
          </outerBoundaryIs>
        </Polygon>
      </Placemark>
    </Document>
  </Document>
</kml>
