<?xml version="1.0" encoding="UTF-8"?>
<kml xmlns="http://www.opengis.net/kml/2.2">
  <Document id="root_doc">
    <Schema id="Distrito_AZOTEY.schema">
      <SimpleField name="Cédula" type="float"/>
      <SimpleField name="cedula" type="string"/>
      <SimpleField name="Cédula_1" type="float"/>
      <SimpleField name="N" type="float"/>
      <SimpleField name="Nombres_y_" type="string"/>
      <SimpleField name="Sexo" type="string"/>
      <SimpleField name="Cambio_de_" type="string"/>
      <SimpleField name="Titular_se" type="string"/>
      <SimpleField name="Cédula_Ti" type="string"/>
      <SimpleField name="Situación" type="string"/>
      <SimpleField name="Comunidad" type="string"/>
      <SimpleField name="Modelo_imp" type="string"/>
      <SimpleField name="Departamen" type="string"/>
      <SimpleField name="Distrito" type="string"/>
      <SimpleField name="Localidad" type="string"/>
      <SimpleField name="Teléfono" type="string"/>
      <SimpleField name="Vivienda_L" type="float"/>
      <SimpleField name="Vivienda_1" type="float"/>
      <SimpleField name="Superficie" type="float"/>
      <SimpleField name="Situaci_1" type="string"/>
      <SimpleField name="Plantado" type="string"/>
      <SimpleField name="Parcela_La" type="float"/>
      <SimpleField name="Parcela_Lo" type="float"/>
      <SimpleField name="Grupo_Impl" type="string"/>
      <SimpleField name="Grupo_de_P" type="string"/>
      <SimpleField name="Jornales" type="float"/>
      <SimpleField name="Monto" type="float"/>
      <SimpleField name="ETAPA_FAO" type="string"/>
      <SimpleField name="Asistencia" type="string"/>
      <SimpleField name="Estado_del" type="string"/>
      <SimpleField name="Empresa" type="string"/>
      <SimpleField name="Lote" type="string"/>
      <SimpleField name="Monitorear" type="string"/>
      <SimpleField name="Fecha_de_M" type="string"/>
      <SimpleField name="F__de_pren" type="string"/>
      <SimpleField name="Estado_FAO" type="string"/>
      <SimpleField name="Etapa_de_i" type="string"/>
      <SimpleField name="Cumple_sup" type="string"/>
      <SimpleField name="Estado_mon" type="string"/>
      <SimpleField name="Situaci_12" type="string"/>
      <SimpleField name="Observaci" type="string"/>
      <SimpleField name="Dias_trans" type="float"/>
      <SimpleField name="Prioridad" type="string"/>
      <SimpleField name="OBJECTID_1" type="int"/>
    </Schema>
    <Document id="Distrito_AZOTEY">
      <name>Distrito_AZOTEY</name>
      <Placemark id="Distrito_AZOTEY.1">
        <ExtendedData>
          <SchemaData schemaUrl="#Distrito_AZOTEY.schema">
            <SimpleData name="Cédula">4174312.00000000000</SimpleData>
            <SimpleData name="cedula">4174312</SimpleData>
            <SimpleData name="Cédula_1">4174312.00000000000</SimpleData>
            <SimpleData name="N">133.00000000000</SimpleData>
            <SimpleData name="Nombres_y_">AGRIPINA ARCE TORRES</SimpleData>
            <SimpleData name="Sexo">Mujer</SimpleData>
            <SimpleData name="Cambio_de_">NO</SimpleData>
            <SimpleData name="Titular_se">NO</SimpleData>
            <SimpleData name="Cédula_Ti">-</SimpleData>
            <SimpleData name="Situación">NO</SimpleData>
            <SimpleData name="Comunidad">Ind?gena</SimpleData>
            <SimpleData name="Modelo_imp">Modelo 2</SimpleData>
            <SimpleData name="Departamen">CONCEPCION</SimpleData>
            <SimpleData name="Distrito">AZOTEY</SimpleData>
            <SimpleData name="Localidad">COM INDIG VYA PAVE-AZOTEY</SimpleData>
            <SimpleData name="Teléfono">0971430224</SimpleData>
            <SimpleData name="Vivienda_L">-23.34567590000</SimpleData>
            <SimpleData name="Vivienda_1">-56.50896050000</SimpleData>
            <SimpleData name="Superficie">0.80000000000</SimpleData>
            <SimpleData name="Situaci_1">Par?metro</SimpleData>
            <SimpleData name="Plantado">Si</SimpleData>
            <SimpleData name="Parcela_La">-23.34630099000</SimpleData>
            <SimpleData name="Parcela_Lo">-56.51002817000</SimpleData>
            <SimpleData name="Grupo_Impl">G3</SimpleData>
            <SimpleData name="Grupo_de_P">J-P2-XX-XX-XX</SimpleData>
            <SimpleData name="Jornales">0.00000000000</SimpleData>
            <SimpleData name="Monto">0.00000000000</SimpleData>
            <SimpleData name="ETAPA_FAO">Mantenimiento A?o 1.1</SimpleData>
            <SimpleData name="Asistencia">-</SimpleData>
            <SimpleData name="Estado_del">Activo</SimpleData>
            <SimpleData name="Empresa">Emilio Sol?s Grance</SimpleData>
            <SimpleData name="Lote">J</SimpleData>
            <SimpleData name="Monitorear">Si</SimpleData>
            <SimpleData name="Fecha_de_M">-</SimpleData>
            <SimpleData name="F__de_pren">-</SimpleData>
            <SimpleData name="Estado_FAO">Monitorear</SimpleData>
            <SimpleData name="Etapa_de_i">Mantenimiento A?o 1.1</SimpleData>
            <SimpleData name="Fecha_visi">2026/08/18</SimpleData>
            <SimpleData name="Cumple_sup">Si</SimpleData>
            <SimpleData name="Estado_mon">-</SimpleData>
            <SimpleData name="Situaci_12">-</SimpleData>
            <SimpleData name="Observaci">-</SimpleData>
            <SimpleData name="Dias_trans">19.47537037040</SimpleData>
            <SimpleData name="Prioridad">ALTA</SimpleData>
            <SimpleData name="OBJECTID_1">133</SimpleData>
          </SchemaData>
        </ExtendedData>
        <Polygon>
          <outerBoundaryIs>
            <LinearRing>
              <coordinates>
                -56.5098966994787,-23.3466209998022,0
                -56.5105440998014,-23.3466934998509,0
                -56.5105784997309,-23.3465451999178,0
                -56.510695499106,-23.3461183004252,0
                -56.5103128990394,-23.3460104005365,0
                -56.5095169993124,-23.3459148000353,0
                -56.5094641994326,-23.3462000998043,0
                -56.5093769992829,-23.3462035002492,0
                -56.5093053997813,-23.3464101997579,0
                -56.5095714992454,-23.3465116997179,0
                -56.5098966994787,-23.3466209998022,0
              </coordinates>
            </LinearRing>
          </outerBoundaryIs>
        </Polygon>
      </Placemark>
      <Placemark id="Distrito_AZOTEY.2">
        <ExtendedData>
          <SchemaData schemaUrl="#Distrito_AZOTEY.schema">
            <SimpleData name="Cédula">7199058.00000000000</SimpleData>
            <SimpleData name="cedula">7199058</SimpleData>
            <SimpleData name="Cédula_1">7199058.00000000000</SimpleData>
            <SimpleData name="N">265.00000000000</SimpleData>
            <SimpleData name="Nombres_y_">MARLENE ARCE RECALDE</SimpleData>
            <SimpleData name="Sexo">Mujer</SimpleData>
            <SimpleData name="Cambio_de_">NO</SimpleData>
            <SimpleData name="Titular_se">NO</SimpleData>
            <SimpleData name="Cédula_Ti">-</SimpleData>
            <SimpleData name="Situación">NO</SimpleData>
            <SimpleData name="Comunidad">Ind?gena</SimpleData>
            <SimpleData name="Modelo_imp">Modelo 2</SimpleData>
            <SimpleData name="Departamen">CONCEPCION</SimpleData>
            <SimpleData name="Distrito">AZOTEY</SimpleData>
            <SimpleData name="Localidad">COM INDIG VYA PAVE-AZOTEY</SimpleData>
            <SimpleData name="Teléfono">0982044413</SimpleData>
            <SimpleData name="Vivienda_L">-23.34373590000</SimpleData>
            <SimpleData name="Vivienda_1">-56.50960410000</SimpleData>
            <SimpleData name="Superficie">0.80000000000</SimpleData>
            <SimpleData name="Situaci_1">Par?metro</SimpleData>
            <SimpleData name="Plantado">Si</SimpleData>
            <SimpleData name="Parcela_La">-23.34388477000</SimpleData>
            <SimpleData name="Parcela_Lo">-56.51047859000</SimpleData>
            <SimpleData name="Grupo_Impl">G3</SimpleData>
            <SimpleData name="Grupo_de_P">J-P1-XX-XX-XX</SimpleData>
            <SimpleData name="Jornales">0.00000000000</SimpleData>
            <SimpleData name="Monto">0.00000000000</SimpleData>
            <SimpleData name="ETAPA_FAO">Mantenimiento A?o 1.1</SimpleData>
            <SimpleData name="Asistencia">-</SimpleData>
            <SimpleData name="Estado_del">Activo</SimpleData>
            <SimpleData name="Empresa">Emilio Sol?s Grance</SimpleData>
            <SimpleData name="Lote">J</SimpleData>
            <SimpleData name="Monitorear">Si</SimpleData>
            <SimpleData name="Fecha_de_M">-</SimpleData>
            <SimpleData name="F__de_pren">-</SimpleData>
            <SimpleData name="Estado_FAO">Monitorear</SimpleData>
            <SimpleData name="Etapa_de_i">Mantenimiento A?o 1.1</SimpleData>
            <SimpleData name="Fecha_visi">2026/08/17</SimpleData>
            <SimpleData name="Cumple_sup">Si</SimpleData>
            <SimpleData name="Estado_mon">-</SimpleData>
            <SimpleData name="Situaci_12">-</SimpleData>
            <SimpleData name="Observaci">-</SimpleData>
            <SimpleData name="Dias_trans">20.45150462960</SimpleData>
            <SimpleData name="Prioridad">ALTA</SimpleData>
            <SimpleData name="OBJECTID_1">265</SimpleData>
          </SchemaData>
        </ExtendedData>
        <Polygon>
          <outerBoundaryIs>
            <LinearRing>
              <coordinates>
                -56.5100062756879,-23.3440117908601,0
                -56.510565398009,-23.3441561126179,0
                -56.5111549998021,-23.3443082993895,0
                -56.5112350000211,-23.3438499995247,0
                -56.5107832993577,-23.3437300006555,0
                -56.5103216996931,-23.3435817004079,0
                -56.5099366998471,-23.3434582999667,0
                -56.5098517002672,-23.3434983004663,0
                -56.5097316993381,-23.3437016999216,0
                -56.5098517001831,-23.3437083000963,0
                -56.5099216993003,-23.3437917006589,0
                -56.5097199993306,-23.3437867001083,0
                -56.5097049994907,-23.3439117008572,0
                -56.5098250002652,-23.343964999854,0
                -56.5100062756879,-23.3440117908601,0
              </coordinates>
            </LinearRing>
          </outerBoundaryIs>
        </Polygon>
      </Placemark>
      <Placemark id="Distrito_AZOTEY.3">
        <ExtendedData>
          <SchemaData schemaUrl="#Distrito_AZOTEY.schema">
            <SimpleData name="Cédula">6229664.00000000000</SimpleData>
            <SimpleData name="cedula">6229664</SimpleData>
            <SimpleData name="Cédula_1">6229664.00000000000</SimpleData>
            <SimpleData name="N">266.00000000000</SimpleData>
            <SimpleData name="Nombres_y_">LIDIA MARIANA ROMERO ESPINOLA</SimpleData>
            <SimpleData name="Sexo">Mujer</SimpleData>
            <SimpleData name="Cambio_de_">NO</SimpleData>
            <SimpleData name="Titular_se">NO</SimpleData>
            <SimpleData name="Cédula_Ti">-</SimpleData>
            <SimpleData name="Situación">NO</SimpleData>
            <SimpleData name="Comunidad">Ind?gena</SimpleData>
            <SimpleData name="Modelo_imp">Modelo 1</SimpleData>
            <SimpleData name="Departamen">CONCEPCION</SimpleData>
            <SimpleData name="Distrito">AZOTEY</SimpleData>
            <SimpleData name="Localidad">COM INDIG VYA PAVE-AZOTEY</SimpleData>
            <SimpleData name="Teléfono">0973110263</SimpleData>
            <SimpleData name="Vivienda_L">-23.34116950000</SimpleData>
            <SimpleData name="Vivienda_1">-56.50984220000</SimpleData>
            <SimpleData name="Superficie">0.80000000000</SimpleData>
            <SimpleData name="Situaci_1">Par?metro</SimpleData>
            <SimpleData name="Plantado">Si</SimpleData>
            <SimpleData name="Parcela_La">-23.34197713000</SimpleData>
            <SimpleData name="Parcela_Lo">-56.51083006000</SimpleData>
            <SimpleData name="Grupo_Impl">G3</SimpleData>
            <SimpleData name="Grupo_de_P">J-P1-XX-XX-XX</SimpleData>
            <SimpleData name="Jornales">0.00000000000</SimpleData>
            <SimpleData name="Monto">0.00000000000</SimpleData>
            <SimpleData name="ETAPA_FAO">Mantenimiento A?o 1.1</SimpleData>
            <SimpleData name="Asistencia">-</SimpleData>
            <SimpleData name="Estado_del">Activo</SimpleData>
            <SimpleData name="Empresa">Emilio Sol?s Grance</SimpleData>
            <SimpleData name="Lote">J</SimpleData>
            <SimpleData name="Monitorear">Si</SimpleData>
            <SimpleData name="Fecha_de_M">-</SimpleData>
            <SimpleData name="F__de_pren">-</SimpleData>
            <SimpleData name="Estado_FAO">Monitorear</SimpleData>
            <SimpleData name="Etapa_de_i">Mantenimiento A?o 1.1</SimpleData>
            <SimpleData name="Fecha_visi">2026/08/17</SimpleData>
            <SimpleData name="Cumple_sup">Si</SimpleData>
            <SimpleData name="Estado_mon">-</SimpleData>
            <SimpleData name="Situaci_12">-</SimpleData>
            <SimpleData name="Observaci">-</SimpleData>
            <SimpleData name="Dias_trans">20.45130787040</SimpleData>
            <SimpleData name="Prioridad">ALTA</SimpleData>
            <SimpleData name="OBJECTID_1">266</SimpleData>
          </SchemaData>
        </ExtendedData>
        <Polygon>
          <outerBoundaryIs>
            <LinearRing>
              <coordinates>
                -56.5104034995439,-23.3423817004342,0
                -56.5111114994678,-23.3425017997514,0
                -56.5111904999034,-23.3424761004683,0
                -56.5112146998417,-23.3424221000784,0
                -56.5112480998775,-23.3420856998743,0
                -56.5112177999414,-23.3416832000377,0
                -56.5111856988671,-23.3415391996596,0
                -56.5104643998311,-23.3414378004726,0
                -56.5104034995439,-23.3423817004342,0
              </coordinates>
            </LinearRing>
          </outerBoundaryIs>
        </Polygon>
      </Placemark>
      <Placemark id="Distrito_AZOTEY.4">
        <ExtendedData>
          <SchemaData schemaUrl="#Distrito_AZOTEY.schema">
            <SimpleData name="Cédula">6170097.00000000000</SimpleData>
            <SimpleData name="cedula">6170097</SimpleData>
            <SimpleData name="Cédula_1">6170097.00000000000</SimpleData>
            <SimpleData name="N">271.00000000000</SimpleData>
            <SimpleData name="Nombres_y_">MIRIAN ECHAGUE RECALDE</SimpleData>
            <SimpleData name="Sexo">Mujer</SimpleData>
            <SimpleData name="Cambio_de_">NO</SimpleData>
            <SimpleData name="Titular_se">NO</SimpleData>
            <SimpleData name="Cédula_Ti">-</SimpleData>
            <SimpleData name="Situación">NO</SimpleData>
            <SimpleData name="Comunidad">Ind?gena</SimpleData>
            <SimpleData name="Modelo_imp">Modelo 2</SimpleData>
            <SimpleData name="Departamen">CONCEPCION</SimpleData>
            <SimpleData name="Distrito">AZOTEY</SimpleData>
            <SimpleData name="Localidad">COM INDIG VYA PAVE-AZOTEY</SimpleData>
            <SimpleData name="Teléfono">0984091850</SimpleData>
            <SimpleData name="Vivienda_L">-23.33961210000</SimpleData>
            <SimpleData name="Vivienda_1">-56.50876580000</SimpleData>
            <SimpleData name="Superficie">0.80000000000</SimpleData>
            <SimpleData name="Situaci_1">Par?metro</SimpleData>
            <SimpleData name="Plantado">Si</SimpleData>
            <SimpleData name="Parcela_La">-23.33956872000</SimpleData>
            <SimpleData name="Parcela_Lo">-56.50739441000</SimpleData>
            <SimpleData name="Grupo_Impl">G3</SimpleData>
            <SimpleData name="Grupo_de_P">J-P1-XX-XX-XX</SimpleData>
            <SimpleData name="Jornales">0.00000000000</SimpleData>
            <SimpleData name="Monto">0.00000000000</SimpleData>
            <SimpleData name="ETAPA_FAO">Mantenimiento A?o 1.1</SimpleData>
            <SimpleData name="Asistencia">-</SimpleData>
            <SimpleData name="Estado_del">Activo</SimpleData>
            <SimpleData name="Empresa">Emilio Sol?s Grance</SimpleData>
            <SimpleData name="Lote">J</SimpleData>
            <SimpleData name="Monitorear">Si</SimpleData>
            <SimpleData name="Fecha_de_M">-</SimpleData>
            <SimpleData name="F__de_pren">-</SimpleData>
            <SimpleData name="Estado_FAO">Monitorear</SimpleData>
            <SimpleData name="Etapa_de_i">Mantenimiento A?o 1.1</SimpleData>
            <SimpleData name="Fecha_visi">2026/08/17</SimpleData>
            <SimpleData name="Cumple_sup">Si</SimpleData>
            <SimpleData name="Estado_mon">-</SimpleData>
            <SimpleData name="Situaci_12">-</SimpleData>
            <SimpleData name="Observaci">-</SimpleData>
            <SimpleData name="Dias_trans">20.45076388890</SimpleData>
            <SimpleData name="Prioridad">ALTA</SimpleData>
            <SimpleData name="OBJECTID_1">271</SimpleData>
          </SchemaData>
        </ExtendedData>
        <Polygon>
          <outerBoundaryIs>
            <LinearRing>
              <coordinates>
                -56.5070501468456,-23.3398981737626,0
                -56.5070885991401,-23.3398931000099,0
                -56.5072266945711,-23.3398747851392,0
                -56.5073132992756,-23.3398632995796,0
                -56.5073581613552,-23.3398647296877,0
                -56.5074884644481,-23.3398688836194,0
                -56.5075579994071,-23.3398711003353,0
                -56.5079200002047,-23.3398671002862,0
                -56.5080783990989,-23.3394566999785,0
                -56.5080799996722,-23.3393483002294,0
                -56.5068293992558,-23.3392031001091,0
                -56.5068332004504,-23.3399268004771,0
                -56.5070501468456,-23.3398981737626,0
              </coordinates>
            </LinearRing>
          </outerBoundaryIs>
        </Polygon>
      </Placemark>
      <Placemark id="Distrito_AZOTEY.5">
        <ExtendedData>
          <SchemaData schemaUrl="#Distrito_AZOTEY.schema">
            <SimpleData name="Cédula">6788915.00000000000</SimpleData>
            <SimpleData name="cedula">6788915</SimpleData>
            <SimpleData name="Cédula_1">6788915.00000000000</SimpleData>
            <SimpleData name="N">268.00000000000</SimpleData>
            <SimpleData name="Nombres_y_">DIGNA ARCE RECALDE</SimpleData>
            <SimpleData name="Sexo">Mujer</SimpleData>
            <SimpleData name="Cambio_de_">NO</SimpleData>
            <SimpleData name="Titular_se">NO</SimpleData>
            <SimpleData name="Cédula_Ti">-</SimpleData>
            <SimpleData name="Situación">NO</SimpleData>
            <SimpleData name="Comunidad">Ind?gena</SimpleData>
            <SimpleData name="Modelo_imp">Modelo 1</SimpleData>
            <SimpleData name="Departamen">CONCEPCION</SimpleData>
            <SimpleData name="Distrito">AZOTEY</SimpleData>
            <SimpleData name="Localidad">COM INDIG VYA PAVE-AZOTEY</SimpleData>
            <SimpleData name="Teléfono">0</SimpleData>
            <SimpleData name="Vivienda_L">-23.34626790000</SimpleData>
            <SimpleData name="Vivienda_1">-56.50900630000</SimpleData>
            <SimpleData name="Superficie">0.80000000000</SimpleData>
            <SimpleData name="Situaci_1">Par?metro</SimpleData>
            <SimpleData name="Plantado">Si</SimpleData>
            <SimpleData name="Parcela_La">-23.34612444000</SimpleData>
            <SimpleData name="Parcela_Lo">-56.50762820000</SimpleData>
            <SimpleData name="Grupo_Impl">G3</SimpleData>
            <SimpleData name="Grupo_de_P">J-P1-XX-XX-XX</SimpleData>
            <SimpleData name="Jornales">0.00000000000</SimpleData>
            <SimpleData name="Monto">0.00000000000</SimpleData>
            <SimpleData name="ETAPA_FAO">Mantenimiento A?o 1.1</SimpleData>
            <SimpleData name="Asistencia">-</SimpleData>
            <SimpleData name="Estado_del">Activo</SimpleData>
            <SimpleData name="Empresa">Emilio Sol?s Grance</SimpleData>
            <SimpleData name="Lote">J</SimpleData>
            <SimpleData name="Monitorear">Si</SimpleData>
            <SimpleData name="Fecha_de_M">-</SimpleData>
            <SimpleData name="F__de_pren">-</SimpleData>
            <SimpleData name="Estado_FAO">Monitorear</SimpleData>
            <SimpleData name="Etapa_de_i">Mantenimiento A?o 1.1</SimpleData>
            <SimpleData name="Fecha_visi">2026/08/18</SimpleData>
            <SimpleData name="Cumple_sup">Si</SimpleData>
            <SimpleData name="Estado_mon">-</SimpleData>
            <SimpleData name="Situaci_12">-</SimpleData>
            <SimpleData name="Observaci">-</SimpleData>
            <SimpleData name="Dias_trans">19.47574074070</SimpleData>
            <SimpleData name="Prioridad">ALTA</SimpleData>
            <SimpleData name="OBJECTID_1">268</SimpleData>
          </SchemaData>
        </ExtendedData>
        <Polygon>
          <outerBoundaryIs>
            <LinearRing>
              <coordinates>
                -56.5070720391888,-23.3464101780861,0
                -56.5081116997964,-23.3465533000171,0
                -56.5081694001813,-23.3459578001912,0
                -56.5079951998348,-23.3459220998982,0
                -56.5079332004524,-23.3458080996659,0
                -56.5076336002069,-23.345702799898,0
                -56.5072367001651,-23.3456650000658,0
                -56.5070720391888,-23.3464101780861,0
              </coordinates>
            </LinearRing>
          </outerBoundaryIs>
        </Polygon>
      </Placemark>
      <Placemark id="Distrito_AZOTEY.6">
        <ExtendedData>
          <SchemaData schemaUrl="#Distrito_AZOTEY.schema">
            <SimpleData name="Cédula">7789782.00000000000</SimpleData>
            <SimpleData name="cedula">7789782</SimpleData>
            <SimpleData name="Cédula_1">7789782.00000000000</SimpleData>
            <SimpleData name="N">272.00000000000</SimpleData>
            <SimpleData name="Nombres_y_">MABEL ESPINOLA PORTILLO</SimpleData>
            <SimpleData name="Sexo">Mujer</SimpleData>
            <SimpleData name="Cambio_de_">NO</SimpleData>
            <SimpleData name="Titular_se">NO</SimpleData>
            <SimpleData name="Cédula_Ti">-</SimpleData>
            <SimpleData name="Situación">NO</SimpleData>
            <SimpleData name="Comunidad">Ind?gena</SimpleData>
            <SimpleData name="Modelo_imp">Modelo 1</SimpleData>
            <SimpleData name="Departamen">CONCEPCION</SimpleData>
            <SimpleData name="Distrito">AZOTEY</SimpleData>
            <SimpleData name="Localidad">COM INDIG VYA PAVE-AZOTEY</SimpleData>
            <SimpleData name="Teléfono">0983061207</SimpleData>
            <SimpleData name="Vivienda_L">-23.34181030000</SimpleData>
            <SimpleData name="Vivienda_1">-56.50922670000</SimpleData>
            <SimpleData name="Superficie">0.80000000000</SimpleData>
            <SimpleData name="Situaci_1">Par?metro</SimpleData>
            <SimpleData name="Plantado">Si</SimpleData>
            <SimpleData name="Parcela_La">-23.34173795000</SimpleData>
            <SimpleData name="Parcela_Lo">-56.50784955000</SimpleData>
            <SimpleData name="Grupo_Impl">G3</SimpleData>
            <SimpleData name="Grupo_de_P">J-P1-XX-XX-XX</SimpleData>
            <SimpleData name="Jornales">0.00000000000</SimpleData>
            <SimpleData name="Monto">0.00000000000</SimpleData>
            <SimpleData name="ETAPA_FAO">Mantenimiento A?o 1.1</SimpleData>
            <SimpleData name="Asistencia">-</SimpleData>
            <SimpleData name="Estado_del">Activo</SimpleData>
            <SimpleData name="Empresa">Emilio Sol?s Grance</SimpleData>
            <SimpleData name="Lote">J</SimpleData>
            <SimpleData name="Monitorear">Si</SimpleData>
            <SimpleData name="Fecha_de_M">-</SimpleData>
            <SimpleData name="F__de_pren">-</SimpleData>
            <SimpleData name="Estado_FAO">Monitorear</SimpleData>
            <SimpleData name="Etapa_de_i">Mantenimiento A?o 1.1</SimpleData>
            <SimpleData name="Fecha_visi">2026/08/17</SimpleData>
            <SimpleData name="Cumple_sup">Si</SimpleData>
            <SimpleData name="Estado_mon">-</SimpleData>
            <SimpleData name="Situaci_12">-</SimpleData>
            <SimpleData name="Observaci">-</SimpleData>
            <SimpleData name="Dias_trans">20.45160879630</SimpleData>
            <SimpleData name="Prioridad">ALTA</SimpleData>
            <SimpleData name="OBJECTID_1">272</SimpleData>
          </SchemaData>
        </ExtendedData>
        <Polygon>
          <outerBoundaryIs>
            <LinearRing>
              <coordinates>
                -56.5072034996346,-23.3419988000426,0
                -56.5083400001857,-23.3420650004383,0
                -56.5084166998039,-23.3419469003686,0
                -56.5084269995937,-23.3417983996258,0
                -56.5085622003361,-23.3416484996684,0
                -56.5085549999714,-23.3415199995752,0
                -56.5072945001664,-23.3413928998318,0
                -56.5072034996346,-23.3419988000426,0
              </coordinates>
            </LinearRing>
          </outerBoundaryIs>
        </Polygon>
      </Placemark>
      <Placemark id="Distrito_AZOTEY.7">
        <ExtendedData>
          <SchemaData schemaUrl="#Distrito_AZOTEY.schema">
            <SimpleData name="Cédula">6609953.00000000000</SimpleData>
            <SimpleData name="cedula">6609953</SimpleData>
            <SimpleData name="Cédula_1">6609953.00000000000</SimpleData>
            <SimpleData name="N">263.00000000000</SimpleData>
            <SimpleData name="Nombres_y_">OSVALDA GARCETE ARCE</SimpleData>
            <SimpleData name="Sexo">Mujer</SimpleData>
            <SimpleData name="Cambio_de_">NO</SimpleData>
            <SimpleData name="Titular_se">NO</SimpleData>
            <SimpleData name="Cédula_Ti">-</SimpleData>
            <SimpleData name="Situación">NO</SimpleData>
            <SimpleData name="Comunidad">Ind?gena</SimpleData>
            <SimpleData name="Modelo_imp">Modelo 1</SimpleData>
            <SimpleData name="Departamen">CONCEPCION</SimpleData>
            <SimpleData name="Distrito">AZOTEY</SimpleData>
            <SimpleData name="Localidad">COM INDIG VYA PAVE-AZOTEY</SimpleData>
            <SimpleData name="Teléfono">0984064525</SimpleData>
            <SimpleData name="Vivienda_L">-23.34240640000</SimpleData>
            <SimpleData name="Vivienda_1">-56.50919970000</SimpleData>
            <SimpleData name="Superficie">0.80000000000</SimpleData>
            <SimpleData name="Situaci_1">Par?metro</SimpleData>
            <SimpleData name="Plantado">Si</SimpleData>
            <SimpleData name="Parcela_La">-23.34225345000</SimpleData>
            <SimpleData name="Parcela_Lo">-56.50764403000</SimpleData>
            <SimpleData name="Grupo_Impl">G3</SimpleData>
            <SimpleData name="Grupo_de_P">J-P1-XX-XX-XX</SimpleData>
            <SimpleData name="Jornales">0.00000000000</SimpleData>
            <SimpleData name="Monto">0.00000000000</SimpleData>
            <SimpleData name="ETAPA_FAO">Mantenimiento A?o 1.1</SimpleData>
            <SimpleData name="Asistencia">-</SimpleData>
            <SimpleData name="Estado_del">Activo</SimpleData>
            <SimpleData name="Empresa">Emilio Sol?s Grance</SimpleData>
            <SimpleData name="Lote">J</SimpleData>
            <SimpleData name="Monitorear">Si</SimpleData>
            <SimpleData name="Fecha_de_M">-</SimpleData>
            <SimpleData name="F__de_pren">-</SimpleData>
            <SimpleData name="Estado_FAO">Monitorear</SimpleData>
            <SimpleData name="Etapa_de_i">Mantenimiento A?o 1.1</SimpleData>
            <SimpleData name="Fecha_visi">2026/08/17</SimpleData>
            <SimpleData name="Cumple_sup">Si</SimpleData>
            <SimpleData name="Estado_mon">-</SimpleData>
            <SimpleData name="Situaci_12">-</SimpleData>
            <SimpleData name="Observaci">-</SimpleData>
            <SimpleData name="Dias_trans">20.45165509260</SimpleData>
            <SimpleData name="Prioridad">ALTA</SimpleData>
            <SimpleData name="OBJECTID_1">263</SimpleData>
          </SchemaData>
        </ExtendedData>
        <Polygon>
          <outerBoundaryIs>
            <LinearRing>
              <coordinates>
                -56.5067015000103,-23.3421645002198,0
                -56.5066974004621,-23.3424111999106,0
                -56.5067109404323,-23.3424119742205,0
                -56.5067110998758,-23.3424087996853,0
                -56.5073727247802,-23.3424498210883,0
                -56.5085790002988,-23.3425188000856,0
                -56.5085829998593,-23.3420925996813,0
                -56.5067023997446,-23.3419913998266,0
                -56.5067015000103,-23.3421645002198,0
              </coordinates>
            </LinearRing>
          </outerBoundaryIs>
        </Polygon>
      </Placemark>
      <Placemark id="Distrito_AZOTEY.8">
        <ExtendedData>
          <SchemaData schemaUrl="#Distrito_AZOTEY.schema">
            <SimpleData name="Cédula">4200849.00000000000</SimpleData>
            <SimpleData name="cedula">4200849</SimpleData>
            <SimpleData name="Cédula_1">4200849.00000000000</SimpleData>
            <SimpleData name="N">267.00000000000</SimpleData>
            <SimpleData name="Nombres_y_">ANA MARIELA RECALDE GARCETE</SimpleData>
            <SimpleData name="Sexo">Mujer</SimpleData>
            <SimpleData name="Cambio_de_">SI</SimpleData>
            <SimpleData name="Titular_se">MARISEL ARCE RECALDE</SimpleData>
            <SimpleData name="Cédula_Ti">6788923</SimpleData>
            <SimpleData name="Situación">0</SimpleData>
            <SimpleData name="Comunidad">Ind?gena</SimpleData>
            <SimpleData name="Modelo_imp">Modelo 1</SimpleData>
            <SimpleData name="Departamen">CONCEPCION</SimpleData>
            <SimpleData name="Distrito">AZOTEY</SimpleData>
            <SimpleData name="Localidad">COM INDIG VYA PAVE-AZOTEY</SimpleData>
            <SimpleData name="Teléfono">0975362702</SimpleData>
            <SimpleData name="Vivienda_L">-23.34643820000</SimpleData>
            <SimpleData name="Vivienda_1">-56.50890520000</SimpleData>
            <SimpleData name="Superficie">0.80000000000</SimpleData>
            <SimpleData name="Situaci_1">Par?metro</SimpleData>
            <SimpleData name="Plantado">Si</SimpleData>
            <SimpleData name="Parcela_La">-23.34598352000</SimpleData>
            <SimpleData name="Parcela_Lo">-56.50666433000</SimpleData>
            <SimpleData name="Grupo_Impl">G3</SimpleData>
            <SimpleData name="Grupo_de_P">J-P1-XX-XX-XX</SimpleData>
            <SimpleData name="Jornales">0.00000000000</SimpleData>
            <SimpleData name="Monto">0.00000000000</SimpleData>
            <SimpleData name="ETAPA_FAO">Mantenimiento A?o 1.1</SimpleData>
            <SimpleData name="Asistencia">-</SimpleData>
            <SimpleData name="Estado_del">Activo</SimpleData>
            <SimpleData name="Empresa">Emilio Sol?s Grance</SimpleData>
            <SimpleData name="Lote">J</SimpleData>
            <SimpleData name="Monitorear">Si</SimpleData>
            <SimpleData name="Fecha_de_M">-</SimpleData>
            <SimpleData name="F__de_pren">-</SimpleData>
            <SimpleData name="Estado_FAO">Monitorear</SimpleData>
            <SimpleData name="Etapa_de_i">Mantenimiento A?o 1.1</SimpleData>
            <SimpleData name="Fecha_visi">2026/08/18</SimpleData>
            <SimpleData name="Cumple_sup">Si</SimpleData>
            <SimpleData name="Estado_mon">-</SimpleData>
            <SimpleData name="Situaci_12">-</SimpleData>
            <SimpleData name="Observaci">-</SimpleData>
            <SimpleData name="Dias_trans">19.47556712960</SimpleData>
            <SimpleData name="Prioridad">ALTA</SimpleData>
            <SimpleData name="OBJECTID_1">267</SimpleData>
          </SchemaData>
        </ExtendedData>
        <Polygon>
          <outerBoundaryIs>
            <LinearRing>
              <coordinates>
                -56.5060908216155,-23.3462750958046,0
                -56.5061151975653,-23.3462784516058,0
                -56.5070549691436,-23.3464078282046,0
                -56.5072216995309,-23.3456692000908,0
                -56.5072112193435,-23.3456681364639,0
                -56.5062766996582,-23.3455732999529,0
                -56.5062179570055,-23.3457950881227,0
                -56.5061065548501,-23.3462156941309,0
                -56.5061015306956,-23.346234662558,0
                -56.5060908216155,-23.3462750958046,0
              </coordinates>
            </LinearRing>
          </outerBoundaryIs>
        </Polygon>
      </Placemark>
      <Placemark id="Distrito_AZOTEY.9">
        <ExtendedData>
          <SchemaData schemaUrl="#Distrito_AZOTEY.schema">
            <SimpleData name="Cédula">6355355.00000000000</SimpleData>
            <SimpleData name="cedula">6355355</SimpleData>
            <SimpleData name="Cédula_1">6355355.00000000000</SimpleData>
            <SimpleData name="N">262.00000000000</SimpleData>
            <SimpleData name="Nombres_y_">TIMOTEA FERNANDEZ ACOSTA</SimpleData>
            <SimpleData name="Sexo">Mujer</SimpleData>
            <SimpleData name="Cambio_de_">NO</SimpleData>
            <SimpleData name="Titular_se">NO</SimpleData>
            <SimpleData name="Cédula_Ti">-</SimpleData>
            <SimpleData name="Situación">NO</SimpleData>
            <SimpleData name="Comunidad">Ind?gena</SimpleData>
            <SimpleData name="Modelo_imp">Modelo 5</SimpleData>
            <SimpleData name="Departamen">CONCEPCION</SimpleData>
            <SimpleData name="Distrito">AZOTEY</SimpleData>
            <SimpleData name="Localidad">COM INDIG VYA PAVE-AZOTEY</SimpleData>
            <SimpleData name="Teléfono">0975373359</SimpleData>
            <SimpleData name="Vivienda_L">-23.34404740000</SimpleData>
            <SimpleData name="Vivienda_1">-56.50968080000</SimpleData>
            <SimpleData name="Superficie">0.70000000000</SimpleData>
            <SimpleData name="Situaci_1">Par?metro</SimpleData>
            <SimpleData name="Plantado">Si</SimpleData>
            <SimpleData name="Parcela_La">-23.34438778000</SimpleData>
            <SimpleData name="Parcela_Lo">-56.51054149000</SimpleData>
            <SimpleData name="Grupo_Impl">G3</SimpleData>
            <SimpleData name="Grupo_de_P">J-P1-XX-XX-XX</SimpleData>
            <SimpleData name="Jornales">0.00000000000</SimpleData>
            <SimpleData name="Monto">0.00000000000</SimpleData>
            <SimpleData name="ETAPA_FAO">Mantenimiento A?o 1.1</SimpleData>
            <SimpleData name="Asistencia">-</SimpleData>
            <SimpleData name="Estado_del">Activo</SimpleData>
            <SimpleData name="Empresa">Emilio Sol?s Grance</SimpleData>
            <SimpleData name="Lote">J</SimpleData>
            <SimpleData name="Monitorear">Si</SimpleData>
            <SimpleData name="Fecha_de_M">-</SimpleData>
            <SimpleData name="F__de_pren">-</SimpleData>
            <SimpleData name="Estado_FAO">Verificar posible desercion</SimpleData>
            <SimpleData name="Etapa_de_i">Mantenimiento A?o 1.1</SimpleData>
            <SimpleData name="Fecha_visi">2026/08/13</SimpleData>
            <SimpleData name="Cumple_sup">-</SimpleData>
            <SimpleData name="Estado_mon">-</SimpleData>
            <SimpleData name="Situaci_12">-</SimpleData>
            <SimpleData name="Observaci">Incendios;La parcela se encuentra con perdida total por incendio</SimpleData>
            <SimpleData name="Dias_trans">24.60222917820</SimpleData>
            <SimpleData name="Prioridad">ALTA</SimpleData>
            <SimpleData name="OBJECTID_1">262</SimpleData>
          </SchemaData>
        </ExtendedData>
        <Polygon>
          <outerBoundaryIs>
            <LinearRing>
              <coordinates>
                -56.510565398009,-23.3441561126179,0
                -56.5100062756879,-23.3440117908601,0
                -56.50989330027,-23.343996700255,0
                -56.5099100997388,-23.3441624997421,0
                -56.5097974998893,-23.3442990000004,0
                -56.509665599598,-23.3443169995444,0
                -56.5096175002639,-23.3443991000106,0
                -56.5099561998029,-23.344404599956,0
                -56.5102113003975,-23.344505500737,0
                -56.5103422003415,-23.3445461007649,0
                -56.5106012998598,-23.3446263996124,0
                -56.5108565999184,-23.3447169004842,0
                -56.5110600998759,-23.3447784010127,0
                -56.511146900066,-23.3447942003467,0
                -56.5111931995535,-23.3447415001467,0
                -56.5112550000295,-23.3446200001223,0
                -56.5111982995491,-23.3443270006256,0
                -56.510565398009,-23.3441561126179,0
              </coordinates>
            </LinearRing>
          </outerBoundaryIs>
        </Polygon>
      </Placemark>
      <Placemark id="Distrito_AZOTEY.10">
        <ExtendedData>
          <SchemaData schemaUrl="#Distrito_AZOTEY.schema">
            <SimpleData name="Cédula">7864423.00000000000</SimpleData>
            <SimpleData name="cedula">7864423</SimpleData>
            <SimpleData name="Cédula_1">7864423.00000000000</SimpleData>
            <SimpleData name="N">135.00000000000</SimpleData>
            <SimpleData name="Nombres_y_">JUANA MENDOZA VELAZQUEZ</SimpleData>
            <SimpleData name="Sexo">Mujer</SimpleData>
            <SimpleData name="Cambio_de_">NO</SimpleData>
            <SimpleData name="Titular_se">NO</SimpleData>
            <SimpleData name="Cédula_Ti">-</SimpleData>
            <SimpleData name="Situación">NO</SimpleData>
            <SimpleData name="Comunidad">Ind?gena</SimpleData>
            <SimpleData name="Modelo_imp">Modelo 5</SimpleData>
            <SimpleData name="Departamen">CONCEPCION</SimpleData>
            <SimpleData name="Distrito">AZOTEY</SimpleData>
            <SimpleData name="Localidad"><![CDATA[COM INDIG VY'A PAVE]]></SimpleData>
            <SimpleData name="Teléfono">991677066</SimpleData>
            <SimpleData name="Vivienda_L">-23.34098710000</SimpleData>
            <SimpleData name="Vivienda_1">-56.50912450000</SimpleData>
            <SimpleData name="Superficie">0.80000000000</SimpleData>
            <SimpleData name="Situaci_1">Parametro</SimpleData>
            <SimpleData name="Plantado">Si</SimpleData>
            <SimpleData name="Parcela_La">-23.34120865000</SimpleData>
            <SimpleData name="Parcela_Lo">-56.50735543000</SimpleData>
            <SimpleData name="Grupo_Impl">G3</SimpleData>
            <SimpleData name="Grupo_de_P">J-P2-XX-XX-XX</SimpleData>
            <SimpleData name="Jornales">0.00000000000</SimpleData>
            <SimpleData name="Monto">0.00000000000</SimpleData>
            <SimpleData name="ETAPA_FAO">Mantenimiento A?o 1.1</SimpleData>
            <SimpleData name="Asistencia">-</SimpleData>
            <SimpleData name="Estado_del">Activo</SimpleData>
            <SimpleData name="Empresa">Emilio Sol?s Grance</SimpleData>
            <SimpleData name="Lote">J</SimpleData>
            <SimpleData name="Monitorear">Si</SimpleData>
            <SimpleData name="Fecha_de_M">-</SimpleData>
            <SimpleData name="F__de_pren">-</SimpleData>
            <SimpleData name="Estado_FAO">Monitorear</SimpleData>
            <SimpleData name="Etapa_de_i">Mantenimiento A?o 1.1</SimpleData>
            <SimpleData name="Fecha_visi">2026/08/17</SimpleData>
            <SimpleData name="Cumple_sup">Si</SimpleData>
            <SimpleData name="Estado_mon">-</SimpleData>
            <SimpleData name="Situaci_12">-</SimpleData>
            <SimpleData name="Observaci">-</SimpleData>
            <SimpleData name="Dias_trans">20.45158564810</SimpleData>
            <SimpleData name="Prioridad">ALTA</SimpleData>
            <SimpleData name="OBJECTID_1">135</SimpleData>
          </SchemaData>
        </ExtendedData>
        <Polygon>
          <outerBoundaryIs>
            <LinearRing>
              <coordinates>
                -56.5063817998786,-23.3412640999834,0
                -56.5083869924435,-23.3415026865585,0
                -56.5084616999206,-23.3411667002999,0
                -56.5077197993299,-23.3410805001746,0
                -56.506689099839,-23.3409690002838,0
                -56.5062071996707,-23.3409319997339,0
                -56.5062247992213,-23.3410890999119,0
                -56.5063817998786,-23.3412640999834,0
              </coordinates>
            </LinearRing>
          </outerBoundaryIs>
        </Polygon>
      </Placemark>
      <Placemark id="Distrito_AZOTEY.11">
        <ExtendedData>
          <SchemaData schemaUrl="#Distrito_AZOTEY.schema">
            <SimpleData name="Cédula">7544435.00000000000</SimpleData>
            <SimpleData name="cedula">7544435</SimpleData>
            <SimpleData name="Cédula_1">7544435.00000000000</SimpleData>
            <SimpleData name="N">269.00000000000</SimpleData>
            <SimpleData name="Nombres_y_">GRACIELA FERNANDEZ ARCE</SimpleData>
            <SimpleData name="Sexo">Mujer</SimpleData>
            <SimpleData name="Cambio_de_">NO</SimpleData>
            <SimpleData name="Titular_se">NO</SimpleData>
            <SimpleData name="Cédula_Ti">-</SimpleData>
            <SimpleData name="Situación">NO</SimpleData>
            <SimpleData name="Comunidad">Ind?gena</SimpleData>
            <SimpleData name="Modelo_imp">Modelo 2</SimpleData>
            <SimpleData name="Departamen">CONCEPCION</SimpleData>
            <SimpleData name="Distrito">AZOTEY</SimpleData>
            <SimpleData name="Localidad">COM INDIG VYA PAVE-AZOTEY</SimpleData>
            <SimpleData name="Teléfono">0975376286</SimpleData>
            <SimpleData name="Vivienda_L">-23.34032690000</SimpleData>
            <SimpleData name="Vivienda_1">-56.50942940000</SimpleData>
            <SimpleData name="Superficie">0.80000000000</SimpleData>
            <SimpleData name="Situaci_1">Par?metro</SimpleData>
            <SimpleData name="Plantado">Si</SimpleData>
            <SimpleData name="Parcela_La">-23.34013004000</SimpleData>
            <SimpleData name="Parcela_Lo">-56.50786077000</SimpleData>
            <SimpleData name="Grupo_Impl">G3</SimpleData>
            <SimpleData name="Grupo_de_P">J-P1-XX-XX-XX</SimpleData>
            <SimpleData name="Jornales">0.00000000000</SimpleData>
            <SimpleData name="Monto">0.00000000000</SimpleData>
            <SimpleData name="ETAPA_FAO">Mantenimiento A?o 1.1</SimpleData>
            <SimpleData name="Asistencia">-</SimpleData>
            <SimpleData name="Estado_del">Activo</SimpleData>
            <SimpleData name="Empresa">Emilio Sol?s Grance</SimpleData>
            <SimpleData name="Lote">J</SimpleData>
            <SimpleData name="Monitorear">Si</SimpleData>
            <SimpleData name="Fecha_de_M">-</SimpleData>
            <SimpleData name="F__de_pren">-</SimpleData>
            <SimpleData name="Estado_FAO">Monitorear</SimpleData>
            <SimpleData name="Etapa_de_i">Mantenimiento A?o 1.1</SimpleData>
            <SimpleData name="Fecha_visi">2026/08/17</SimpleData>
            <SimpleData name="Cumple_sup">Si</SimpleData>
            <SimpleData name="Estado_mon">-</SimpleData>
            <SimpleData name="Situaci_12">-</SimpleData>
            <SimpleData name="Observaci">-</SimpleData>
            <SimpleData name="Dias_trans">20.45092592590</SimpleData>
            <SimpleData name="Prioridad">ALTA</SimpleData>
            <SimpleData name="OBJECTID_1">269</SimpleData>
          </SchemaData>
        </ExtendedData>
        <Polygon>
          <outerBoundaryIs>
            <LinearRing>
              <coordinates>
                -56.5072266945711,-23.3398747851392,0
                -56.5070885991401,-23.3398931000099,0
                -56.5070501468456,-23.3398981737626,0
                -56.5070566991558,-23.3403367001654,0
                -56.5071216005224,-23.3403609001352,0
                -56.5073066992035,-23.3403505998089,0
                -56.5078216999779,-23.3403531007382,0
                -56.5081784993068,-23.3403697002876,0
                -56.5083078990325,-23.3403093003175,0
                -56.5085050003348,-23.34036840024,0
                -56.5087730994813,-23.3403239002073,0
                -56.5087871993885,-23.3401982002437,0
                -56.5087698002211,-23.3400453996473,0
                -56.508007800244,-23.33987420043,0
                -56.5078182992223,-23.339880000252,0
                -56.5076014994561,-23.3398965001176,0
                -56.5075409994433,-23.3398757005938,0
                -56.5074884644481,-23.3398688836194,0
                -56.5073581613552,-23.3398647296877,0
                -56.5072266945711,-23.3398747851392,0
              </coordinates>
            </LinearRing>
          </outerBoundaryIs>
        </Polygon>
      </Placemark>
      <Placemark id="Distrito_AZOTEY.12">
        <ExtendedData>
          <SchemaData schemaUrl="#Distrito_AZOTEY.schema">
            <SimpleData name="Cédula">7544358.00000000000</SimpleData>
            <SimpleData name="cedula">7544358</SimpleData>
            <SimpleData name="Cédula_1">7544358.00000000000</SimpleData>
            <SimpleData name="N">270.00000000000</SimpleData>
            <SimpleData name="Nombres_y_">MARIA FERNANDEZ ARCE</SimpleData>
            <SimpleData name="Sexo">Mujer</SimpleData>
            <SimpleData name="Cambio_de_">NO</SimpleData>
            <SimpleData name="Titular_se">NO</SimpleData>
            <SimpleData name="Cédula_Ti">-</SimpleData>
            <SimpleData name="Situación">NO</SimpleData>
            <SimpleData name="Comunidad">Ind?gena</SimpleData>
            <SimpleData name="Modelo_imp">Modelo 2</SimpleData>
            <SimpleData name="Departamen">CONCEPCION</SimpleData>
            <SimpleData name="Distrito">AZOTEY</SimpleData>
            <SimpleData name="Localidad">COM INDIG VYA PAVE-AZOTEY</SimpleData>
            <SimpleData name="Teléfono">0975376286</SimpleData>
            <SimpleData name="Vivienda_L">-23.34014490000</SimpleData>
            <SimpleData name="Vivienda_1">-56.50933390000</SimpleData>
            <SimpleData name="Superficie">0.80000000000</SimpleData>
            <SimpleData name="Situaci_1">Par?metro</SimpleData>
            <SimpleData name="Plantado">Si</SimpleData>
            <SimpleData name="Parcela_La">-23.33956286000</SimpleData>
            <SimpleData name="Parcela_Lo">-56.50616516000</SimpleData>
            <SimpleData name="Grupo_Impl">G3</SimpleData>
            <SimpleData name="Grupo_de_P">J-P1-XX-XX-XX</SimpleData>
            <SimpleData name="Jornales">0.00000000000</SimpleData>
            <SimpleData name="Monto">0.00000000000</SimpleData>
            <SimpleData name="ETAPA_FAO">Mantenimiento A?o 1.1</SimpleData>
            <SimpleData name="Asistencia">-</SimpleData>
            <SimpleData name="Estado_del">Activo</SimpleData>
            <SimpleData name="Empresa">Emilio Sol?s Grance</SimpleData>
            <SimpleData name="Lote">J</SimpleData>
            <SimpleData name="Monitorear">Si</SimpleData>
            <SimpleData name="Fecha_de_M">-</SimpleData>
            <SimpleData name="F__de_pren">-</SimpleData>
            <SimpleData name="Estado_FAO">Monitorear</SimpleData>
            <SimpleData name="Etapa_de_i">Mantenimiento A?o 1.1</SimpleData>
            <SimpleData name="Fecha_visi">2026/08/17</SimpleData>
            <SimpleData name="Cumple_sup">Si</SimpleData>
            <SimpleData name="Estado_mon">-</SimpleData>
            <SimpleData name="Situaci_12">-</SimpleData>
            <SimpleData name="Observaci">-</SimpleData>
            <SimpleData name="Dias_trans">20.45083333330</SimpleData>
            <SimpleData name="Prioridad">ALTA</SimpleData>
            <SimpleData name="OBJECTID_1">270</SimpleData>
          </SchemaData>
        </ExtendedData>
        <Polygon>
          <outerBoundaryIs>
            <LinearRing>
              <coordinates>
                -56.5061614997769,-23.3392631007414,0
                -56.5059582005617,-23.3393422004608,0
                -56.50562690025,-23.3393037997831,0
                -56.505493499498,-23.3393366998272,0
                -56.5054021995991,-23.3398858999708,0
                -56.5054638000131,-23.3398928998278,0
                -56.5060614000926,-23.339876701098,0
                -56.5061906999048,-23.3398691003352,0
                -56.5063699998437,-23.3398299997233,0
                -56.5068179994481,-23.3399056998011,0
                -56.5068134996012,-23.3391932006473,0
                -56.5065928994164,-23.3391798002497,0
                -56.5061966995053,-23.3391765002064,0
                -56.5061614997769,-23.3392631007414,0
              </coordinates>
            </LinearRing>
          </outerBoundaryIs>
        </Polygon>
      </Placemark>
    </Document>
  </Document>
</kml>
